Suburb,Postcode,State,Address,Lat,Lng,Local government area
Melbourne CBD,3000,VIC,"Melbourne CBD,3000,VIC",-37.8152065,144.963937,City of Melbourne
East Melbourne,3002,VIC,"East Melbourne,3002,VIC",-37.8161444,144.9804594,City of Melbourne
West Melbourne,3003,VIC,"West Melbourne,3003,VIC",-37.8114504,144.9253974,City of Melbourne
Melbourne CBD(St Kilda Roadarea),3004,VIC,"Melbourne CBD(St Kilda Roadarea),3004,VIC",-37.8389467,144.975959,"City of Melbourne(east side to High Street, Prahran);City of Port Phillip(west side and road south of High Street, Prahran)"
South Wharf,3006,VIC,"South Wharf,3006,VIC",-37.825,144.952,City of Melbourne;City of Port Phillip
Southbank,3006,VIC,"Southbank,3006,VIC",-37.829,144.957,City of Melbourne;City of Port Phillip
Docklands,3008,VIC,"Docklands,3008,VIC",-37.8170652,144.9419122,City of Melbourne
Footscray,3011,VIC,"Footscray,3011,VIC",-37.7988987,144.892357,City of Maribyrnong
Seddon,3011,VIC,"Seddon,3011,VIC",-37.8055831,144.891002,City of Maribyrnong
Brooklyn,3012,VIC,"Brooklyn,3012,VIC",-37.8173492,144.8465361,City of Brimbank;City of Hobsons Bay
Kingsville,3012,VIC,"Kingsville,3012,VIC",-37.809,144.878,City of Maribyrnong
Maidstone,3012,VIC,"Maidstone,3012,VIC",-37.783,144.878,City of Maribyrnong
Tottenham,3012,VIC,"Tottenham,3012,VIC",-37.806,144.857,City of Maribyrnong
West Footscray,3012,VIC,"West Footscray,3012,VIC",-37.8020576,144.8703715,City of Maribyrnong
Yarraville,3013,VIC,"Yarraville,3013,VIC",-37.819811,144.8813738,City of Maribyrnong
Newport,3015,VIC,"Newport,3015,VIC",-37.842,144.884,City of Hobsons Bay
South Kingsville,3015,VIC,"South Kingsville,3015,VIC",-37.8300643,144.8703715,City of Hobsons Bay
Spotswood,3015,VIC,"Spotswood,3015,VIC",-37.8292454,144.8813515,City of Hobsons Bay
Williamstown,3016,VIC,"Williamstown,3016,VIC",-37.861,144.885,City of Hobsons Bay
Williamstown North,3016,VIC,"Williamstown North,3016,VIC",-37.8517597,144.8689963,City of Hobsons Bay
Altona,3018,VIC,"Altona,3018,VIC",-37.868,144.83,City of Hobsons Bay
Seaholme,3018,VIC,"Seaholme,3018,VIC",-37.868,144.841,City of Hobsons Bay
Braybrook,3019,VIC,"Braybrook,3019,VIC",-37.7903679,144.8566207,City of Maribyrnong
Albion,3020,VIC,"Albion,3020,VIC",-37.7755151,144.8154448,City of Brimbank
Sunshine,3020,VIC,"Sunshine,3020,VIC",-37.781,144.832,City of Brimbank
Sunshine North,3020,VIC,"Sunshine North,3020,VIC",-37.7645428,144.8312453,City of Brimbank
Sunshine West,3020,VIC,"Sunshine West,3020,VIC",-37.7946685,144.818759,City of Brimbank
Albanvale,3021,VIC,"Albanvale,3021,VIC",-37.746,144.765,City of Brimbank
Kealba,3021,VIC,"Kealba,3021,VIC",-37.739,144.828,City of Brimbank
Kings Park,3021,VIC,"Kings Park,3021,VIC",-37.734,144.772,City of Brimbank
St Albans,3021,VIC,"St Albans,3021,VIC",-37.7442306,144.7999941,City of Brimbank
Ardeer,3022,VIC,"Ardeer,3022,VIC",-37.7776716,144.7988921,City of Brimbank
Burnside,3023,VIC,"Burnside,3023,VIC",-37.753,144.754,City of Melton
Burnside Heights,3023,VIC,"Burnside Heights,3023,VIC",-37.727,144.76,City of Melton
Cairnlea,3023,VIC,"Cairnlea,3023,VIC",-37.7578477,144.7913339,City of Brimbank
Caroline Springs,3023,VIC,"Caroline Springs,3023,VIC",-37.745,144.74,City of Melton
Deer Park,3023,VIC,"Deer Park,3023,VIC",-37.7702749,144.7747728,City of Brimbank
Ravenhall,3023,VIC,"Ravenhall,3023,VIC",-37.7910708,144.7257546,City of Melton
Fieldstone,3024,VIC,"Fieldstone,3024,VIC",-37.8706337,144.5875645,City of Melton
Mambourin,3024,VIC,"Mambourin,3024,VIC",-37.892471,144.5964645,City of Wyndham
Manor Lakes,3024,VIC,"Manor Lakes,3024,VIC",-37.8733986,144.5820828,City of Wyndham
Mount Cottrell,3024,VIC,"Mount Cottrell,3024,VIC",-37.773889,144.631111,City of Melton;City of Wyndham
Wyndham Vale,3024,VIC,"Wyndham Vale,3024,VIC",-37.89,144.63,City of Wyndham
Altona North,3025,VIC,"Altona North,3025,VIC",-37.8388686,144.8346241,City of Hobsons Bay
Laverton North,3026,VIC,"Laverton North,3026,VIC",-37.8294185,144.7796581,City of Wyndham
Williams Landing,3027,VIC,"Williams Landing,3027,VIC",-37.8614859,144.7439497,City of Wyndham
Altona Meadows,3028,VIC,"Altona Meadows,3028,VIC",-37.875,144.782,City of Hobsons Bay
Laverton,3028,VIC,"Laverton,3028,VIC",-37.8592043,144.7704046,City of Hobsons Bay;City of Wyndham
Seabrook,3028,VIC,"Seabrook,3028,VIC",-37.876,144.758,City of Hobsons Bay
Hoppers Crossing,3029,VIC,"Hoppers Crossing,3029,VIC",-37.8629027,144.6854533,City of Wyndham
Tarneit,3029,VIC,"Tarneit,3029,VIC",-37.8091678,144.6672079,City of Wyndham
Truganina,3029,VIC,"Truganina,3029,VIC",-37.8140209,144.7193329,City of Melton;City of Wyndham
Cocoroc,3030,VIC,"Cocoroc,3030,VIC",-37.9686685,144.6215012,City of Wyndham
Derrimut,3030,VIC,"Derrimut,3030,VIC",-37.7927082,144.7715559,City of Brimbank
Point Cook,3030,VIC,"Point Cook,3030,VIC",-37.9178086,144.7477259,City of Wyndham
Werribee,3030,VIC,"Werribee,3030,VIC",-37.8997995,144.6641401,City of Wyndham
Werribee South,3030,VIC,"Werribee South,3030,VIC",-37.937,144.697,City of Wyndham
Flemington,3031,VIC,"Flemington,3031,VIC",-37.7833035,144.9277474,City of Melbourne;City of Moonee Valley
Kensington,3031,VIC,"Kensington,3031,VIC",-37.7941207,144.9276659,City of Melbourne
Ascot Vale,3032,VIC,"Ascot Vale,3032,VIC",-37.7767444,144.9110705,City of Moonee Valley
Maribyrnong,3032,VIC,"Maribyrnong,3032,VIC",-37.77,144.893,City of Maribyrnong
Travancore,3032,VIC,"Travancore,3032,VIC",-37.778,144.935,City of Moonee Valley
Keilor East,3033,VIC,"Keilor East,3033,VIC",-37.7343192,144.8566207,City of Brimbank;City of Moonee Valley
Avondale Heights,3034,VIC,"Avondale Heights,3034,VIC",-37.7628247,144.8648709,City of Moonee Valley
Keilor,3036,VIC,"Keilor,3036,VIC",-37.712,144.831,City of Brimbank;City of Hume
Keilor North,3036,VIC,"Keilor North,3036,VIC",-37.68,144.784,City of Brimbank
Calder Park,3037,VIC,"Calder Park,3037,VIC",-37.679,144.762,City of Brimbank
Delahey,3037,VIC,"Delahey,3037,VIC",-37.719,144.777,City of Brimbank
Hillside,3037,VIC,"Hillside,3037,VIC",-37.687,144.743,City of Brimbank;City of Melton
Sydenham,3037,VIC,"Sydenham,3037,VIC",-37.702,144.767,City of Brimbank
Taylors Hill,3037,VIC,"Taylors Hill,3037,VIC",-37.715,144.751,City of Melton
Keilor Downs,3038,VIC,"Keilor Downs,3038,VIC",-37.722,144.803,City of Brimbank
Keilor Lodge,3038,VIC,"Keilor Lodge,3038,VIC",-37.6982783,144.7988921,City of Brimbank
Taylors Lakes,3038,VIC,"Taylors Lakes,3038,VIC",-37.701,144.796,City of Brimbank
Moonee Ponds,3039,VIC,"Moonee Ponds,3039,VIC",-37.7675363,144.9198932,City of Moonee Valley
Aberfeldie,3040,VIC,"Aberfeldie,3040,VIC",-37.762,144.901,City of Moonee Valley
Essendon,3040,VIC,"Essendon,3040,VIC",-37.7504821,144.9143187,City of Moonee Valley
Essendon West,3040,VIC,"Essendon West,3040,VIC",-37.755,144.883,City of Moonee Valley
Essendon Fields,3041,VIC,"Essendon Fields,3041,VIC",-37.7263122,144.8968793,City of Moonee Valley
Essendon North,3041,VIC,"Essendon North,3041,VIC",-37.7383196,144.8992556,City of Moonee Valley
Strathmore,3041,VIC,"Strathmore,3041,VIC",-37.7358112,144.9191456,City of Moonee Valley
Strathmore Heights,3041,VIC,"Strathmore Heights,3041,VIC",-37.713,144.897,City of Moonee Valley
Airport West,3042,VIC,"Airport West,3042,VIC",-37.726234,144.8813526,City of Moonee Valley
Keilor Park,3042,VIC,"Keilor Park,3042,VIC",-37.7200817,144.8514577,City of Brimbank
Niddrie,3042,VIC,"Niddrie,3042,VIC",-37.745,144.886,City of Moonee Valley
Gladstone Park,3043,VIC,"Gladstone Park,3043,VIC",-37.6926696,144.8951801,City of Hume
Gowanbrae,3043,VIC,"Gowanbrae,3043,VIC",-37.7062908,144.8948907,City of Moreland
Tullamarine,3043,VIC,"Tullamarine,3043,VIC",-37.6994841,144.8803113,City of Brimbank;City of Hume;City of Moreland
Pascoe Vale,3044,VIC,"Pascoe Vale,3044,VIC",-37.727,144.942,City of Moreland
Pascoe Vale South,3044,VIC,"Pascoe Vale South,3044,VIC",-37.7457735,144.9384576,City of Moreland
Melbourne Airport,3045,VIC,"Melbourne Airport,3045,VIC",-37.6690123,144.8410273,City of Hume
Glenroy,3046,VIC,"Glenroy,3046,VIC",-37.7062465,144.9161373,City of Moreland
Hadfield,3046,VIC,"Hadfield,3046,VIC",-37.71,144.95,City of Moreland
Oak Park,3046,VIC,"Oak Park,3046,VIC",-37.718,144.919,City of Moreland
Broadmeadows,3047,VIC,"Broadmeadows,3047,VIC",-37.6860869,144.9269889,City of Hume
Dallas,3047,VIC,"Dallas,3047,VIC",-37.668,144.94,City of Hume
Jacana,3047,VIC,"Jacana,3047,VIC",-37.687232,144.9128564,City of Hume
Coolaroo,3048,VIC,"Coolaroo,3048,VIC",-37.6562333,144.9364069,City of Hume
Meadow Heights,3048,VIC,"Meadow Heights,3048,VIC",-37.65,144.922,City of Hume
Attwood,3049,VIC,"Attwood,3049,VIC",-37.666,144.887,City of Hume
Westmeadows,3049,VIC,"Westmeadows,3049,VIC",-37.678,144.893,City of Hume
North Melbourne,3051,VIC,"North Melbourne,3051,VIC",-37.7983816,144.9419122,City of Melbourne;City of Moonee Valley
Parkville,3052,VIC,"Parkville,3052,VIC",-37.7862363,144.9474178,City of Melbourne
Carlton,3053,VIC,"Carlton,3053,VIC",-37.798389,144.9694441,City of Melbourne
Carlton North,3054,VIC,"Carlton North,3054,VIC",-37.788805,144.9719823,City of Melbourne;City of Yarra
Princes Hill,3054,VIC,"Princes Hill,3054,VIC",-37.784,144.966,City of Yarra
Brunswick West,3055,VIC,"Brunswick West,3055,VIC",-37.761,144.9419122,City of Moreland
Brunswick,3056,VIC,"Brunswick,3056,VIC",-37.7666099,144.9584302,City of Moreland
Brunswick East,3057,VIC,"Brunswick East,3057,VIC",-37.769412,144.9804594,City of Moreland
Coburg,3058,VIC,"Coburg,3058,VIC",-37.7438,144.9645,City of Moreland
Coburg North,3058,VIC,"Coburg North,3058,VIC",-37.726,144.96,City of Moreland
Greenvale,3059,VIC,"Greenvale,3059,VIC",-37.6454887,144.8841246,City of Hume
Fawkner,3060,VIC,"Fawkner,3060,VIC",-37.6969273,144.9666905,City of Moreland
Campbellfield,3061,VIC,"Campbellfield,3061,VIC",-37.665113,144.955677,City of Hume
Somerton,3062,VIC,"Somerton,3062,VIC",-37.6332889,144.944665,City of Hume
Oaklands Junction,3063,VIC,"Oaklands Junction,3063,VIC",-37.6117964,144.8401227,City of Hume
Yuroke,3063,VIC,"Yuroke,3063,VIC",-37.6,144.88,City of Hume
Craigieburn,3064,VIC,"Craigieburn,3064,VIC",-37.594,144.934,City of Hume
Kalkallo,3064,VIC,"Kalkallo,3064,VIC",-37.5245635,144.955677,City of Hume
Mickleham,3064,VIC,"Mickleham,3064,VIC",-37.562,144.874,City of Hume
Roxburgh Park,3064,VIC,"Roxburgh Park,3064,VIC",-37.627,144.929,City of Hume
Fitzroy,3065,VIC,"Fitzroy,3065,VIC",-37.7974551,144.9804594,City of Yarra
Collingwood,3066,VIC,"Collingwood,3066,VIC",-37.8009595,144.9873447,City of Yarra
Abbotsford,3067,VIC,"Abbotsford,3067,VIC",-37.8023601,144.9983623,City of Yarra
Clifton Hill,3068,VIC,"Clifton Hill,3068,VIC",-37.7877787,145.0002125,City of Yarra
Fitzroy North,3068,VIC,"Fitzroy North,3068,VIC",-37.7832944,144.9838466,City of Yarra
Northcote,3070,VIC,"Northcote,3070,VIC",-37.7736132,144.9997396,City of Darebin
Thornbury,3071,VIC,"Thornbury,3071,VIC",-37.7600493,145.0080039,City of Darebin
Preston,3072,VIC,"Preston,3072,VIC",-37.7399362,145.0107588,City of Darebin
Reservoir,3073,VIC,"Reservoir,3073,VIC",-37.7118644,145.0107588,City of Darebin
Thomastown,3074,VIC,"Thomastown,3074,VIC",-37.6837819,145.0107588,City of Whittlesea
Lalor,3075,VIC,"Lalor,3075,VIC",-37.6650543,145.0107588,City of Whittlesea
Epping,3076,VIC,"Epping,3076,VIC",-37.6341341,145.016269,City of Whittlesea
Alphington,3078,VIC,"Alphington,3078,VIC",-37.78,145.023,City of Darebin;City of Yarra
Fairfield,3078,VIC,"Fairfield,3078,VIC",-37.7790074,145.0181267,City of Darebin;City of Yarra
Ivanhoe,3079,VIC,"Ivanhoe,3079,VIC",-37.7703,145.0457,City of Banyule
Ivanhoe East,3079,VIC,"Ivanhoe East,3079,VIC",-37.772,145.066,City of Banyule
Bellfield,3081,VIC,"Bellfield,3081,VIC",-37.754,145.045,City of Banyule
Heidelberg Heights,3081,VIC,"Heidelberg Heights,3081,VIC",-37.742,145.053,City of Banyule
Heidelberg West,3081,VIC,"Heidelberg West,3081,VIC",-37.744,145.047,City of Banyule
Mill Park,3082,VIC,"Mill Park,3082,VIC",-37.6649616,145.0658766,City of Whittlesea
Bundoora,3083,VIC,"Bundoora,3083,VIC",-37.6987006,145.0548502,City of Banyule;City of Darebin;City of Whittlesea
Kingsbury,3083,VIC,"Kingsbury,3083,VIC",-37.715,145.034,City of Darebin
Eaglemont,3084,VIC,"Eaglemont,3084,VIC",-37.763,145.066,City of Banyule
Heidelberg,3084,VIC,"Heidelberg,3084,VIC",-37.752,145.07,City of Banyule
Rosanna,3084,VIC,"Rosanna,3084,VIC",-37.737,145.069,City of Banyule
Viewbank,3084,VIC,"Viewbank,3084,VIC",-37.731,145.1,City of Banyule
Macleod,3085,VIC,"Macleod,3085,VIC",-37.714,145.066,City of Banyule;City of Darebin
Yallambie,3085,VIC,"Yallambie,3085,VIC",-37.726,145.104,City of Banyule
Watsonia,3087,VIC,"Watsonia,3087,VIC",-37.708,145.083,City of Banyule
Watsonia North,3087,VIC,"Watsonia North,3087,VIC",-37.7,145.081,City of Banyule
Briar Hill,3088,VIC,"Briar Hill,3088,VIC",-37.708,145.115,City of Banyule
Greensborough,3088,VIC,"Greensborough,3088,VIC",-37.7043698,145.1006438,City of Banyule;Shire of Nillumbik
St Helena,3088,VIC,"St Helena,3088,VIC",-37.686,145.137,City of Banyule
Diamond Creek,3089,VIC,"Diamond Creek,3089,VIC",-37.6666174,145.1541397,Shire of Nillumbik
Plenty,3090,VIC,"Plenty,3090,VIC",-37.670486,145.1099967,Shire of Nillumbik
Yarrambat,3091,VIC,"Yarrambat,3091,VIC",-37.6404295,145.1320653,Shire of Nillumbik
Lower Plenty,3093,VIC,"Lower Plenty,3093,VIC",-37.7393287,145.112755,City of Banyule
Montmorency,3094,VIC,"Montmorency,3094,VIC",-37.7196403,145.1237889,City of Banyule
Eltham,3095,VIC,"Eltham,3095,VIC",-37.715,145.158,City of Banyule;Shire of Nillumbik
Eltham North,3095,VIC,"Eltham North,3095,VIC",-37.698,145.144,City of Banyule;Shire of Nillumbik
Research,3095,VIC,"Research,3095,VIC",-37.707,145.18,Shire of Nillumbik
Wattle Glen,3096,VIC,"Wattle Glen,3096,VIC",-37.6683887,145.1872619,Shire of Nillumbik
Bend of Islands,3097,VIC,"Bend of Islands,3097,VIC",-37.6980733,145.2756505,Shire of Nillumbik
Kangaroo Ground,3097,VIC,"Kangaroo Ground,3097,VIC",-37.686,145.216,Shire of Nillumbik
Watsons Creek,3097,VIC,"Watsons Creek,3097,VIC",-37.67,145.258,Shire of Nillumbik
Cottles Bridge,3099,VIC,"Cottles Bridge,3099,VIC",-37.622,145.219,Shire of Nillumbik
Hurstbridge,3099,VIC,"Hurstbridge,3099,VIC",-37.638889,145.195,Shire of Nillumbik
Nutfield,3099,VIC,"Nutfield,3099,VIC",-37.603,145.181,Shire of Nillumbik
Strathewen,3099,VIC,"Strathewen,3099,VIC",-37.55,145.266667,Shire of Nillumbik
Kew,3101,VIC,"Kew,3101,VIC",-37.803516,145.0328017,City of Boroondara
Kew East,3102,VIC,"Kew East,3102,VIC",-37.7922797,145.0548502,City of Boroondara
Balwyn,3103,VIC,"Balwyn,3103,VIC",-37.808889,145.078889,City of Boroondara
Deepdene,3103,VIC,"Deepdene,3103,VIC",-37.813056,145.067778,City of Boroondara
Balwyn North,3104,VIC,"Balwyn North,3104,VIC",-37.7941151,145.0879338,City of Boroondara
Bulleen,3105,VIC,"Bulleen,3105,VIC",-37.7660476,145.0879338,City of Manningham
Templestowe,3106,VIC,"Templestowe,3106,VIC",-37.7537669,145.1486206,City of Manningham
Templestowe Lower,3107,VIC,"Templestowe Lower,3107,VIC",-37.7641408,145.1099967,City of Manningham
Doncaster,3108,VIC,"Doncaster,3108,VIC",-37.7865824,145.1210303,City of Manningham
Doncaster East,3109,VIC,"Doncaster East,3109,VIC",-37.7883929,145.1541397,City of Manningham
Donvale,3111,VIC,"Donvale,3111,VIC",-37.7901921,145.1872619,City of Manningham
North Warrandyte,3113,VIC,"North Warrandyte,3113,VIC",-37.726,145.216,Shire of Nillumbik
Warrandyte,3113,VIC,"Warrandyte,3113,VIC",-37.738,145.223,City of Manningham
Park Orchards,3114,VIC,"Park Orchards,3114,VIC",-37.7760752,145.2148736,City of Manningham
Park Orchards,3114,VIC,"Park Orchards,3114,VIC",-37.7760752,145.2148736,City of Maroondah
Wonga Park,3115,VIC,"Wonga Park,3115,VIC",-37.7347069,145.2590707,City of Manningham
Chirnside Park,3116,VIC,"Chirnside Park,3116,VIC",-37.7373267,145.3088196,Shire of Yarra Ranges
Burnley,3121,VIC,"Burnley,3121,VIC",-37.8296728,145.0126479,City of Yarra
Cremorne,3121,VIC,"Cremorne,3121,VIC",-37.83,144.993,City of Yarra
Richmond,3121,VIC,"Richmond,3121,VIC",-37.823,144.998,City of Yarra
Hawthorn,3122,VIC,"Hawthorn,3122,VIC",-37.8222114,145.0328017,City of Boroondara
Hawthorn East,3123,VIC,"Hawthorn East,3123,VIC",-37.8310813,145.0520938,City of Boroondara
Camberwell,3124,VIC,"Camberwell,3124,VIC",-37.8334095,145.0658766,City of Boroondara
Burwood,3125,VIC,"Burwood,3125,VIC",-37.8483275,145.1099967,City of Monash;City of Whitehorse
Canterbury,3126,VIC,"Canterbury,3126,VIC",-37.8245223,145.0741474,City of Boroondara
Mont Albert,3127,VIC,"Mont Albert,3127,VIC",-37.816111,145.11,City of Boroondara;City of Whitehorse
Mont Albert North,3127,VIC,"Mont Albert North,3127,VIC",-37.8259003,145.0989646,City of Boroondara
Surrey Hills,3127,VIC,"Surrey Hills,3127,VIC",-37.83,145.106,City of Boroondara;City of Whitehorse
Box Hill,3128,VIC,"Box Hill,3128,VIC",-37.8181073,145.1238563,City of Whitehorse
Box Hill South,3128,VIC,"Box Hill South,3128,VIC",-37.836,145.124,City of Whitehorse
Box Hill North,3129,VIC,"Box Hill North,3129,VIC",-37.8083033,145.125759,City of Whitehorse
Blackburn,3130,VIC,"Blackburn,3130,VIC",-37.826,145.151,City of Whitehorse
Blackburn North,3130,VIC,"Blackburn North,3130,VIC",-37.8064051,145.1586444,City of Whitehorse
Blackburn South,3130,VIC,"Blackburn South,3130,VIC",-37.838,145.144,City of Whitehorse
Forest Hill,3131,VIC,"Forest Hill,3131,VIC",-37.842,145.172,City of Whitehorse
Nunawading,3131,VIC,"Nunawading,3131,VIC",-37.8184273,145.1760206,City of Manningham;City of Whitehorse
Mitcham,3132,VIC,"Mitcham,3132,VIC",-37.8219905,145.1983055,City of Whitehorse
Vermont,3133,VIC,"Vermont,3133,VIC",-37.838,145.198,City of Maroondah;City of Whitehorse
Vermont,3133,VIC,"Vermont,3133,VIC",-37.838,145.198,City of Whitehorse
Vermont South,3133,VIC,"Vermont South,3133,VIC",-37.8565882,145.183373,City of Whitehorse
Ringwood,3134,VIC,"Ringwood,3134,VIC",-37.8106372,145.2307011,City of Maroondah
Ringwood North,3134,VIC,"Ringwood North,3134,VIC",-37.799883,145.226877,City of Manningham;City of Maroondah
Warrandyte South,3134,VIC,"Warrandyte South,3134,VIC",-37.7605268,145.2452567,City of Manningham
Warranwood,3134,VIC,"Warranwood,3134,VIC",-37.777,145.249,City of Maroondah
Heathmont,3135,VIC,"Heathmont,3135,VIC",-37.83,145.242,City of Maroondah
Ringwood East,3135,VIC,"Ringwood East,3135,VIC",-37.818,145.252,City of Maroondah
Croydon,3136,VIC,"Croydon,3136,VIC",-37.796,145.281,City of Maroondah
Croydon Hills,3136,VIC,"Croydon Hills,3136,VIC",-37.775,145.266,City of Maroondah
Croydon North,3136,VIC,"Croydon North,3136,VIC",-37.767,145.287,City of Maroondah
Croydon South,3136,VIC,"Croydon South,3136,VIC",-37.814,145.271,City of Maroondah
Kilsyth,3137,VIC,"Kilsyth,3137,VIC",-37.802,145.316,City of Maroondah
Kilsyth,3137,VIC,"Kilsyth,3137,VIC",-37.802,145.316,Shire of Yarra Ranges
Kilsyth South,3137,VIC,"Kilsyth South,3137,VIC",-37.8296238,145.3115843,City of Maroondah
Mooroolbark,3138,VIC,"Mooroolbark,3138,VIC",-37.7822365,145.3309395,Shire of Yarra Ranges
Beenak,3139,VIC,"Beenak,3139,VIC",-37.8986154,145.6090481,Shire of Yarra Ranges
Don Valley,3139,VIC,"Don Valley,3139,VIC",-37.761389,145.584444,Shire of Yarra Ranges
Hoddles Creek,3139,VIC,"Hoddles Creek,3139,VIC",-37.833,145.583,Shire of Yarra Ranges
Launching Place,3139,VIC,"Launching Place,3139,VIC",-37.774,145.588,Shire of Yarra Ranges
Seville,3139,VIC,"Seville,3139,VIC",-37.777,145.461,Shire of Yarra Ranges
Seville East,3139,VIC,"Seville East,3139,VIC",-37.774,145.491,Shire of Yarra Ranges
Wandin East,3139,VIC,"Wandin East,3139,VIC",-37.811,145.453,Shire of Yarra Ranges
Wandin North,3139,VIC,"Wandin North,3139,VIC",-37.769,145.411,Shire of Yarra Ranges
Woori Yallock,3139,VIC,"Woori Yallock,3139,VIC",-37.778,145.528,Shire of Yarra Ranges
Yellingbo,3139,VIC,"Yellingbo,3139,VIC",-37.81,145.51,Shire of Yarra Ranges
Lilydale,3140,VIC,"Lilydale,3140,VIC",-37.7643547,145.3475331,Shire of Yarra Ranges
South Yarra,3141,VIC,"South Yarra,3141,VIC",-37.838568,144.9914761,City of Melbourne;City of Stonnington
Toorak,3142,VIC,"Toorak,3142,VIC",-37.8432402,145.0190242,City of Stonnington
Armadale,3143,VIC,"Armadale,3143,VIC",-37.857253,145.0190242,City of Stonnington
Kooyong,3144,VIC,"Kooyong,3144,VIC",-37.841944,145.035,City of Stonnington
Malvern,3144,VIC,"Malvern,3144,VIC",-37.8572432,145.0341642,City of Stonnington
Caulfield East,3145,VIC,"Caulfield East,3145,VIC",-37.8791959,145.0444397,City of Glen Eira
Malvern East,3145,VIC,"Malvern East,3145,VIC",-37.8773116,145.059272,City of Stonnington
Glen Iris,3146,VIC,"Glen Iris,3146,VIC",-37.8577136,145.0548502,City of Boroondara;City of Stonnington
Ashburton,3147,VIC,"Ashburton,3147,VIC",-37.866944,145.083056,City of Boroondara
Ashwood,3147,VIC,"Ashwood,3147,VIC",-37.867,145.103,City of Monash
Chadstone,3148,VIC,"Chadstone,3148,VIC",-37.8819831,145.0989646,City of Monash
Mount Waverley,3149,VIC,"Mount Waverley,3149,VIC",-37.8772869,145.1265477,City of Monash
Glen Waverley,3150,VIC,"Glen Waverley,3150,VIC",-37.8743502,145.1668205,City of Monash
Wheelers Hill,3150,VIC,"Wheelers Hill,3150,VIC",-37.9067871,145.1890123,City of Monash
Burwood East,3151,VIC,"Burwood East,3151,VIC",-37.8552869,145.1513801,City of Whitehorse
Wantirna,3152,VIC,"Wantirna,3152,VIC",-37.8479567,145.2289289,City of Knox
Wantirna South,3152,VIC,"Wantirna South,3152,VIC",-37.8769518,145.2329617,City of Knox
Bayswater,3153,VIC,"Bayswater,3153,VIC",-37.843,145.268,City of Knox
Bayswater North,3153,VIC,"Bayswater North,3153,VIC",-37.827,145.28,City of Maroondah
The Basin,3154,VIC,"The Basin,3154,VIC",-37.8534742,145.3198788,City of Knox
Boronia,3155,VIC,"Boronia,3155,VIC",-37.8610682,145.2867055,City of Knox
Ferntree Gully,3156,VIC,"Ferntree Gully,3156,VIC",-37.8862,145.2821,City of Knox
Lysterfield,3156,VIC,"Lysterfield,3156,VIC",-37.93,145.301,City of Knox(as a suburb);Shire of Yarra Ranges(as a rural locality)
Lysterfield South,3156,VIC,"Lysterfield South,3156,VIC",-37.949,145.26,City of Casey
Upper Ferntree Gully,3156,VIC,"Upper Ferntree Gully,3156,VIC",-37.895,145.31,City of Knox;Shire of Yarra Ranges
Upwey,3158,VIC,"Upwey,3158,VIC",-37.9039829,145.3309395,Shire of Yarra Ranges
Menzies Creek,3159,VIC,"Menzies Creek,3159,VIC",-37.931,145.398,Shire of Cardinia;Shire of Yarra Ranges
Selby,3159,VIC,"Selby,3159,VIC",-37.914,145.369,Shire of Yarra Ranges
Belgrave,3160,VIC,"Belgrave,3160,VIC",-37.912067,145.3558,Shire of Yarra Ranges
Belgrave Heights,3160,VIC,"Belgrave Heights,3160,VIC",-37.923,145.34,Shire of Yarra Ranges
Belgrave South,3160,VIC,"Belgrave South,3160,VIC",-37.94,145.356,Shire of Yarra Ranges
Tecoma,3160,VIC,"Tecoma,3160,VIC",-37.906,145.344,Shire of Yarra Ranges
Caulfield North,3161,VIC,"Caulfield North,3161,VIC",-37.8712631,145.0190242,City of Glen Eira
Caulfield,3162,VIC,"Caulfield,3162,VIC",-37.884,145.0266,City of Glen Eira
Caulfield South,3162,VIC,"Caulfield South,3162,VIC",-37.891,145.026,City of Glen Eira
Carnegie,3163,VIC,"Carnegie,3163,VIC",-37.888,145.062,City of Glen Eira
Glen Huntly,3163,VIC,"Glen Huntly,3163,VIC",-37.8927437,145.0410692,City of Glen Eira
Murrumbeena,3163,VIC,"Murrumbeena,3163,VIC",-37.8978307,145.070895,City of Glen Eira
Bentleigh East,3165,VIC,"Bentleigh East,3165,VIC",-37.9174873,145.0658766,City of Glen Eira
Hughesdale,3166,VIC,"Hughesdale,3166,VIC",-37.8966159,145.0832264,City of Monash
Huntingdale,3166,VIC,"Huntingdale,3166,VIC",-37.9074344,145.1086176,City of Monash
Oakleigh,3166,VIC,"Oakleigh,3166,VIC",-37.8990236,145.0923305,City of Monash
Oakleigh East,3166,VIC,"Oakleigh East,3166,VIC",-37.9085262,145.1181383,City of Monash
Oakleigh South,3167,VIC,"Oakleigh South,3167,VIC",-37.9193474,145.0989646,City of Monash
Clayton,3168,VIC,"Clayton,3168,VIC",-37.9211962,145.1320653,City of Monash
Notting Hill,3168,VIC,"Notting Hill,3168,VIC",-37.9048347,145.1458611,City of Monash
Clarinda,3169,VIC,"Clarinda,3169,VIC",-37.941,145.103,City of Kingston
Clayton South,3169,VIC,"Clayton South,3169,VIC",-37.9388113,145.1267061,City of Kingston
Mulgrave,3170,VIC,"Mulgrave,3170,VIC",-37.9267579,145.1762197,City of Monash
Springvale,3171,VIC,"Springvale,3171,VIC",-37.9473307,145.1541397,City of Greater Dandenong
Dingley Village,3172,VIC,"Dingley Village,3172,VIC",-37.981,145.128,City of Kingston
Springvale South,3172,VIC,"Springvale South,3172,VIC",-37.977,145.157,City of Greater Dandenong
Keysborough,3173,VIC,"Keysborough,3173,VIC",-38.0042683,145.1706992,City of Greater Dandenong
Noble Park,3174,VIC,"Noble Park,3174,VIC",-37.9650097,145.1733926,City of Greater Dandenong
Noble Park North,3174,VIC,"Noble Park North,3174,VIC",-37.954525,145.1908285,City of Greater Dandenong
Bangholme,3175,VIC,"Bangholme,3175,VIC",-38.0453436,145.1702424,City of Greater Dandenong
Dandenong,3175,VIC,"Dandenong,3175,VIC",-37.9847811,145.2139907,City of Greater Dandenong
Dandenong North,3175,VIC,"Dandenong North,3175,VIC",-37.9592436,145.206837,City of Greater Dandenong
Dandenong South,3175,VIC,"Dandenong South,3175,VIC",-38.0146698,145.2153096,City of Greater Dandenong
Doveton,3177,VIC,"Doveton,3177,VIC",-37.9876769,145.2394075,City of Casey
Eumemmerring,3177,VIC,"Eumemmerring,3177,VIC",-37.999,145.247,City of Casey
Rowville,3178,VIC,"Rowville,3178,VIC",-37.9210442,145.2424941,City of Knox
Scoresby,3179,VIC,"Scoresby,3179,VIC",-37.9042587,145.220397,City of Knox
Knoxfield,3180,VIC,"Knoxfield,3180,VIC",-37.8887649,145.250782,City of Knox
Prahran,3181,VIC,"Prahran,3181,VIC",-37.852,144.998,City of Stonnington
Windsor,3181,VIC,"Windsor,3181,VIC",-37.854,144.988,City of Stonnington
St Kilda,3182,VIC,"St Kilda,3182,VIC",-37.864,144.982,City of Port Phillip
St Kilda West,3182,VIC,"St Kilda West,3182,VIC",-37.8604,144.9732,City of Port Phillip
Balaclava,3183,VIC,"Balaclava,3183,VIC",-37.873,144.993,City of Port Phillip
St Kilda East,3183,VIC,"St Kilda East,3183,VIC",-37.8626196,145.0007064,City of Glen Eira;City of Port Phillip
Elwood,3184,VIC,"Elwood,3184,VIC",-37.878722,144.9859676,City of Port Phillip
Elsternwick,3185,VIC,"Elsternwick,3185,VIC",-37.8849536,145.0059691,City of Glen Eira
Gardenvale,3185,VIC,"Gardenvale,3185,VIC",-37.899,145.007,City of Bayside
Gardenvale,3185,VIC,"Gardenvale,3185,VIC",-37.899,145.007,City of Glen Eira
Ripponlea,3185,VIC,"Ripponlea,3185,VIC",-37.8784934,144.9956077,City of Port Phillip
Brighton,3186,VIC,"Brighton,3186,VIC",-37.9044002,144.9997396,City of Bayside
Brighton East,3187,VIC,"Brighton East,3187,VIC",-37.9179439,145.0190242,City of Bayside
Hampton,3188,VIC,"Hampton,3188,VIC",-37.937,145.009,City of Bayside
Hampton East,3188,VIC,"Hampton East,3188,VIC",-37.939,145.031,City of Bayside
Moorabbin,3189,VIC,"Moorabbin,3189,VIC",-37.9403568,145.0576067,City of Bayside;City of Kingston
Highett,3190,VIC,"Highett,3190,VIC",-37.9487497,145.0410692,City of Bayside;City of Kingston
Sandringham,3191,VIC,"Sandringham,3191,VIC",-37.9533967,145.0135139,City of Bayside
Cheltenham,3192,VIC,"Cheltenham,3192,VIC",-37.964155,145.0658766,City of Bayside;City of Kingston
Beaumaris,3193,VIC,"Beaumaris,3193,VIC",-37.983,145.0434,City of Bayside
Black Rock,3193,VIC,"Black Rock,3193,VIC",-37.972,145.021,City of Bayside
Mentone,3194,VIC,"Mentone,3194,VIC",-37.985,145.068889,City of Kingston
Moorabbin Airport,3194,VIC,"Moorabbin Airport,3194,VIC",-37.9786237,145.1017225,City of Kingston
Aspendale,3195,VIC,"Aspendale,3195,VIC",-38.025,145.104,City of Kingston
Aspendale Gardens,3195,VIC,"Aspendale Gardens,3195,VIC",-38.022778,145.118889,City of Kingston
Braeside,3195,VIC,"Braeside,3195,VIC",-38,145.125,City of Kingston
Mordialloc,3195,VIC,"Mordialloc,3195,VIC",-37.999,145.092,City of Kingston
Parkdale,3195,VIC,"Parkdale,3195,VIC",-37.991,145.08,City of Kingston
Waterways,3195,VIC,"Waterways,3195,VIC",-38.0147634,145.1305169,City of Kingston
Bonbeach,3196,VIC,"Bonbeach,3196,VIC",-38.062,145.12,City of Kingston
Chelsea,3196,VIC,"Chelsea,3196,VIC",-38.051111,145.121944,City of Kingston
Chelsea Heights,3196,VIC,"Chelsea Heights,3196,VIC",-38.047,145.137,City of Kingston
Edithvale,3196,VIC,"Edithvale,3196,VIC",-38.037,145.113,City of Kingston
Carrum,3197,VIC,"Carrum,3197,VIC",-38.076,145.122,City of Kingston
Patterson Lakes,3197,VIC,"Patterson Lakes,3197,VIC",-38.0742262,145.1431018,City of Kingston
Seaford,3198,VIC,"Seaford,3198,VIC",-38.1021858,145.1431018,City of Frankston
Frankston,3199,VIC,"Frankston,3199,VIC",-38.1466246,145.135722,City of Frankston
Frankston South,3199,VIC,"Frankston South,3199,VIC",-38.188,145.153,City of Frankston
Frankston North,3200,VIC,"Frankston North,3200,VIC",-38.1250223,145.162419,City of Frankston
Carrum Downs,3201,VIC,"Carrum Downs,3201,VIC",-38.0975353,145.1706992,City of Frankston
Heatherton,3202,VIC,"Heatherton,3202,VIC",-37.9529597,145.0879338,City of Kingston
Bentleigh,3204,VIC,"Bentleigh,3204,VIC",-37.9224386,145.0410079,City of Glen Eira
McKinnon,3204,VIC,"McKinnon,3204,VIC",-37.91,145.039,City of Glen Eira
Ormond,3204,VIC,"Ormond,3204,VIC",-37.902081,145.0410692,City of Glen Eira
South Melbourne,3205,VIC,"South Melbourne,3205,VIC",-37.8338889,144.963937,City of Port Phillip
Albert Park,3206,VIC,"Albert Park,3206,VIC",-37.8438609,144.9514536,City of Port Phillip
Middle Park,3206,VIC,"Middle Park,3206,VIC",-37.851944,144.963056,City of Port Phillip
Port Melbourne,3207,VIC,"Port Melbourne,3207,VIC",-37.8315264,144.9226452,City of Melbourne;City of Port Phillip
Little River,3211,VIC,"Little River,3211,VIC",-37.9368044,144.4561033,City of Wyndham;City of Greater Geelong
Bonnie Brook,3335,VIC,"Bonnie Brook,3335,VIC",-37.7143753,144.6753231,City of Melton
Grangefields,3335,VIC,"Grangefields,3335,VIC",-37.7143753,144.6753231,City of Melton
Plumpton,3335,VIC,"Plumpton,3335,VIC",-37.688056,144.668056,City of Melton
Rockbank,3335,VIC,"Rockbank,3335,VIC",-37.733333,144.666667,City of Melton
Thornhill Park,3335,VIC,"Thornhill Park,3335,VIC",-37.7083084,144.6212319,City of Melton
Aintree,3336,VIC,"Aintree,3336,VIC",-37.7278908,144.6671955,City of Melton
Deanside,3336,VIC,"Deanside,3336,VIC",-37.7290141,144.7083286,City of Melton
Fraser Rise,3336,VIC,"Fraser Rise,3336,VIC",-37.7094596,144.7311814,City of Melton
Harkness,3337,VIC,"Harkness,3337,VIC",-37.6682067,144.5581249,City of Melton
Kurunjang,3337,VIC,"Kurunjang,3337,VIC",-37.672,144.585,City of Melton
Melton,3337,VIC,"Melton,3337,VIC",-37.677,144.612,City of Melton
Melton West,3337,VIC,"Melton West,3337,VIC",-37.675,144.555,City of Melton
Toolern Vale,3337,VIC,"Toolern Vale,3337,VIC",-37.608056,144.593056,City of Melton
Brookfield,3338,VIC,"Brookfield,3338,VIC",-37.6999038,144.5382417,City of Melton
Cobblebank,3338,VIC,"Cobblebank,3338,VIC",-37.7062046,144.6019571,City of Melton
Exford,3338,VIC,"Exford,3338,VIC",-37.7185795,144.5349356,City of Melton
Eynesbury,3338,VIC,"Eynesbury,3338,VIC",-37.7471636,144.5640379,City of Melton;City of Wyndham
Melton South,3338,VIC,"Melton South,3338,VIC",-37.703056,144.571944,City of Melton
Strathtulloh,3338,VIC,"Strathtulloh,3338,VIC",-37.7407584,144.5957183,City of Melton
Weir Views,3338,VIC,"Weir Views,3338,VIC",-37.7307307,144.5756734,City of Melton
Parwan,3340,VIC,"Parwan,3340,VIC",-37.716667,144.45,City of Melton;Shire of Moorabool
Quandong,3340,VIC,"Quandong,3340,VIC",-37.8414477,144.5470351,City of Wyndham
Diggers Rest,3427,VIC,"Diggers Rest,3427,VIC",-37.6153848,144.6862995,City of Hume;Shire of Melton
Bulla,3428,VIC,"Bulla,3428,VIC",-37.6342319,144.7961441,City of Hume
Sunbury,3429,VIC,"Sunbury,3429,VIC",-37.581111,144.713889,City of Hume
Wildwood,3429,VIC,"Wildwood,3429,VIC",-37.5718,144.7935,City of Hume
Clarkefield,3430,VIC,"Clarkefield,3430,VIC",-37.497542,144.8071366,City of Hume;Shire of Macedon Ranges
Matlock,3723,VIC,"Matlock,3723,VIC",-37.5890036,146.168466,Shire of Yarra Ranges;Shire of Mansfield
Wollert,3750,VIC,"Wollert,3750,VIC",-37.5891893,144.9942305,City of Whittlesea
South Morang,3752,VIC,"South Morang,3752,VIC",-37.6377485,145.082419,City of Whittlesea
Beveridge,3753,VIC,"Beveridge,3753,VIC",-37.4822825,144.9832134,City of Whittlesea;Shire of Mitchell
Doreen,3754,VIC,"Doreen,3754,VIC",-37.605,145.146,Shire of Nillumbik(as a rural locality);City of Whittlesea(as a suburb)
Mernda,3754,VIC,"Mernda,3754,VIC",-37.5892795,145.103791,City of Whittlesea
Woodstock,3755,VIC,"Woodstock,3755,VIC",-37.5474779,145.1486206,City of Whittlesea
Yan Yean,3755,VIC,"Yan Yean,3755,VIC",-37.5474779,145.1486206,Shire of Nillumbik;City of Whittlesea
Eden Park,3757,VIC,"Eden Park,3757,VIC",-37.489,145.07,City of Whittlesea
Humevale,3757,VIC,"Humevale,3757,VIC",-37.497,145.175,City of Whittlesea
Whittlesea,3757,VIC,"Whittlesea,3757,VIC",-37.513889,145.113889,City of Whittlesea
Panton Hill,3759,VIC,"Panton Hill,3759,VIC",-37.6400391,145.2424941,Shire of Nillumbik
Smiths Gully,3760,VIC,"Smiths Gully,3760,VIC",-37.6267001,145.2867055,Shire of Nillumbik
St Andrews,3761,VIC,"St Andrews,3761,VIC",-37.5919774,145.2811778,Shire of Nillumbik
Kinglake,3763,VIC,"Kinglake,3763,VIC",-37.518382,145.3591263,Shire of Nillumbik;Shire of Murrindindi
Montrose,3765,VIC,"Montrose,3765,VIC",-37.8083883,145.353065,Shire of Yarra Ranges
Kalorama,3766,VIC,"Kalorama,3766,VIC",-37.8194936,145.3862638,Shire of Yarra Ranges
Mount Dandenong,3767,VIC,"Mount Dandenong,3767,VIC",-37.8421584,145.3420015,Shire of Yarra Ranges
Coldstream,3770,VIC,"Coldstream,3770,VIC",-37.734,145.383,Shire of Yarra Ranges
Gruyere,3770,VIC,"Gruyere,3770,VIC",-37.734,145.45,Shire of Yarra Ranges
Yering,3770,VIC,"Yering,3770,VIC",-37.7002209,145.3582514,Shire of Yarra Ranges
Christmas Hills,3775,VIC,"Christmas Hills,3775,VIC",-37.6515,145.3173,Shire of Nillumbik
Dixons Creek,3775,VIC,"Dixons Creek,3775,VIC",-37.6,145.416667,Shire of Yarra Ranges
Steels Creek,3775,VIC,"Steels Creek,3775,VIC",-37.594,145.374,Shire of Yarra Ranges
Tarrawarra,3775,VIC,"Tarrawarra,3775,VIC",-37.6469756,145.4363814,Shire of Yarra Ranges
Yarra Glen,3775,VIC,"Yarra Glen,3775,VIC",-37.648889,145.371944,Shire of Yarra Ranges
Badger Creek,3777,VIC,"Badger Creek,3777,VIC",-37.685,145.538,Shire of Yarra Ranges
Chum Creek,3777,VIC,"Chum Creek,3777,VIC",-37.606,145.488,Shire of Yarra Ranges
Healesville,3777,VIC,"Healesville,3777,VIC",-37.656111,145.513889,Shire of Yarra Ranges
Mount Toolebewong,3777,VIC,"Mount Toolebewong,3777,VIC",-37.702,145.572,Shire of Yarra Ranges
Toolangi,3777,VIC,"Toolangi,3777,VIC",-37.533333,145.466667,Shire of Nillumbik
Fernshaw,3778,VIC,"Fernshaw,3778,VIC",-37.616115,145.6383617,Shire of Yarra Ranges
Kinglake West,3778,VIC,"Kinglake West,3778,VIC",-37.466667,145.233333,Shire of Nillumbik;Shire of Murrindindi;City of Whittlesea
Cambarville,3779,VIC,"Cambarville,3779,VIC",-37.6105261,146.0129789,Shire of Yarra Ranges
Cockatoo,3781,VIC,"Cockatoo,3781,VIC",-37.935,145.492,Shire of Cardinia
Mount Burnett,3781,VIC,"Mount Burnett,3781,VIC",-37.9767584,145.5145727,Shire of Cardinia
Nangana,3781,VIC,"Nangana,3781,VIC",-37.866667,145.533333,Shire of Cardinia
Avonsleigh,3782,VIC,"Avonsleigh,3782,VIC",-37.925,145.481944,Shire of Cardinia
Clematis,3782,VIC,"Clematis,3782,VIC",-37.9322058,145.4222435,Shire of Cardinia
Emerald,3782,VIC,"Emerald,3782,VIC",-37.933056,145.436944,Shire of Cardinia;Shire of Yarra Ranges
Macclesfield,3782,VIC,"Macclesfield,3782,VIC",-37.883,145.477,Shire of Yarra Ranges
Gembrook,3783,VIC,"Gembrook,3783,VIC",-37.9524044,145.6023644,Shire of Cardinia
Tremont,3785,VIC,"Tremont,3785,VIC",-37.8782906,145.3171139,Shire of Yarra Ranges
Ferny Creek,3786,VIC,"Ferny Creek,3786,VIC",-37.8759058,145.3309395,Shire of Yarra Ranges
Sassafras,3787,VIC,"Sassafras,3787,VIC",-37.8645935,145.353065,City of Knox
Sassafras,3787,VIC,"Sassafras,3787,VIC",-37.8645935,145.353065,Shire of Yarra Ranges
Olinda,3788,VIC,"Olinda,3788,VIC",-37.8532703,145.3751961,Shire of Yarra Ranges
Sherbrooke,3789,VIC,"Sherbrooke,3789,VIC",-37.8963853,145.3641298,Shire of Yarra Ranges
Kallista,3791,VIC,"Kallista,3791,VIC",-37.9051015,145.4111713,Shire of Yarra Ranges
The Patch,3792,VIC,"The Patch,3792,VIC",-37.8887708,145.3973329,Shire of Yarra Ranges
Monbulk,3793,VIC,"Monbulk,3793,VIC",-37.8689357,145.4360858,Shire of Yarra Ranges
Silvan,3795,VIC,"Silvan,3795,VIC",-37.8342877,145.4305486,Shire of Yarra Ranges
Mount Evelyn,3796,VIC,"Mount Evelyn,3796,VIC",-37.7791563,145.3917982,Shire of Yarra Ranges
Gilderoy,3797,VIC,"Gilderoy,3797,VIC",-37.851396,145.7249828,Shire of Yarra Ranges
Gladysdale,3797,VIC,"Gladysdale,3797,VIC",-37.816667,145.65,Shire of Yarra Ranges
Powelltown,3797,VIC,"Powelltown,3797,VIC",-37.865,145.753,Shire of Yarra Ranges
Three Bridges,3797,VIC,"Three Bridges,3797,VIC",-37.833333,145.683333,Shire of Yarra Ranges
Yarra Junction,3797,VIC,"Yarra Junction,3797,VIC",-37.779,145.606,Shire of Yarra Ranges
Big Pats Creek,3799,VIC,"Big Pats Creek,3799,VIC",-37.7638978,145.750833,Shire of Yarra Ranges
McMahons Creek,3799,VIC,"McMahons Creek,3799,VIC",-37.6980957,145.8360275,Shire of Yarra Ranges
Millgrove,3799,VIC,"Millgrove,3799,VIC",-37.7448481,145.6507039,Shire of Yarra Ranges
Reefton,3799,VIC,"Reefton,3799,VIC",-37.6687532,145.8535353,Shire of Yarra Ranges
Warburton,3799,VIC,"Warburton,3799,VIC",-37.7525378,145.6948397,Shire of Yarra Ranges
Warburton East,3799,VIC,"Warburton East,3799,VIC",-37.7370439,145.7421233,Shire of Yarra Ranges
Wesburn,3799,VIC,"Wesburn,3799,VIC",-37.767,145.647,Shire of Yarra Ranges
Monash University,3800,VIC,"Monash University,3800,VIC",-37.9105238,145.1362182,City of Monash
Endeavour Hills,3802,VIC,"Endeavour Hills,3802,VIC",-37.9780214,145.2590707,City of Casey
Hallam,3803,VIC,"Hallam,3803,VIC",-38.0069505,145.2756505,City of Casey
Narre Warren East,3804,VIC,"Narre Warren East,3804,VIC",-37.961,145.367,Shire of Yarra Ranges
Narre Warren North,3804,VIC,"Narre Warren North,3804,VIC",-37.982,145.314,City of Casey
Narre Warren,3805,VIC,"Narre Warren,3805,VIC",-38.0302499,145.3032906,City of Casey
Narre Warren South,3805,VIC,"Narre Warren South,3805,VIC",-38.055,145.303,City of Casey
Berwick,3806,VIC,"Berwick,3806,VIC",-38.0309443,145.3437469,City of Casey
Harkaway,3806,VIC,"Harkaway,3806,VIC",-37.999,145.344,City of Casey
Beaconsfield,3807,VIC,"Beaconsfield,3807,VIC",-38.049,145.371,Shire of Cardinia
Guys Hill,3807,VIC,"Guys Hill,3807,VIC",-38.017,145.386,Shire of Cardinia
Beaconsfield Upper,3808,VIC,"Beaconsfield Upper,3808,VIC",-37.9982063,145.4237893,Shire of Cardinia
Dewhurst,3809,VIC,"Dewhurst,3809,VIC",-37.9844362,145.4665466,Shire of Cardinia
Officer,3809,VIC,"Officer,3809,VIC",-38.058056,145.408889,Shire of Cardinia
Officer South,3809,VIC,"Officer South,3809,VIC",-38.1003957,145.4132472,Shire of Cardinia
Pakenham,3810,VIC,"Pakenham,3810,VIC",-38.073568,145.4851308,Shire of Cardinia
Pakenham South,3810,VIC,"Pakenham South,3810,VIC",-38.134338,145.5025595,Shire of Cardinia
Pakenham Upper,3810,VIC,"Pakenham Upper,3810,VIC",-38.0034676,145.5025595,Shire of Cardinia
Rythdale,3810,VIC,"Rythdale,3810,VIC",-38.15,145.456,Shire of Cardinia
Maryknoll,3812,VIC,"Maryknoll,3812,VIC",-38.032,145.602,Shire of Cardinia
Nar Nar Goon,3812,VIC,"Nar Nar Goon,3812,VIC",-38.081944,145.575,Shire of Cardinia
Nar Nar Goon North,3812,VIC,"Nar Nar Goon North,3812,VIC",-38.019,145.551,Shire of Cardinia
Tynong,3813,VIC,"Tynong,3813,VIC",-38.083333,145.616667,Shire of Cardinia
Tynong North,3813,VIC,"Tynong North,3813,VIC",-38.0345542,145.6294143,Shire of Cardinia
Cora Lynn,3814,VIC,"Cora Lynn,3814,VIC",-38.145278,145.605833,Shire of Cardinia
Garfield,3814,VIC,"Garfield,3814,VIC",-38.0999051,145.6800684,Shire of Cardinia
Garfield North,3814,VIC,"Garfield North,3814,VIC",-38.05,145.683333,Shire of Cardinia
Vervale,3814,VIC,"Vervale,3814,VIC",-38.133333,145.666667,Shire of Cardinia
Bunyip,3815,VIC,"Bunyip,3815,VIC",-38.1000508,145.7189396,Shire of Cardinia
Bunyip North,3815,VIC,"Bunyip North,3815,VIC",-38.0738337,145.7467832,Shire of Cardinia
Iona,3815,VIC,"Iona,3815,VIC",-38.15,145.683333,Shire of Cardinia
Tonimbuk,3815,VIC,"Tonimbuk,3815,VIC",-38.0206756,145.7182515,Shire of Cardinia
Longwarry,3816,VIC,"Longwarry,3816,VIC",-38.1110794,145.7663288,Shire of Cardinia;Shire of Baw Baw
Modella,3816,VIC,"Modella,3816,VIC",-38.183333,145.716667,Shire of Cardinia;Shire of Baw Baw
Toorongo,3833,VIC,"Toorongo,3833,VIC",-37.7755298,146.0868854,Shire of Yarra Ranges
Koo Wee Rup North,3891,VIC,"Koo Wee Rup North,3891,VIC",-38.1486911,145.5385871,Shire of Cardinia
Lang Lang East,3894,VIC,"Lang Lang East,3894,VIC",-38.2728983,145.6523091,Shire of Cardinia
Yannathan,3894,VIC,"Yannathan,3894,VIC",-38.233333,145.633333,Shire of Cardinia
Langwarrin,3910,VIC,"Langwarrin,3910,VIC",-38.1608986,145.1927835,City of Frankston
Baxter,3911,VIC,"Baxter,3911,VIC",-38.196,145.157,Shire of Mornington Peninsula
Langwarrin South,3911,VIC,"Langwarrin South,3911,VIC",-38.189,145.189,City of Frankston
Pearcedale,3912,VIC,"Pearcedale,3912,VIC",-38.203,145.231,City of Casey
Somerville,3912,VIC,"Somerville,3912,VIC",-38.226,145.177,Shire of Mornington Peninsula(adjacent toWestern Port)
Tyabb,3913,VIC,"Tyabb,3913,VIC",-38.2651079,145.1706992,Shire of Mornington Peninsula(adjacent toWestern Port)
Hastings,3915,VIC,"Hastings,3915,VIC",-38.306,145.189,Shire of Mornington Peninsula(adjacent toWestern Port)
Tuerong,3915,VIC,"Tuerong,3915,VIC",-38.3,145.105,Shire of Mornington Peninsula
Merricks,3916,VIC,"Merricks,3916,VIC",-38.39,145.089,Shire of Mornington Peninsula
Point Leo,3916,VIC,"Point Leo,3916,VIC",-38.421,145.075,Shire of Mornington Peninsula
Shoreham,3916,VIC,"Shoreham,3916,VIC",-38.427,145.05,Shire of Mornington Peninsula
Bittern,3918,VIC,"Bittern,3918,VIC",-38.3329437,145.165179,Shire of Mornington Peninsula(adjacent toWestern Port)
Crib Point,3919,VIC,"Crib Point,3919,VIC",-38.3534427,145.1983055,Shire of Mornington Peninsula(adjacent toWestern Port)
HMAS Cerberus,3920,VIC,"HMAS Cerberus,3920,VIC",-38.3943242,145.2093505,Shire of Mornington Peninsula
Balnarring,3926,VIC,"Balnarring,3926,VIC",-38.371,145.118,Shire of Mornington Peninsula
Balnarring Beach,3926,VIC,"Balnarring Beach,3926,VIC",-38.3889938,145.1182718,Shire of Mornington Peninsula
Merricks Beach,3926,VIC,"Merricks Beach,3926,VIC",-38.398,145.106,Shire of Mornington Peninsula
Merricks North,3926,VIC,"Merricks North,3926,VIC",-38.354,145.075,Shire of Mornington Peninsula
Somers,3927,VIC,"Somers,3927,VIC",-38.3793743,145.165179,Shire of Mornington Peninsula
Main Ridge,3928,VIC,"Main Ridge,3928,VIC",-38.4018779,144.9721978,Shire of Mornington Peninsula
Flinders,3929,VIC,"Flinders,3929,VIC",-38.4574538,144.9721978,Shire of Mornington Peninsula
Mount Eliza,3930,VIC,"Mount Eliza,3930,VIC",-38.1952209,145.0879338,Shire of Mornington Peninsula(adjacent toPort Phillip)
Mornington,3931,VIC,"Mornington,3931,VIC",-38.2277083,145.0603633,Shire of Mornington Peninsula(adjacent toPort Phillip)
Moorooduc,3933,VIC,"Moorooduc,3933,VIC",-38.2501593,145.1265477,Shire of Mornington Peninsula
Mount Martha,3934,VIC,"Mount Martha,3934,VIC",-38.287039,145.016269,Shire of Mornington Peninsula(adjacent toPort Phillip)
Arthurs Seat,3936,VIC,"Arthurs Seat,3936,VIC",-38.352,144.953,Shire of Mornington Peninsula
Dromana,3936,VIC,"Dromana,3936,VIC",-38.338,144.965,Shire of Mornington Peninsula(adjacent toPort Phillip)
Safety Beach,3936,VIC,"Safety Beach,3936,VIC",-38.322,144.986,Shire of Mornington Peninsula(adjacent toPort Phillip)
Red Hill,3937,VIC,"Red Hill,3937,VIC",-38.355,145.016,Shire of Mornington Peninsula
Red Hill South,3937,VIC,"Red Hill South,3937,VIC",-38.384,145.024,Shire of Mornington Peninsula
McCrae,3938,VIC,"McCrae,3938,VIC",-38.3562816,144.9336544,Shire of Mornington Peninsula(adjacent toPort Phillip)
Boneo,3939,VIC,"Boneo,3939,VIC",-38.413,144.888,Shire of Mornington Peninsula
Cape Schanck,3939,VIC,"Cape Schanck,3939,VIC",-38.461,144.905,Shire of Mornington Peninsula
Fingal,3939,VIC,"Fingal,3939,VIC",-38.421111,144.861111,Shire of Mornington Peninsula
Rosebud,3939,VIC,"Rosebud,3939,VIC",-38.356,144.918,Shire of Mornington Peninsula(adjacent toPort Phillip)
Capel Sound,3940,VIC,"Capel Sound,3940,VIC",-38.3745297,144.8786231,Shire of Mornington Peninsula(adjacent toPort Phillip)
Rye,3941,VIC,"Rye,3941,VIC",-38.377,144.838,Shire of Mornington Peninsula(adjacent toPort Phillip)
St Andrews Beach,3941,VIC,"St Andrews Beach,3941,VIC",-38.419,144.83,Shire of Mornington Peninsula(adjacent toPort Phillip)
Tootgarook,3941,VIC,"Tootgarook,3941,VIC",-38.374,144.849,Shire of Mornington Peninsula(adjacent toPort Phillip)
Blairgowrie,3942,VIC,"Blairgowrie,3942,VIC",-38.3645949,144.7686693,Shire of Mornington Peninsula(adjacent toPort Phillip)
Sorrento,3943,VIC,"Sorrento,3943,VIC",-38.3477833,144.746696,Shire of Mornington Peninsula(adjacent toPort Phillip)
Portsea,3944,VIC,"Portsea,3944,VIC",-38.32,144.713,Shire of Mornington Peninsula(adjacent toPort Phillip)
Lynbrook,3975,VIC,"Lynbrook,3975,VIC",-38.05,145.252,City of Casey
Lyndhurst,3975,VIC,"Lyndhurst,3975,VIC",-38.0704681,145.2424941,City of Casey(as a suburb);City of Greater Dandenong(as a rural locality)
Hampton Park,3976,VIC,"Hampton Park,3976,VIC",-38.0349647,145.2756505,City of Casey
Botanic Ridge,3977,VIC,"Botanic Ridge,3977,VIC",-38.144,145.267,City of Casey
Cannons Creek,3977,VIC,"Cannons Creek,3977,VIC",-38.213,145.315,City of Casey
Cranbourne,3977,VIC,"Cranbourne,3977,VIC",-38.105,145.279,City of Casey
Cranbourne East,3977,VIC,"Cranbourne East,3977,VIC",-38.105,145.279,City of Casey
Cranbourne North,3977,VIC,"Cranbourne North,3977,VIC",-38.07,145.291,City of Casey
Cranbourne South,3977,VIC,"Cranbourne South,3977,VIC",-38.1581064,145.2535448,City of Casey
Devon Meadows,3977,VIC,"Devon Meadows,3977,VIC",-38.162,145.303,City of Casey
Junction Village,3977,VIC,"Junction Village,3977,VIC",-38.132,145.293,City of Casey
Sandhurst,3977,VIC,"Sandhurst,3977,VIC",-38.081,145.207,City of Frankston
Skye,3977,VIC,"Skye,3977,VIC",-38.119,145.2,City of Frankston
Tooradin North,3977,VIC,"Tooradin North,3977,VIC",-38.211111,145.38,Shire of Cardinia
Cardinia,3978,VIC,"Cardinia,3978,VIC",-38.147,145.423,Shire of Cardinia
Clyde,3978,VIC,"Clyde,3978,VIC",-38.132,145.327,City of Casey
Clyde North,3978,VIC,"Clyde North,3978,VIC",-38.1062834,145.3484256,City of Casey
Blind Bight,3980,VIC,"Blind Bight,3980,VIC",-38.2138627,145.339912,City of Casey
Tooradin,3980,VIC,"Tooradin,3980,VIC",-38.211111,145.38,City of Casey
Warneet,3980,VIC,"Warneet,3980,VIC",-38.224,145.309,City of Casey
Bayles,3981,VIC,"Bayles,3981,VIC",-38.182,145.575,Shire of Cardinia
Catani,3981,VIC,"Catani,3981,VIC",-38.183333,145.65,Shire of Cardinia
Dalmore,3981,VIC,"Dalmore,3981,VIC",-38.19,145.425,Shire of Cardinia
Heath Hill,3981,VIC,"Heath Hill,3981,VIC",-38.244,145.692,Shire of Cardinia;Shire of Baw Baw
Koo Wee Rup,3981,VIC,"Koo Wee Rup,3981,VIC",-38.198,145.489,Shire of Cardinia
Caldermeade,3984,VIC,"Caldermeade,3984,VIC",-38.2380228,145.576448,Shire of Cardinia
Lang Lang,3984,VIC,"Lang Lang,3984,VIC",-38.266667,145.566667,Shire of Cardinia
Monomeith,3984,VIC,"Monomeith,3984,VIC",-38.2155589,145.5378941,Shire of Cardinia
Nyora,3987,VIC,"Nyora,3987,VIC",-38.3054452,145.6800684,Shire of Cardinia;South Gippsland Shire;Shire of Baw Baw
