postcode,suburb,latitude,longitude
3000,Melbourne,-37.81,144.97
3001,Melbourne,-38.37,144.77
3002,East Melbourne,-37.82,144.99
3003,West Melbourne,-37.81,144.94
3004,Melbourne,-37.84,144.98
3004,St Kilda Road Central,-37.84,144.98
3005,World Trade Centre,-37.82,144.95
3006,South Wharf,-37.82,144.97
3006,Southbank,-37.82,144.97
3008,Docklands,-37.81,144.95
3010,University Of Melbourne,-37.8,144.96
3011,Footscray,-37.8,144.9
3011,Seddon,-37.8,144.9
3011,Seddon West,-37.8,144.9
3012,Brooklyn,-37.81,144.85
3012,Kingsville,-37.81,144.85
3012,Kingsville West,-37.81,144.85
3012,Maidstone,-37.81,144.85
3012,Tottenham,-37.81,144.85
3012,West Footscray,-37.81,144.85
3013,Yarraville,-37.82,144.89
3013,Yarraville West,-37.82,144.89
3015,Newport,-37.84,144.88
3015,South Kingsville,-37.84,144.88
3015,Spotswood,-37.84,144.88
3016,Williamstown,-37.86,144.9
3016,Williamstown North,-37.86,144.9
3018,Altona,-37.87,144.83
3018,Seaholme,-37.87,144.83
3019,Braybrook,-37.78,144.86
3019,Braybrook North,-37.78,144.86
3019,Robinson,-37.78,144.86
3020,Albion,-37.78,144.82
3020,Glengala,-37.78,144.82
3020,Sunshine,-37.78,144.82
3020,Sunshine North,-37.78,144.82
3020,Sunshine West,-37.78,144.82
3021,Albanvale,-37.75,144.77
3021,Kealba,-37.75,144.77
3021,Kings Park,-37.75,144.77
3021,St Albans,-37.75,144.77
3022,Ardeer,-37.78,144.8
3022,Deer Park East,-37.78,144.8
3023,Burnside,-37.75,144.75
3023,Burnside Heights,-37.75,144.75
3023,Cairnlea,-37.75,144.75
3023,Caroline Springs,-37.75,144.75
3023,Deer Park,-37.75,144.75
3023,Deer Park North,-37.75,144.75
3023,Ravenhall,-37.75,144.75
3024,Mambourin,-37.9,144.56
3024,Mount Cottrell,-37.9,144.56
3024,Wyndham Vale,-37.9,144.56
3025,Altona East,-37.84,144.86
3025,Altona Gate,-37.84,144.86
3025,Altona North,-37.84,144.86
3026,Laverton North,-37.84,144.8
3027,Williams Landing,-37.86,144.76
3028,Altona Meadows,-37.87,144.78
3028,Laverton,-37.87,144.78
3028,Seabrook,-37.87,144.78
3029,Hoppers Crossing,-37.88,144.7
3029,Tarneit,-37.88,144.7
3029,Truganina,-37.88,144.7
3030,Cocoroc,-37.97,144.58
3030,Derrimut,-37.97,144.58
3030,Point Cook,-37.97,144.58
3030,Quandong,-37.97,144.58
3030,Werribee,-37.97,144.58
3030,Werribee South,-37.97,144.58
3031,Flemington,-37.79,144.93
3031,Kensington,-37.79,144.93
3032,Ascot Vale,-37.78,144.92
3032,Highpoint City,-37.78,144.92
3032,Maribyrnong,-37.78,144.92
3032,Travancore,-37.78,144.92
3033,Keilor East,-37.74,144.8
3034,Avondale Heights,-37.74,144.82
3036,Keilor,-37.72,144.83
3036,Keilor North,-37.72,144.83
3037,Calder Park,-37.72,144.78
3037,Delahey,-37.72,144.78
3037,Hillside,-37.72,144.78
3037,Sydenham,-37.72,144.78
3037,Taylors Hill,-37.72,144.78
3038,Keilor Downs,-37.73,144.81
3038,Keilor Lodge,-37.73,144.81
3038,Taylors Lakes,-37.73,144.81
3038,Watergardens,-37.73,144.81
3039,Moonee Ponds,-37.77,144.92
3040,Aberfeldie,-37.76,144.9
3040,Essendon,-37.76,144.9
3040,Essendon West,-37.76,144.9
3041,Essendon Fields,-37.74,144.91
3041,Essendon North,-37.74,144.91
3041,Strathmore,-37.74,144.91
3041,Strathmore Heights,-37.74,144.91
3042,Airport West,-37.71,144.89
3042,Keilor Park,-37.71,144.89
3042,Niddrie,-37.71,144.89
3043,Gladstone Park,-37.69,144.88
3043,Gowanbrae,-37.69,144.88
3043,Tullamarine,-37.69,144.88
3044,Pascoe Vale,-37.73,144.94
3044,Pascoe Vale South,-37.73,144.94
3045,Melbourne Airport,-37.67,144.83
3046,Glenroy,-37.7,144.92
3046,Hadfield,-37.7,144.92
3046,Oak Park,-37.7,144.92
3047,Broadmeadows,-37.68,144.92
3047,Dallas,-37.68,144.92
3047,Jacana,-37.68,144.92
3048,Coolaroo,-37.65,144.93
3048,Meadow Heights,-37.65,144.93
3049,Attwood,-37.67,144.89
3049,Westmeadows,-37.67,144.89
3050,Royal Melbourne Hospital,-37.8,144.96
3051,Hotham Hill,-37.91,145.06
3051,North Melbourne,-37.91,145.06
3052,Melbourne University,-37.8,144.96
3052,Parkville,-37.8,144.96
3053,Carlton,-37.78,144.97
3053,Carlton South,-37.78,144.97
3054,Carlton North,-37.78,144.97
3054,Princes Hill,-37.78,144.97
3055,Brunswick South,-37.77,144.94
3055,Brunswick West,-37.77,144.94
3055,Moonee Vale,-37.77,144.94
3055,Moreland West,-37.77,144.94
3056,Brunswick,-37.76,144.94
3056,Brunswick Lower,-37.76,144.94
3056,Brunswick North,-37.76,144.94
3057,Brunswick East,-37.76,144.98
3057,Lygon Street North,-37.76,144.98
3057,Sumner,-37.76,144.98
3058,Batman,-37.73,144.96
3058,Coburg,-37.73,144.96
3058,Coburg North,-37.73,144.96
3058,Merlynston,-37.73,144.96
3058,Moreland,-37.73,144.96
3059,Greenvale,-37.64,144.89
3060,Fawkner,-37.76,144.9
3060,Fawkner East,-37.76,144.9
3060,Fawkner North,-37.76,144.9
3061,Campbellfield,-37.64,144.95
3062,Somerton,-37.64,144.94
3063,Oaklands Junction,-37.63,144.84
3063,Yuroke,-37.63,144.84
3064,Craigieburn,-37.6,144.94
3064,Donnybrook,-37.6,144.94
3064,Kalkallo,-37.6,144.94
3064,Mickleham,-37.6,144.94
3064,Roxburgh Park,-37.6,144.94
3065,Fitzroy,-37.8,144.98
3066,Collingwood,-37.8,144.98
3066,Collingwood North,-37.8,144.98
3067,Abbotsford,-37.8,145.0
3068,Clifton Hill,-37.79,144.99
3068,Fitzroy North,-37.79,144.99
3070,Northcote,-37.77,145.0
3070,Northcote South,-37.77,145.0
3071,Thornbury,-37.76,145.0
3072,Gilberton,-37.74,145.03
3072,Northland Centre,-37.74,145.03
3072,Preston,-37.74,145.03
3072,Preston Lower,-37.74,145.03
3072,Preston South,-37.74,145.03
3072,Preston West,-37.74,145.03
3072,Regent West,-37.74,145.03
3073,Keon Park,-37.69,145.01
3073,Reservoir,-37.69,145.01
3073,Reservoir East,-37.69,145.01
3073,Reservoir North,-37.69,145.01
3073,Reservoir South,-37.69,145.01
3074,Thomastown,-37.68,145.01
3075,Lalor,-37.67,145.02
3075,Lalor Plaza,-37.67,145.02
3076,Epping,-37.64,145.01
3076,Epping DC,-37.64,145.01
3078,Alphington,-37.78,145.03
3078,Fairfield,-37.78,145.03
3079,Ivanhoe,-37.77,145.04
3079,Ivanhoe East,-37.77,145.04
3079,Ivanhoe North,-37.77,145.04
3081,Bellfield,-37.75,145.05
3081,Heidelberg Heights,-37.75,145.05
3081,Heidelberg Rgh,-37.75,145.05
3081,Heidelberg West,-37.75,145.05
3082,Mill Park,-37.67,145.06
3083,Bundoora,-37.7,145.07
3083,Kingsbury,-37.7,145.07
3083,La Trobe University,-37.7,145.07
3084,Banyule,-37.74,145.09
3084,Eaglemont,-37.74,145.09
3084,Heidelberg,-37.74,145.09
3084,Rosanna,-37.74,145.09
3084,Viewbank,-37.74,145.09
3085,Macleod,-37.73,145.07
3085,Macleod West,-37.73,145.07
3085,Yallambie,-37.73,145.07
3086,La Trobe University,-37.72,145.05
3087,Watsonia,-37.71,145.08
3087,Watsonia North,-37.71,145.08
3088,Briar Hill,-37.71,145.12
3088,Greensborough,-37.71,145.12
3088,St Helena,-37.71,145.12
3089,Diamond Creek,-37.64,145.22
3090,Plenty,-37.67,145.12
3091,Yarrambat,-37.64,145.13
3093,Lower Plenty,-37.73,145.09
3094,Montmorency,-37.72,145.12
3095,Eltham,-37.71,145.15
3095,Eltham North,-37.71,145.15
3095,Research,-37.71,145.15
3096,Wattle Glen,-37.67,145.19
3097,Bend Of Islands,-37.7,145.28
3097,Kangaroo Ground,-37.7,145.28
3097,Watsons Creek,-37.7,145.28
3099,Arthurs Creek,-37.59,145.22
3099,Cottles Bridge,-37.59,145.22
3099,Hurstbridge,-37.59,145.22
3099,Nutfield,-37.59,145.22
3099,Strathewen,-37.59,145.22
3101,Cotham,-37.81,145.04
3101,Kew,-37.81,145.04
3102,Kew East,-37.8,145.05
3103,Balwyn,-37.81,145.08
3103,Balwyn East,-37.81,145.08
3104,Balwyn North,-37.79,145.07
3104,Greythorn,-37.79,145.07
3105,Bulleen,-37.77,145.08
3105,Bulleen South,-37.77,145.08
3106,Templestowe,-37.77,145.12
3107,Templestowe Lower,-37.76,145.1
3108,Doncaster,-37.78,145.12
3109,Doncaster East,-37.81,145.19
3109,Doncaster Heights,-37.81,145.19
3109,The Pines,-37.81,145.19
3109,Tunstall Square Po,-37.81,145.19
3110,Nunawading BC,0.0,0.0
3111,Donvale,-38.18,144.47
3113,North Warrandyte,-37.73,145.22
3113,Warrandyte,-37.73,145.22
3114,Park Orchards,-37.78,145.21
3115,Wonga Park,-37.74,145.27
3116,Chirnside Park,-37.75,145.33
3121,Burnley,-37.83,145.01
3121,Burnley North,-37.83,145.01
3121,Cremorne,-37.83,145.01
3121,Richmond,-37.83,145.01
3121,Richmond East,-37.83,145.01
3121,Richmond North,-37.83,145.01
3121,Richmond South,-37.83,145.01
3122,Auburn South,-37.84,145.05
3122,Glenferrie South,-37.84,145.05
3122,Hawthorn,-37.84,145.05
3122,Hawthorn North,-37.84,145.05
3122,Hawthorn West,-37.84,145.05
3123,Auburn,-37.83,145.04
3123,Hawthorn East,-37.83,145.04
3124,Camberwell,-37.82,145.06
3124,Camberwell North,-37.82,145.06
3124,Camberwell South,-37.82,145.06
3124,Camberwell West,-37.82,145.06
3124,Hartwell,-37.82,145.06
3124,Middle Camberwell,-37.82,145.06
3125,Bennettswood,-37.84,145.12
3125,Burwood,-37.84,145.12
3125,Surrey Hills South,-37.84,145.12
3126,Camberwell East,-37.84,145.09
3126,Canterbury,-37.84,145.09
3127,Mont Albert,-37.82,145.1
3127,Surrey Hills,-37.82,145.1
3127,Surrey Hills North,-37.82,145.1
3128,Box Hill,-37.82,145.12
3128,Box Hill Central,-37.82,145.12
3128,Box Hill South,-37.82,145.12
3128,Houston,-37.82,145.12
3128,Wattle Park,-37.82,145.12
3129,Box Hill North,-37.8,145.13
3129,Kerrimuir,-37.8,145.13
3129,Mont Albert North,-37.8,145.13
3130,Blackburn,-37.82,145.15
3130,Blackburn North,-37.82,145.15
3130,Blackburn South,-37.82,145.15
3130,Laburnum,-37.82,145.15
3131,Brentford Square,-37.84,145.18
3131,Forest Hill,-37.84,145.18
3131,Nunawading,-37.84,145.18
3132,Mitcham,-37.82,145.19
3132,Mitcham North,-37.82,145.19
3132,Rangeview,-37.82,145.19
3133,Vermont,-37.84,145.19
3133,Vermont South,-37.84,145.19
3134,Heathwood,-37.81,145.23
3134,Ringwood,-37.81,145.23
3134,Ringwood North,-37.81,145.23
3134,Warrandyte South,-37.81,145.23
3134,Warranwood,-37.81,145.23
3135,Bedford Road,-37.82,145.25
3135,Heathmont,-37.82,145.25
3135,Ringwood East,-37.82,145.25
3136,Croydon,-37.8,145.28
3136,Croydon Hills,-37.8,145.28
3136,Croydon North,-37.8,145.28
3136,Croydon South,-37.8,145.28
3137,Kilsyth,-37.8,145.31
3137,Kilsyth South,-37.8,145.31
3138,Mooroolbark,-37.77,145.33
3139,Beenak,-37.8,145.54
3139,Don Valley,-37.8,145.54
3139,Hoddles Creek,-37.8,145.54
3139,Launching Place,-37.8,145.54
3139,Seville,-37.8,145.54
3139,Seville East,-37.8,145.54
3139,Wandin East,-37.8,145.54
3139,Wandin North,-37.8,145.54
3139,Woori Yallock,-37.8,145.54
3139,Yellingbo,-37.8,145.54
3140,Lilydale,-37.76,145.35
3141,Chapel Street North,-36.99,144.06
3141,Domain Road Po,-36.99,144.06
3141,South Yarra,-36.99,144.06
3142,Hawksburn,-37.84,145.0
3142,Toorak,-37.84,145.0
3143,Armadale,-37.86,145.02
3143,Armadale North,-37.86,145.02
3144,Kooyong,-37.84,145.03
3144,Malvern,-37.84,145.03
3144,Malvern North,-37.84,145.03
3145,Caulfield East,-37.88,145.04
3145,Central Park,-37.88,145.04
3145,Darling,-37.88,145.04
3145,Darling South,-37.88,145.04
3145,Malvern East,-37.88,145.04
3145,Wattletree Road Po,-37.88,145.04
3146,Glen Iris,-37.85,145.07
3147,Ashburton,-37.86,145.08
3147,Ashwood,-37.86,145.08
3148,Chadstone,-37.89,145.08
3148,Chadstone Centre,-37.89,145.08
3148,Holmesglen,-37.89,145.08
3148,Jordanville,-37.89,145.08
3149,Mount Waverley,-37.88,145.13
3149,Pinewood,-37.88,145.13
3149,Syndal,-37.88,145.13
3150,Brandon Park,-37.88,145.17
3150,Glen Waverley,-37.88,145.17
3150,Wheelers Hill,-37.88,145.17
3151,Burwood East,-37.86,145.14
3151,Burwood Heights,-37.86,145.14
3152,Knox City Centre,-37.87,145.24
3152,Studfield,-37.87,145.24
3152,Wantirna,-37.87,145.24
3152,Wantirna South,-37.87,145.24
3153,Bayswater,-37.84,145.27
3153,Bayswater North,-37.84,145.27
3154,The Basin,-37.85,145.31
3155,Boronia,-37.86,145.28
3156,Ferntree Gully,-37.88,145.3
3156,Lysterfield,-37.88,145.3
3156,Lysterfield South,-37.88,145.3
3156,Mountain Gate,-37.88,145.3
3156,Upper Ferntree Gully,-37.88,145.3
3158,Upwey,-37.9,145.33
3159,Menzies Creek,-37.92,145.4
3159,Selby,-37.92,145.4
3160,Belgrave,-37.91,145.36
3160,Belgrave Heights,-37.91,145.36
3160,Belgrave South,-37.91,145.36
3160,Tecoma,-37.91,145.36
3161,Caulfield Junction,-38.03,145.31
3161,Caulfield North,-38.03,145.31
3162,Caulfield,-37.88,145.03
3162,Caulfield South,-37.88,145.03
3162,Hopetoun Gardens,-37.88,145.03
3163,Booran Road Po,-37.89,145.06
3163,Carnegie,-37.89,145.06
3163,Glen Huntly,-37.89,145.06
3163,Murrumbeena,-37.89,145.06
3164,Dandenong South,-38.02,145.24
3165,Bentleigh East,-37.93,145.06
3165,Coatesville,-37.93,145.06
3166,Hughesdale,-37.9,145.08
3166,Huntingdale,-37.9,145.08
3166,Oakleigh,-37.9,145.08
3166,Oakleigh East,-37.9,145.08
3167,Oakleigh South,-37.93,145.1
3168,Clayton,-37.93,145.12
3168,Notting Hill,-37.93,145.12
3169,Clarinda,-37.94,145.1
3169,Clayton South,-37.94,145.1
3170,Mulgrave,-37.87,145.1
3170,Waverley Gardens,-37.87,145.1
3171,Sandown Village,-37.95,145.16
3171,Springvale,-37.95,145.16
3172,Dingley Village,-37.97,145.12
3172,Springvale South,-37.97,145.12
3173,Keysborough,-37.99,145.15
3174,Noble Park,-37.97,145.18
3174,Noble Park East,-37.97,145.18
3174,Noble Park North,-37.97,145.18
3175,Bangholme,-38.03,145.18
3175,Dandenong,-38.03,145.18
3175,Dandenong East,-38.03,145.18
3175,Dandenong North,-38.03,145.18
3175,Dandenong Plaza,-38.03,145.18
3175,Dandenong South,-38.03,145.18
3175,Dunearn,-38.03,145.18
3176,Scoresby BC,0.0,0.0
3177,Doveton,-38.0,145.24
3177,Eumemmerring,-38.0,145.24
3178,Rowville,-37.93,145.24
3179,Scoresby,-37.86,145.26
3180,Knoxfield,-37.89,145.25
3181,Prahran,-37.85,144.99
3181,Prahran East,-37.85,144.99
3181,Windsor,-37.85,144.99
3182,St Kilda,-37.87,144.98
3182,St Kilda South,-37.87,144.98
3182,St Kilda West,-37.87,144.98
3183,Balaclava,-37.87,145.0
3183,St Kilda East,-37.87,145.0
3184,Brighton Road,-37.88,145.0
3184,Elwood,-37.88,145.0
3185,Elsternwick,-37.88,145.0
3185,Gardenvale,-37.88,145.0
3185,Ripponlea,-37.88,145.0
3186,Brighton,-37.91,144.99
3186,Brighton North,-37.91,144.99
3186,Dendy,-37.91,144.99
3186,Were Street Po,-37.91,144.99
3187,Brighton East,-37.9,145.0
3187,North Road,-37.9,145.0
3188,Hampton,-37.93,145.03
3188,Hampton East,-37.93,145.03
3188,Hampton North,-37.93,145.03
3189,Moorabbin,-37.93,145.04
3189,Moorabbin East,-37.93,145.04
3189,Wishart,-37.93,145.04
3190,Highett,-37.95,145.03
3191,Sandringham,-37.95,145.01
3192,Cheltenham,-37.96,145.06
3192,Cheltenham East,-37.96,145.06
3192,Cheltenham North,-37.96,145.06
3192,Southland Centre,-37.96,145.06
3193,Beaumaris,-37.99,145.03
3193,Black Rock,-37.99,145.03
3193,Black Rock North,-37.99,145.03
3193,Cromer,-37.99,145.03
3194,Mentone,-37.98,145.06
3194,Mentone East,-37.98,145.06
3194,Moorabbin Airport,-37.98,145.06
3195,Aspendale,-38.03,145.1
3195,Aspendale Gardens,-38.03,145.1
3195,Braeside,-38.03,145.1
3195,Mordialloc,-38.03,145.1
3195,Mordialloc North,-38.03,145.1
3195,Parkdale,-38.03,145.1
3195,Waterways,-38.03,145.1
3196,Bonbeach,-38.06,145.12
3196,Chelsea,-38.06,145.12
3196,Chelsea Heights,-38.06,145.12
3196,Edithvale,-38.06,145.12
3197,Carrum,-38.08,145.12
3197,Patterson Lakes,-38.08,145.12
3198,Belvedere Park,-38.11,145.16
3198,Seaford,-38.11,145.16
3199,Frankston,-38.15,145.12
3199,Frankston East,-38.15,145.12
3199,Frankston Heights,-38.15,145.12
3199,Frankston South,-38.15,145.12
3199,Karingal,-38.15,145.12
3199,Karingal Centre,-38.15,145.12
3200,Frankston North,-38.17,145.19
3200,Pines Forest,-38.17,145.19
3201,Carrum Downs,-38.09,145.19
3202,Heatherton,-37.97,145.21
3204,Bentleigh,-37.92,145.04
3204,Mckinnon,-37.92,145.04
3204,Ormond,-37.92,145.04
3204,Patterson,-37.92,145.04
3205,South Melbourne,-37.93,145.03
3205,South Melbourne DC,-37.93,145.03
3206,Albert Park,-37.84,144.96
3206,Middle Park,-37.84,144.96
3207,Garden City,-37.83,144.96
3207,Port Melbourne,-37.83,144.96
3211,Little River,-37.97,144.53
3212,Avalon,-38.02,144.41
3212,Lara,-38.02,144.41
3212,Point Wilson,-38.02,144.41
3214,Corio,-38.07,144.36
3214,Norlane,-38.07,144.36
3214,North Shore,-38.07,144.36
3215,Bell Park,-38.11,144.33
3215,Bell Post Hill,-38.11,144.33
3215,Drumcondra,-38.11,144.33
3215,Geelong North,-38.11,144.33
3215,Hamlyn Heights,-38.11,144.33
3215,North Geelong,-38.11,144.33
3215,Rippleside,-38.11,144.33
3216,Belmont,-38.18,144.34
3216,Freshwater Creek,-38.18,144.34
3216,Grovedale,-38.18,144.34
3216,Grovedale East,-38.18,144.34
3216,Highton,-38.18,144.34
3216,Marshall,-38.18,144.34
3216,Mount Duneed,-38.18,144.34
3216,Wandana Heights,-38.18,144.34
3216,Waurn Ponds,-38.18,144.34
3217,Deakin University,-38.2,144.3
3218,Geelong West,-38.14,144.35
3218,Herne Hill,-38.14,144.35
3218,Manifold Heights,-38.14,144.35
3219,Breakwater,-38.18,144.38
3219,East Geelong,-38.18,144.38
3219,Newcomb,-38.18,144.38
3219,St Albans Park,-38.18,144.38
3219,Thomson,-38.18,144.38
3219,Whittington,-38.18,144.38
3220,Bareena,-38.18,145.11
3220,Geelong,-38.18,145.11
3220,Newtown,-38.18,145.11
3220,South Geelong,-38.18,145.11
3221,Anakie,-37.9,144.25
3221,Barrabool,-37.9,144.25
3221,Batesford,-37.9,144.25
3221,Bellarine,-37.9,144.25
3221,Ceres,-37.9,144.25
3221,Fyansford,-37.9,144.25
3221,Geelong MC,-37.9,144.25
3221,Gnarwarre,-37.9,144.25
3221,Grey River,-37.9,144.25
3221,Kennett River,-37.9,144.25
3221,Lovely Banks,-37.9,144.25
3221,Moolap,-37.9,144.25
3221,Moorabool,-37.9,144.25
3221,Murgheboluc,-37.9,144.25
3221,Separation Creek,-37.9,144.25
3221,Staughton Vale,-37.9,144.25
3221,Stonehaven,-37.9,144.25
3221,Sugarloaf,-37.9,144.25
3221,Wallington,-37.9,144.25
3221,Wongarra,-37.9,144.25
3221,Wye River,-37.9,144.25
3222,Clifton Springs,-38.16,144.56
3222,Curlewis,-38.16,144.56
3222,Drysdale,-38.16,144.56
3222,Mannerim,-38.16,144.56
3222,Marcus Hill,-38.16,144.56
3223,Indented Head,-38.14,144.71
3223,Portarlington,-38.14,144.71
3223,St Leonards,-38.14,144.71
3224,Leopold,-38.18,144.46
3225,Point Lonsdale,-38.29,144.61
3225,Queenscliff,-38.29,144.61
3225,Swan Bay,-38.29,144.61
3225,Swan Island,-38.29,144.61
3226,Ocean Grove,-38.27,144.54
3227,Barwon Heads,-38.28,144.49
3227,Breamlea,-38.28,144.49
3227,Connewarre,-38.28,144.49
3228,Bellbrae,-38.33,144.26
3228,Bells Beach,-38.33,144.26
3228,Jan Juc,-38.33,144.26
3228,Torquay,-38.33,144.26
3230,Anglesea,-38.41,144.19
3231,Aireys Inlet,-38.46,144.11
3231,Big Hill,-38.46,144.11
3231,Eastern View,-38.46,144.11
3231,Fairhaven,-38.46,144.11
3231,Moggs Creek,-38.46,144.11
3232,Lorne,-38.52,144.0
3233,Apollo Bay,-38.75,143.67
3233,Cape Otway,-38.75,143.67
3233,Marengo,-38.75,143.67
3233,Petticoat Creek,-38.75,143.67
3233,Skenes Creek,-38.75,143.67
3233,Skenes Creek North,-38.75,143.67
3235,Benwerrin,-38.47,143.93
3235,Boonah,-38.47,143.93
3235,Deans Marsh,-38.47,143.93
3235,Pennyroyal,-38.47,143.93
3236,Forrest,-38.52,143.71
3236,Mount Sabine,-38.52,143.71
3237,Aire Valley,-38.69,143.56
3237,Beech Forest,-38.69,143.56
3237,Ferguson,-38.69,143.56
3237,Gellibrand Lower,-38.69,143.56
3237,Wattle Hill,-38.69,143.56
3237,Weeaproinah,-38.69,143.56
3237,Wyelangta,-38.69,143.56
3237,Yuulong,-38.69,143.56
3238,Glenaire,-38.78,143.43
3238,Hordern Vale,-38.78,143.43
3238,Johanna,-38.78,143.43
3238,Lavers Hill,-38.78,143.43
3239,Carlisle River,-38.56,143.4
3239,Chapple Vale,-38.56,143.4
3239,Gellibrand,-38.56,143.4
3239,Kennedys Creek,-38.56,143.4
3240,Buckley,-38.22,144.08
3240,Gherang,-38.22,144.08
3240,Modewarre,-38.22,144.08
3240,Moriac,-38.22,144.08
3240,Mount Moriac,-38.22,144.08
3240,Paraparap,-38.22,144.08
3241,Bambra,-38.37,143.95
3241,Ombersley,-38.37,143.95
3241,Wensleydale,-38.37,143.95
3241,Winchelsea,-38.37,143.95
3241,Winchelsea South,-38.37,143.95
3241,Wurdiboluc,-38.37,143.95
3242,Birregurra,-38.31,143.79
3243,Barwon Downs,-38.47,143.76
3243,Murroon,-38.47,143.76
3243,Warncoort,-38.47,143.76
3243,Whoorel,-38.47,143.76
3249,Alvie,-38.24,143.48
3249,Balintore,-38.24,143.48
3249,Barongarook,-38.24,143.48
3249,Barongarook West,-38.24,143.48
3249,Barramunga,-38.24,143.48
3249,Coragulac,-38.24,143.48
3249,Corunnun,-38.24,143.48
3249,Dreeite,-38.24,143.48
3249,Dreeite South,-38.24,143.48
3249,Gerangamete,-38.24,143.48
3249,Irrewarra,-38.24,143.48
3249,Irrewillipe,-38.24,143.48
3249,Irrewillipe East,-38.24,143.48
3249,Kawarren,-38.24,143.48
3249,Larpent,-38.24,143.48
3249,Nalangil,-38.24,143.48
3249,Ondit,-38.24,143.48
3249,Pirron Yallock,-38.24,143.48
3249,Pomborneit East,-38.24,143.48
3249,Swan Marsh,-38.24,143.48
3249,Tanybryn,-38.24,143.48
3249,Warrion,-38.24,143.48
3249,Wool Wool,-38.24,143.48
3249,Yeo,-38.24,143.48
3249,Yeodene,-38.24,143.48
3250,Colac,-38.34,143.58
3250,Colac East,-38.34,143.58
3250,Colac West,-38.34,143.58
3250,Elliminyt,-38.34,143.58
3251,Beeac,-38.19,143.64
3251,Cundare,-38.19,143.64
3251,Cundare North,-38.19,143.64
3251,Eurack,-38.19,143.64
3251,Weering,-38.19,143.64
3254,Cororooke,-38.3,143.52
3260,Bookaar,-38.13,143.1
3260,Bostocks Creek,-38.13,143.1
3260,Bungador,-38.13,143.1
3260,Camperdown,-38.13,143.1
3260,Carpendeit,-38.13,143.1
3260,Chocolyn,-38.13,143.1
3260,Gnotuk,-38.13,143.1
3260,Kariah,-38.13,143.1
3260,Koallah,-38.13,143.1
3260,Leslie Manor,-38.13,143.1
3260,Pomborneit,-38.13,143.1
3260,Pomborneit North,-38.13,143.1
3260,Skibo,-38.13,143.1
3260,South Purrumbete,-38.13,143.1
3260,Stonyford,-38.13,143.1
3260,Tandarook,-38.13,143.1
3260,Tesbury,-38.13,143.1
3260,Weerite,-38.13,143.1
3264,Terang,-38.24,142.91
3265,Boorcan,-38.21,143.01
3265,Cudgee,-38.21,143.01
3265,Dixie,-38.21,143.01
3265,Ecklin South,-38.21,143.01
3265,Ellerslie,-38.21,143.01
3265,Framlingham,-38.21,143.01
3265,Framlingham East,-38.21,143.01
3265,Garvoc,-38.21,143.01
3265,Glenormiston North,-38.21,143.01
3265,Glenormiston South,-38.21,143.01
3265,Kolora,-38.21,143.01
3265,Laang,-38.21,143.01
3265,Noorat,-38.21,143.01
3265,Noorat East,-38.21,143.01
3265,Panmure,-38.21,143.01
3265,Taroon,-38.21,143.01
3265,The Sisters,-38.21,143.01
3266,Bullaharre,-38.34,143.14
3266,Cobden,-38.34,143.14
3266,Cobrico,-38.34,143.14
3266,Elingamite,-38.34,143.14
3266,Elingamite North,-38.34,143.14
3266,Glenfyne,-38.34,143.14
3266,Jancourt,-38.34,143.14
3266,Jancourt East,-38.34,143.14
3266,Naroghid,-38.34,143.14
3266,Simpson,-38.34,143.14
3267,Scotts Creek,-38.45,143.11
3268,Ayrford,-38.42,142.86
3268,Brucknell,-38.42,142.86
3268,Cooriemungle,-38.42,142.86
3268,Cowleys Creek,-38.42,142.86
3268,Curdies River,-38.42,142.86
3268,Curdievale,-38.42,142.86
3268,Heytesbury Lower,-38.42,142.86
3268,Newfield,-38.42,142.86
3268,Nirranda,-38.42,142.86
3268,Nirranda East,-38.42,142.86
3268,Nirranda South,-38.42,142.86
3268,Nullawarre,-38.42,142.86
3268,Nullawarre North,-38.42,142.86
3268,Paaratte,-38.42,142.86
3268,The Cove,-38.42,142.86
3268,Timboon,-38.42,142.86
3268,Timboon West,-38.42,142.86
3269,Port Campbell,-38.62,143.0
3269,Princetown,-38.62,143.0
3269,Waarre,-38.62,143.0
3270,Peterborough,-38.58,142.86
3271,Darlington,-38.0,143.05
3271,Dundonnell,-38.0,143.05
3271,Pura Pura,-38.0,143.05
3272,Mortlake,-38.08,142.81
3272,Woorndoo,-38.08,142.81
3273,Hexham,-38.06,142.61
3274,Caramut,-37.91,142.52
3275,Mailors Flat,-38.3,142.46
3276,Minjah,-38.04,142.44
3276,Woolsthorpe,-38.04,142.44
3277,Allansford,-38.39,142.59
3277,Mepunga,-38.39,142.59
3277,Mepunga East,-38.39,142.59
3277,Mepunga West,-38.39,142.59
3277,Naringal,-38.39,142.59
3277,Naringal East,-38.39,142.59
3278,Purnim,-38.28,142.62
3278,Purnim West,-38.28,142.62
3279,Ballangeich,-38.21,142.66
3279,Wangoom,-38.21,142.66
3280,Dennington,-38.36,142.44
3280,Warrnambool,-38.36,142.44
3280,Warrnambool East,-38.36,142.44
3280,Warrnambool West,-38.36,142.44
3281,Bushfield,-38.33,142.51
3281,Grassmere,-38.33,142.51
3281,Winslow,-38.33,142.51
3281,Woodford,-38.33,142.51
3282,Illowa,-38.33,142.41
3282,Koroit,-38.33,142.41
3283,Crossley,-38.31,142.33
3283,Killarney,-38.31,142.33
3283,Kirkstall,-38.31,142.33
3283,Southern Cross,-38.31,142.33
3283,Tarrone,-38.31,142.33
3283,Tower Hill,-38.31,142.33
3283,Warrong,-38.31,142.33
3283,Willatook,-38.31,142.33
3283,Yangery,-38.31,142.33
3283,Yarpturk,-38.31,142.33
3284,Orford,-38.21,142.15
3284,Port Fairy,-38.21,142.15
3285,Codrington,-38.27,141.97
3285,Narrawong,-38.27,141.97
3285,Rosebrook,-38.27,141.97
3285,St Helens,-38.27,141.97
3285,Toolong,-38.27,141.97
3285,Tyrendarra,-38.27,141.97
3285,Tyrendarra East,-38.27,141.97
3285,Yambuk,-38.27,141.97
3286,Condah Swamp,-37.97,141.83
3286,Knebsworth,-37.97,141.83
3286,Macarthur,-37.97,141.83
3286,Warrabkook,-37.97,141.83
3287,Hawkesdale,-38.11,142.32
3287,Minhamite,-38.11,142.32
3289,Gazette,-37.9,142.17
3289,Gerrigerrup,-37.9,142.17
3289,Penshurst,-37.9,142.17
3289,Purdeet,-37.9,142.17
3289,Tabor,-37.9,142.17
3292,Nelson,-38.05,141.01
3293,Glenthompson,-37.64,142.55
3293,Nareeb,-37.64,142.55
3293,Narrapumelap South,-37.64,142.55
3294,Dunkeld,-37.65,142.34
3294,Karabeal,-37.65,142.34
3294,Mirranatwa,-37.65,142.34
3294,Moutajup,-37.65,142.34
3294,Victoria Point,-37.65,142.34
3294,Victoria Valley,-37.65,142.34
3294,Woodhouse,-37.65,142.34
3300,Byaduk North,-37.88,141.96
3300,Hamilton,-37.88,141.96
3301,Bochara,-37.7,141.93
3301,Broadwater,-37.7,141.93
3301,Buckley Swamp,-37.7,141.93
3301,Byaduk,-37.7,141.93
3301,Croxton East,-37.7,141.93
3301,Hensley Park,-37.7,141.93
3301,Morgiana,-37.7,141.93
3301,Mount Napier,-37.7,141.93
3301,Strathkellar,-37.7,141.93
3301,Tahara,-37.7,141.93
3301,Tarrington,-37.7,141.93
3301,Wannon,-37.7,141.93
3301,Warrayure,-37.7,141.93
3301,Yatchaw,-37.7,141.93
3301,Yulecart,-37.7,141.93
3302,Branxholme,-37.86,141.79
3302,Grassdale,-37.86,141.79
3303,Breakaway Creek,-38.03,141.81
3303,Condah,-38.03,141.81
3303,Hotspur,-38.03,141.81
3303,Lake Condah,-38.03,141.81
3303,Wallacedale,-38.03,141.81
3304,Bessiebelle,-38.15,141.97
3304,Dartmoor,-38.15,141.97
3304,Drik Drik,-38.15,141.97
3304,Drumborg,-38.15,141.97
3304,Greenwald,-38.15,141.97
3304,Heywood,-38.15,141.97
3304,Homerton,-38.15,141.97
3304,Lyons,-38.15,141.97
3304,Milltown,-38.15,141.97
3304,Mumbannar,-38.15,141.97
3304,Myamyn,-38.15,141.97
3304,Winnap,-38.15,141.97
3305,Allestree,-38.27,141.65
3305,Bolwarra,-38.27,141.65
3305,Cape Bridgewater,-38.27,141.65
3305,Cashmore,-38.27,141.65
3305,Dutton Way,-38.27,141.65
3305,Gorae,-38.27,141.65
3305,Gorae West,-38.27,141.65
3305,Heathmere,-38.27,141.65
3305,Mount Richmond,-38.27,141.65
3305,Portland,-38.27,141.65
3305,Portland North,-38.27,141.65
3305,Portland West,-38.27,141.65
3309,Digby,-37.79,141.5
3310,Merino,-37.72,141.55
3310,Tahara West,-37.72,141.55
3311,Casterton,-37.58,141.41
3311,Corndale,-37.58,141.41
3312,Bahgallah,-37.64,141.37
3312,Brimboal,-37.64,141.37
3312,Carapook,-37.64,141.37
3312,Chetwynd,-37.64,141.37
3312,Dergholm,-37.64,141.37
3312,Dorodong,-37.64,141.37
3312,Dunrobin,-37.64,141.37
3312,Henty,-37.64,141.37
3312,Killara,-37.64,141.37
3312,Lake Mundi,-37.64,141.37
3312,Lindsay,-37.64,141.37
3312,Nangeela,-37.64,141.37
3312,Poolaijelo,-37.64,141.37
3312,Powers Creek,-37.64,141.37
3312,Sandford,-37.64,141.37
3312,Strathdownie,-37.64,141.37
3312,Wando Bridge,-37.64,141.37
3312,Wando Vale,-37.64,141.37
3312,Warrock,-37.64,141.37
3314,Bulart,-37.59,141.94
3314,Cavendish,-37.59,141.94
3314,Glenisla,-37.59,141.94
3314,Grampians,-37.59,141.94
3314,Mooralla,-37.59,141.94
3315,Brit Brit,-37.44,141.76
3315,Clover Flat,-37.44,141.76
3315,Coleraine,-37.44,141.76
3315,Coojar,-37.44,141.76
3315,Culla,-37.44,141.76
3315,Gringegalgona,-37.44,141.76
3315,Gritjurk,-37.44,141.76
3315,Hilgay,-37.44,141.76
3315,Konongwootong,-37.44,141.76
3315,Melville Forest,-37.44,141.76
3315,Muntham,-37.44,141.76
3315,Nareen,-37.44,141.76
3315,Paschendale,-37.44,141.76
3315,Tahara Bridge,-37.44,141.76
3315,Tarrayoukyan,-37.44,141.76
3315,Tarrenlea,-37.44,141.76
3315,Wootong Vale,-37.44,141.76
3317,Harrow,-37.12,141.6
3318,Charam,-36.99,141.51
3318,Connewirricoo,-36.99,141.51
3318,Edenhope,-36.99,141.51
3318,Kadnook,-36.99,141.51
3318,Langkoop,-36.99,141.51
3318,Patyah,-36.99,141.51
3318,Ullswater,-36.99,141.51
3319,Apsley,-36.97,141.08
3319,Benayeo,-36.97,141.08
3319,Bringalbert,-36.97,141.08
3321,Hesse,-38.11,143.86
3321,Inverleigh,-38.11,143.86
3321,Wingeel,-38.11,143.86
3322,Cressy,-38.03,143.64
3323,Berrybank,-37.99,143.49
3323,Duverney,-37.99,143.49
3323,Foxhow,-37.99,143.49
3324,Lismore,-37.95,143.34
3324,Mingay,-37.95,143.34
3324,Mount Bute,-37.95,143.34
3325,Derrinallum,-37.95,143.22
3325,Larralea,-37.95,143.22
3325,Vite Vite,-37.95,143.22
3325,Vite Vite North,-37.95,143.22
3328,Teesdale,-38.04,144.05
3329,Barunah Park,-38.02,143.86
3329,Barunah Plains,-38.02,143.86
3329,Shelford,-38.02,143.86
3330,Rokewood,-37.84,143.68
3331,Bannockburn,-38.05,144.17
3331,Gheringhap,-38.05,144.17
3331,Maude,-38.05,144.17
3331,Russells Bridge,-38.05,144.17
3331,She Oaks,-38.05,144.17
3331,Steiglitz,-38.05,144.17
3331,Sutherlands Creek,-38.05,144.17
3332,Lethbridge,-37.96,144.14
3333,Bamganie,-37.92,144.03
3333,Meredith,-37.92,144.03
3334,Bungal,-37.71,144.09
3334,Cargerie,-37.71,144.09
3334,Elaine,-37.71,144.09
3334,Morrisons,-37.71,144.09
3334,Mount Doran,-37.71,144.09
3335,Plumpton,-37.69,144.69
3335,Rockbank,-37.69,144.69
3337,Kurunjang,-37.68,144.59
3337,Melton,-37.68,144.59
3337,Melton West,-37.68,144.59
3337,Toolern Vale,-37.68,144.59
3338,Brookfield,-37.7,144.54
3338,Exford,-37.7,144.54
3338,Eynesbury,-37.7,144.54
3338,Melton South,-37.7,144.54
3340,Bacchus Marsh,-37.68,144.44
3340,Balliang,-37.68,144.44
3340,Balliang East,-37.68,144.44
3340,Coimadai,-37.68,144.44
3340,Darley,-37.68,144.44
3340,Glenmore,-37.68,144.44
3340,Hopetoun Park,-37.68,144.44
3340,Long Forest,-37.68,144.44
3340,Maddingley,-37.68,144.44
3340,Merrimu,-37.68,144.44
3340,Parwan,-37.68,144.44
3340,Rowsley,-37.68,144.44
3341,Dales Creek,-37.52,144.31
3341,Greendale,-37.52,144.31
3341,Korobeit,-37.52,144.31
3341,Myrniong,-37.52,144.31
3341,Pentland Hills,-37.52,144.31
3342,Ballan,-37.6,144.23
3342,Beremboke,-37.6,144.23
3342,Blakeville,-37.6,144.23
3342,Bunding,-37.6,144.23
3342,Colbrook,-37.6,144.23
3342,Durdidwarrah,-37.6,144.23
3342,Fiskville,-37.6,144.23
3342,Ingliston,-37.6,144.23
3342,Mount Wallace,-37.6,144.23
3345,Gordon,-37.59,144.1
3350,Alfredton,-37.56,143.82
3350,Bakery Hill,-37.56,143.82
3350,Ballarat,-37.56,143.82
3350,Ballarat Central,-37.56,143.82
3350,Ballarat East,-37.56,143.82
3350,Ballarat North,-37.56,143.82
3350,Ballarat West,-37.56,143.82
3350,Black Hill,-37.56,143.82
3350,Brown Hill,-37.56,143.82
3350,Canadian,-37.56,143.82
3350,Eureka,-37.56,143.82
3350,Golden Point,-37.56,143.82
3350,Invermay Park,-37.56,143.82
3350,Lake Wendouree,-37.56,143.82
3350,Mount Clear,-37.56,143.82
3350,Mount Helen,-37.56,143.82
3350,Mount Pleasant,-37.56,143.82
3350,Nerrina,-37.56,143.82
3350,Newington,-37.56,143.82
3350,Redan,-37.56,143.82
3350,Soldiers Hill,-37.56,143.82
3351,Berringa,-37.77,143.68
3351,Bo Peep,-37.77,143.68
3351,Cape Clear,-37.77,143.68
3351,Carngham,-37.77,143.68
3351,Chepstowe,-37.77,143.68
3351,Haddon,-37.77,143.68
3351,Hillcrest,-37.77,143.68
3351,Illabarook,-37.77,143.68
3351,Lake Bolac,-37.77,143.68
3351,Mininera,-37.77,143.68
3351,Mount Emu,-37.77,143.68
3351,Nerrin Nerrin,-37.77,143.68
3351,Newtown,-37.77,143.68
3351,Nintingbool,-37.77,143.68
3351,Piggoreet,-37.77,143.68
3351,Pitfield,-37.77,143.68
3351,Rokewood Junction,-37.77,143.68
3351,Ross Creek,-37.77,143.68
3351,Scarsdale,-37.77,143.68
3351,Smythes Creek,-37.77,143.68
3351,Smythesdale,-37.77,143.68
3351,Snake Valley,-37.77,143.68
3351,Springdallah,-37.77,143.68
3351,Staffordshire Reef,-37.77,143.68
3351,Streatham,-37.77,143.68
3351,Wallinduc,-37.77,143.68
3351,Westmere,-37.77,143.68
3352,Addington,-37.38,143.67
3352,Ballarat Roadside Delivery,-37.38,143.67
3352,Blowhard,-37.38,143.67
3352,Bolwarrah,-37.38,143.67
3352,Bonshaw,-37.38,143.67
3352,Brewster,-37.38,143.67
3352,Bullarook,-37.38,143.67
3352,Bungaree,-37.38,143.67
3352,Bunkers Hill,-37.38,143.67
3352,Burrumbeet,-37.38,143.67
3352,Cambrian Hill,-37.38,143.67
3352,Cardigan,-37.38,143.67
3352,Cardigan Village,-37.38,143.67
3352,Chapel Flat,-37.38,143.67
3352,Clarendon,-37.38,143.67
3352,Claretown,-37.38,143.67
3352,Clarkes Hill,-37.38,143.67
3352,Corindhap,-37.38,143.67
3352,Dereel,-37.38,143.67
3352,Dunnstown,-37.38,143.67
3352,Durham Lead,-37.38,143.67
3352,Enfield,-37.38,143.67
3352,Ercildoune,-37.38,143.67
3352,Garibaldi,-37.38,143.67
3352,Glen Park,-37.38,143.67
3352,Glenbrae,-37.38,143.67
3352,Gong Gong,-37.38,143.67
3352,Grenville,-37.38,143.67
3352,Invermay,-37.38,143.67
3352,Lal Lal,-37.38,143.67
3352,Lamplough,-37.38,143.67
3352,Langi Kal Kal,-37.38,143.67
3352,Learmonth,-37.38,143.67
3352,Leigh Creek,-37.38,143.67
3352,Lexton,-37.38,143.67
3352,Magpie,-37.38,143.67
3352,Millbrook,-37.38,143.67
3352,Miners Rest,-37.38,143.67
3352,Mitchell Park,-37.38,143.67
3352,Mollongghip,-37.38,143.67
3352,Mount Bolton,-37.38,143.67
3352,Mount Egerton,-37.38,143.67
3352,Mount Mercer,-37.38,143.67
3352,Mount Rowan,-37.38,143.67
3352,Napoleons,-37.38,143.67
3352,Navigators,-37.38,143.67
3352,Pootilla,-37.38,143.67
3352,Scotchmans Lead,-37.38,143.67
3352,Scotsburn,-37.38,143.67
3352,Springbank,-37.38,143.67
3352,Sulky,-37.38,143.67
3352,Wallace,-37.38,143.67
3352,Warrenheip,-37.38,143.67
3352,Wattle Flat,-37.38,143.67
3352,Waubra,-37.38,143.67
3352,Weatherboard,-37.38,143.67
3352,Werneth,-37.38,143.67
3352,Windermere,-37.38,143.67
3352,Yendon,-37.38,143.67
3353,Ballarat,-37.78,144.84
3354,Bakery Hill,-37.56,143.87
3354,Ballarat MC,-37.56,143.87
3355,Lake Gardens,-37.55,143.82
3355,Mitchell Park,-37.55,143.82
3355,Wendouree,-37.55,143.82
3355,Wendouree Village,-37.55,143.82
3356,Delacombe,-37.59,143.83
3356,Sebastopol,-37.59,143.83
3357,Buninyong,-37.65,143.92
3357,Scotsmans Lead,-37.65,143.92
3360,Happy Valley,-37.69,143.56
3360,Linton,-37.69,143.56
3360,Mannibadar,-37.69,143.56
3360,Pittong,-37.69,143.56
3360,Willowvale,-37.69,143.56
3361,Bradvale,-37.78,143.41
3361,Carranballac,-37.78,143.41
3361,Skipton,-37.78,143.41
3363,Creswick,-37.42,143.89
3363,Creswick North,-37.42,143.89
3363,Dean,-37.42,143.89
3363,Glendaruel,-37.42,143.89
3363,Langdons Hill,-37.42,143.89
3363,Mount Beckworth,-37.42,143.89
3363,Tourello,-37.42,143.89
3364,Allendale,-37.37,143.94
3364,Ascot,-37.37,143.94
3364,Bald Hills,-37.37,143.94
3364,Barkstead,-37.37,143.94
3364,Blampied,-37.37,143.94
3364,Broomfield,-37.37,143.94
3364,Cabbage Tree,-37.37,143.94
3364,Campbelltown,-37.37,143.94
3364,Coghills Creek,-37.37,143.94
3364,Glendonald,-37.37,143.94
3364,Kingston,-37.37,143.94
3364,Kooroocheang,-37.37,143.94
3364,Lawrence,-37.37,143.94
3364,Mount Prospect,-37.37,143.94
3364,Newlyn,-37.37,143.94
3364,Newlyn North,-37.37,143.94
3364,Rocklyn,-37.37,143.94
3364,Smeaton,-37.37,143.94
3364,Smokeytown,-37.37,143.94
3364,Springmount,-37.37,143.94
3364,Strathlea,-37.37,143.94
3364,Werona,-37.37,143.94
3370,Clunes,-37.29,143.79
3370,Glengower,-37.29,143.79
3370,Mount Cameron,-37.29,143.79
3370,Ullina,-37.29,143.79
3371,Amherst,-37.15,143.67
3371,Burnbank,-37.15,143.67
3371,Caralulup,-37.15,143.67
3371,Dunach,-37.15,143.67
3371,Evansford,-37.15,143.67
3371,Lillicur,-37.15,143.67
3371,Mount Glasgow,-37.15,143.67
3371,Red Lion,-37.15,143.67
3371,Stony Creek,-37.15,143.67
3371,Talbot,-37.15,143.67
3373,Beaufort,-37.43,143.38
3373,Chute,-37.43,143.38
3373,Cross Roads,-37.43,143.38
3373,Lake Goldsmith,-37.43,143.38
3373,Lake Wongan,-37.43,143.38
3373,Main Lead,-37.43,143.38
3373,Mena Park,-37.43,143.38
3373,Nerring,-37.43,143.38
3373,Raglan,-37.43,143.38
3373,Stockyard Hill,-37.43,143.38
3373,Stoneleigh,-37.43,143.38
3373,Trawalla,-37.43,143.38
3373,Waterloo,-37.43,143.38
3374,Great Western,0.0,0.0
3375,Ballyrogan,-37.43,143.13
3375,Bayindeen,-37.43,143.13
3375,Buangor,-37.43,143.13
3375,Middle Creek,-37.43,143.13
3377,Ararat,-37.28,142.93
3377,Armstrong,-37.28,142.93
3377,Bulgana,-37.28,142.93
3377,Cathcart,-37.28,142.93
3377,Crowlands,-37.28,142.93
3377,Denicull Creek,-37.28,142.93
3377,Dobie,-37.28,142.93
3377,Dunneworthy,-37.28,142.93
3377,Eversley,-37.28,142.93
3377,Langi Logan,-37.28,142.93
3377,Maroona,-37.28,142.93
3377,Mount Cole,-37.28,142.93
3377,Mount Cole Creek,-37.28,142.93
3377,Moyston,-37.28,142.93
3377,Norval,-37.28,142.93
3377,Rhymney,-37.28,142.93
3377,Rocky Point,-37.28,142.93
3377,Rossbridge,-37.28,142.93
3377,Shays Flat,-37.28,142.93
3377,Warrak,-37.28,142.93
3378,Tatyoon,-37.53,142.94
3378,Yalla-Y-Poora,-37.53,142.94
3379,Bornes Hill,-37.53,142.52
3379,Chatsworth,-37.53,142.52
3379,Mafeking,-37.53,142.52
3379,Stavely,-37.53,142.52
3379,Wickliffe,-37.53,142.52
3379,Willaura,-37.53,142.52
3379,Willaura North,-37.53,142.52
3380,Stawell,-37.16,142.7
3380,Stawell West,-37.16,142.7
3381,Bellellen,-36.94,143.21
3381,Bellfield,-36.94,143.21
3381,Black Range,-36.94,143.21
3381,Fyans Creek,-36.94,143.21
3381,Halls Gap,-36.94,143.21
3381,Illawarra,-36.94,143.21
3381,Lake Fyans,-36.94,143.21
3381,Lake Lonsdale,-36.94,143.21
3381,Mokepilly,-36.94,143.21
3381,Mount Dryden,-36.94,143.21
3381,Pomonal,-36.94,143.21
3384,Barkly,-36.98,143.2
3384,Concongella,-36.98,143.2
3384,Frenchmans,-36.98,143.2
3384,Joel Joel,-36.98,143.2
3384,Joel South,-36.98,143.2
3384,Landsborough,-36.98,143.2
3384,Landsborough West,-36.98,143.2
3384,Navarre,-36.98,143.2
3384,Tulkara,-36.98,143.2
3384,Wattle Creek,-36.98,143.2
3385,Dadswells Bridge,-36.92,142.51
3385,Deep Lead,-36.92,142.51
3385,Glenorchy,-36.92,142.51
3385,Ledcourt,-36.92,142.51
3385,Lubeck,-36.92,142.51
3385,Riachella,-36.92,142.51
3385,Roses Gap,-36.92,142.51
3385,Wal Wal,-36.92,142.51
3387,Bolangum,-36.67,142.87
3387,Callawadda,-36.67,142.87
3387,Campbells Bridge,-36.67,142.87
3387,Germania,-36.67,142.87
3387,Greens Creek,-36.67,142.87
3387,Kanya,-36.67,142.87
3387,Marnoo,-36.67,142.87
3387,Marnoo West,-36.67,142.87
3387,Morrl Morrl,-36.67,142.87
3387,Wallaloo,-36.67,142.87
3387,Wallaloo East,-36.67,142.87
3388,Banyena,-36.57,142.82
3388,Rupanyup,-36.57,142.82
3390,Kewell,-36.45,142.42
3390,Murtoa,-36.45,142.42
3391,Brim,-36.07,142.52
3392,Boolite,-36.46,142.59
3392,Minyip,-36.46,142.59
3392,Sheep Hills,-36.46,142.59
3393,Aubrey,-36.33,142.36
3393,Bangerang,-36.33,142.36
3393,Cannum,-36.33,142.36
3393,Crymelon,-36.33,142.36
3393,Kellalac,-36.33,142.36
3393,Lah,-36.33,142.36
3393,Warracknabeal,-36.33,142.36
3393,Wilkur,-36.33,142.36
3393,Willenabrina,-36.33,142.36
3395,Beulah,-35.94,142.42
3395,Kenmare,-35.94,142.42
3395,Reedy Dam,-35.94,142.42
3395,Rosebery,-35.94,142.42
3396,Hopetoun,-35.73,142.36
3400,Horsham,-36.71,142.2
3400,Horsham West,-36.71,142.2
3401,Blackheath,-36.46,142.31
3401,Brimpaen,-36.46,142.31
3401,Bungalally,-36.46,142.31
3401,Cherrypool,-36.46,142.31
3401,Dooen,-36.46,142.31
3401,Drung,-36.46,142.31
3401,Gymbowen,-36.46,142.31
3401,Haven,-36.46,142.31
3401,Jung,-36.46,142.31
3401,Kalkee,-36.46,142.31
3401,Kanagulk,-36.46,142.31
3401,Karnak,-36.46,142.31
3401,Laharum,-36.46,142.31
3401,Longerenong,-36.46,142.31
3401,Lower Norton,-36.46,142.31
3401,Mckenzie Creek,-36.46,142.31
3401,Mockinya,-36.46,142.31
3401,Murra Warra,-36.46,142.31
3401,Nurcoung,-36.46,142.31
3401,Nurrabiel,-36.46,142.31
3401,Pimpinio,-36.46,142.31
3401,Quantong,-36.46,142.31
3401,Riverside,-36.46,142.31
3401,Rocklands,-36.46,142.31
3401,St Helens Plains,-36.46,142.31
3401,Telangatuk East,-36.46,142.31
3401,Toolondo,-36.46,142.31
3401,Vectis,-36.46,142.31
3401,Wail,-36.46,142.31
3401,Wallup,-36.46,142.31
3401,Wartook,-36.46,142.31
3401,Wonwondah,-36.46,142.31
3401,Zumsteins,-36.46,142.31
3402,Horsham,-37.16,142.67
3407,Balmoral,-37.25,141.84
3407,Englefield,-37.25,141.84
3407,Gatum,-37.25,141.84
3407,Pigeon Ponds,-37.25,141.84
3407,Vasey,-37.25,141.84
3409,Arapiles,-36.78,141.76
3409,Clear Lake,-36.78,141.76
3409,Douglas,-36.78,141.76
3409,Duchembegarra,-36.78,141.76
3409,Grass Flat,-36.78,141.76
3409,Jilpanger,-36.78,141.76
3409,Miga Lake,-36.78,141.76
3409,Mitre,-36.78,141.76
3409,Natimuk,-36.78,141.76
3409,Noradjuha,-36.78,141.76
3409,Tooan,-36.78,141.76
3409,Wombelano,-36.78,141.76
3412,Goroke,-36.75,141.47
3413,Minimay,-36.71,141.18
3413,Neuarpurr,-36.71,141.18
3413,Ozenkadnook,-36.71,141.18
3413,Peronne,-36.71,141.18
3414,Antwerp,-36.3,142.02
3414,Dimboola,-36.3,142.02
3414,Tarranyurk,-36.3,142.02
3415,Miram,-36.38,141.36
3418,Broughton,-36.17,141.33
3418,Gerang Gerung,-36.17,141.33
3418,Glenlee,-36.17,141.33
3418,Kiata,-36.17,141.33
3418,Lawloit,-36.17,141.33
3418,Little Desert,-36.17,141.33
3418,Lorquon,-36.17,141.33
3418,Netherby,-36.17,141.33
3418,Nhill,-36.17,141.33
3418,Yanac,-36.17,141.33
3419,Kaniva,-36.38,141.24
3420,Lillimur,-36.36,141.12
3420,Serviceton,-36.36,141.12
3420,Telopea Downs,-36.36,141.12
3423,Jeparit,-36.14,141.99
3424,Albacutya,-35.69,141.97
3424,Rainbow,-35.69,141.97
3424,Yaapeet,-35.69,141.97
3427,Diggers Rest,-37.63,144.72
3428,Bulla,-37.64,144.8
3429,Sunbury,-37.58,144.73
3429,Wildwood,-37.58,144.73
3430,Clarkefield,-37.48,144.75
3431,Riddells Creek,-37.46,144.67
3432,Bolinda,-37.43,144.78
3433,Monegeetta,0.0,0.0
3434,Cherokee,-37.39,144.64
3434,Kerrie,-37.39,144.64
3434,Romsey,-37.39,144.64
3434,Springfield,-37.39,144.64
3435,Benloch,-37.19,144.69
3435,Goldie,-37.19,144.69
3435,Lancefield,-37.19,144.69
3435,Nulla Vale,-37.19,144.69
3437,Bullengarook,-37.52,144.48
3437,Gisborne,-37.52,144.48
3437,Gisborne South,-37.52,144.48
3438,New Gisborne,-37.46,144.6
3440,Macedon,-37.4,144.59
3441,Mount Macedon,-37.4,144.59
3442,Ashbourne,-37.39,144.45
3442,Cadello,-37.39,144.45
3442,Carlsruhe,-37.39,144.45
3442,Cobaw,-37.39,144.45
3442,Hesket,-37.39,144.45
3442,Newham,-37.39,144.45
3442,Rochford,-37.39,144.45
3442,Woodend,-37.39,144.45
3442,Woodend North,-37.39,144.45
3444,Barfold,-37.09,144.51
3444,Baynton,-37.09,144.51
3444,Baynton East,-37.09,144.51
3444,Edgecombe,-37.09,144.51
3444,Glenhope,-37.09,144.51
3444,Greenhill,-37.09,144.51
3444,Kyneton,-37.09,144.51
3444,Kyneton South,-37.09,144.51
3444,Langley,-37.09,144.51
3444,Lauriston,-37.09,144.51
3444,Lyal,-37.09,144.51
3444,Metcalfe East,-37.09,144.51
3444,Mia Mia,-37.09,144.51
3444,Myrtle Creek,-37.09,144.51
3444,Pastoria,-37.09,144.51
3444,Pastoria East,-37.09,144.51
3444,Pipers Creek,-37.09,144.51
3444,Redesdale,-37.09,144.51
3444,Sidonia,-37.09,144.51
3444,Spring Hill,-37.09,144.51
3444,Tylden,-37.09,144.51
3444,Tylden South,-37.09,144.51
3446,Drummond North,-37.2,144.29
3446,Malmsbury,-37.2,144.29
3447,Taradale,-37.13,144.36
3448,Elphinstone,-37.11,144.34
3448,Metcalfe,-37.11,144.34
3448,Sutton Grange,-37.11,144.34
3450,Castlemaine,-37.06,144.22
3450,Moonlight Flat,-37.06,144.22
3451,Barkers Creek,-37.03,144.24
3451,Campbells Creek,-37.03,144.24
3451,Chewton,-37.03,144.24
3451,Chewton Bushlands,-37.03,144.24
3451,Faraday,-37.03,144.24
3451,Fryerstown,-37.03,144.24
3451,Glenluce,-37.03,144.24
3451,Golden Point,-37.03,144.24
3451,Gower,-37.03,144.24
3451,Guildford,-37.03,144.24
3451,Irishtown,-37.03,144.24
3451,Mckenzie Hill,-37.03,144.24
3451,Muckleford,-37.03,144.24
3451,Tarilta,-37.03,144.24
3451,Vaughan,-37.03,144.24
3451,Yapeen,-37.03,144.24
3453,Harcourt,-37.0,144.26
3453,Harcourt North,-37.0,144.26
3453,Ravenswood,-37.0,144.26
3453,Ravenswood South,-37.0,144.26
3458,Barrys Reef,-37.45,144.29
3458,Blackwood,-37.45,144.29
3458,Fern Hill,-37.45,144.29
3458,Lerderderg,-37.45,144.29
3458,Little Hampton,-37.45,144.29
3458,Newbury,-37.45,144.29
3458,North Blackwood,-37.45,144.29
3458,Trentham,-37.45,144.29
3458,Trentham East,-37.45,144.29
3460,Basalt,-37.31,144.09
3460,Daylesford,-37.31,144.09
3461,Bullarto,-37.39,144.22
3461,Bullarto South,-37.39,144.22
3461,Clydesdale,-37.39,144.22
3461,Coomoora,-37.39,144.22
3461,Denver,-37.39,144.22
3461,Drummond,-37.39,144.22
3461,Dry Diggings,-37.39,144.22
3461,Eganstown,-37.39,144.22
3461,Elevated Plains,-37.39,144.22
3461,Franklinford,-37.39,144.22
3461,Glenlyon,-37.39,144.22
3461,Hepburn,-37.39,144.22
3461,Hepburn Springs,-37.39,144.22
3461,Korweinguboora,-37.39,144.22
3461,Leonards Hill,-37.39,144.22
3461,Lyonville,-37.39,144.22
3461,Mount Franklin,-37.39,144.22
3461,Musk,-37.39,144.22
3461,Musk Vale,-37.39,144.22
3461,Porcupine Ridge,-37.39,144.22
3461,Sailors Falls,-37.39,144.22
3461,Sailors Hill,-37.39,144.22
3461,Shepherds Flat,-37.39,144.22
3461,Spargo Creek,-37.39,144.22
3461,Strangways,-37.39,144.22
3461,Wheatsheaf,-37.39,144.22
3461,Yandoit,-37.39,144.22
3461,Yandoit Hills,-37.39,144.22
3462,Green Gully,-37.11,144.1
3462,Joyces Creek,-37.11,144.1
3462,Muckleford South,-37.11,144.1
3462,Newstead,-37.11,144.1
3462,Sandon,-37.11,144.1
3462,Welshmans Reef,-37.11,144.1
3463,Baringhup,-36.98,143.95
3463,Baringhup West,-36.98,143.95
3463,Bradford,-36.98,143.95
3463,Eastville,-36.98,143.95
3463,Laanecoorie,-36.98,143.95
3463,Maldon,-36.98,143.95
3463,Neereman,-36.98,143.95
3463,Nuggetty,-36.98,143.95
3463,Shelbourne,-36.98,143.95
3463,Tarrengower,-36.98,143.95
3463,Walmer,-36.98,143.95
3463,Woodstock West,-36.98,143.95
3464,Carisbrook,-37.01,143.8
3465,Adelaide Lead,-37.07,143.68
3465,Alma,-37.07,143.68
3465,Bowenvale,-37.07,143.68
3465,Bung Bong,-37.07,143.68
3465,Cotswold,-37.07,143.68
3465,Craigie,-37.07,143.68
3465,Daisy Hill,-37.07,143.68
3465,Flagstaff,-37.07,143.68
3465,Golden Point,-37.07,143.68
3465,Havelock,-37.07,143.68
3465,Homebush,-37.07,143.68
3465,Majorca,-37.07,143.68
3465,Maryborough,-37.07,143.68
3465,Moolort,-37.07,143.68
3465,Moonlight Flat,-37.07,143.68
3465,Natte Yallock,-37.07,143.68
3465,Rathscar,-37.07,143.68
3465,Rathscar West,-37.07,143.68
3465,Simson,-37.07,143.68
3465,Timor,-37.07,143.68
3465,Timor West,-37.07,143.68
3465,Wareek,-37.07,143.68
3467,Avoca,-37.09,143.47
3468,Amphitheatre,-37.18,143.4
3468,Mount Lonarch,-37.18,143.4
3469,Elmhurst,-37.18,143.25
3469,Glenlofty,-37.18,143.25
3469,Glenlogie,-37.18,143.25
3469,Glenpatrick,-37.18,143.25
3469,Nowhere Creek,-37.18,143.25
3472,Bet Bet,-36.92,143.76
3472,Betley,-36.92,143.76
3472,Bromley,-36.92,143.76
3472,Dunluce,-36.92,143.76
3472,Dunolly,-36.92,143.76
3472,Eddington,-36.92,143.76
3472,Goldsborough,-36.92,143.76
3472,Inkerman,-36.92,143.76
3472,Mcintyre,-36.92,143.76
3472,Moliagul,-36.92,143.76
3472,Mount Hooghly,-36.92,143.76
3475,Archdale,-36.83,143.5
3475,Archdale Junction,-36.83,143.5
3475,Bealiba,-36.83,143.5
3475,Burkes Flat,-36.83,143.5
3475,Cochranes Creek,-36.83,143.5
3475,Emu,-36.83,143.5
3475,Logan,-36.83,143.5
3477,Avon Plains,0.0,0.0
3477,Beazleys Bridge,0.0,0.0
3477,Carapooee,0.0,0.0
3477,Carapooee West,0.0,0.0
3477,Coonooer Bridge,0.0,0.0
3477,Coonooer West,0.0,0.0
3477,Dalyenong,0.0,0.0
3477,Gooroc,0.0,0.0
3477,Gowar East,0.0,0.0
3477,Grays Bridge,0.0,0.0
3477,Gre Gre,0.0,0.0
3477,Gre Gre North,0.0,0.0
3477,Gre Gre South,0.0,0.0
3477,Kooreh,0.0,0.0
3477,Marnoo East,0.0,0.0
3477,Moolerr,0.0,0.0
3477,Moyreisk,0.0,0.0
3477,Paradise,0.0,0.0
3477,Redbank,0.0,0.0
3477,Rostron,0.0,0.0
3477,Slaty Creek,0.0,0.0
3477,St Arnaud East,0.0,0.0
3477,St Arnaud North,0.0,0.0
3477,Stuart Mill,0.0,0.0
3477,Sutherland,0.0,0.0
3477,Swanwater,0.0,0.0
3477,Tottington,0.0,0.0
3477,Traynors Lagoon,0.0,0.0
3477,Winjallok,0.0,0.0
3477,York Plains,0.0,0.0
3478,Dooboobetic,-36.54,142.92
3478,Medlyn,-36.54,142.92
3478,Moonambel,-36.54,142.92
3478,Percydale,-36.54,142.92
3478,St Arnaud,-36.54,142.92
3478,Tanwood,-36.54,142.92
3478,Warrenmang,-36.54,142.92
3478,Yawong Hills,-36.54,142.92
3480,Areegra,-36.24,142.69
3480,Carron,-36.24,142.69
3480,Cope Cope,-36.24,142.69
3480,Corack,-36.24,142.69
3480,Corack East,-36.24,142.69
3480,Donald,-36.24,142.69
3480,Gil Gil,-36.24,142.69
3480,Jeffcott,-36.24,142.69
3480,Jeffcott North,-36.24,142.69
3480,Laen,-36.24,142.69
3480,Laen East,-36.24,142.69
3480,Laen North,-36.24,142.69
3480,Lake Buloke,-36.24,142.69
3480,Lawler,-36.24,142.69
3480,Litchfield,-36.24,142.69
3480,Rich Avon,-36.24,142.69
3480,Rich Avon East,-36.24,142.69
3480,Rich Avon West,-36.24,142.69
3480,Swanwater West,-36.24,142.69
3482,Massey,-36.23,142.86
3482,Morton Plains,-36.23,142.86
3482,Warmur,-36.23,142.86
3482,Watchem,-36.23,142.86
3482,Watchem West,-36.23,142.86
3483,Ballapur,-35.98,142.75
3483,Birchip,-35.98,142.75
3483,Birchip West,-35.98,142.75
3483,Curyo,-35.98,142.75
3483,Jil Jil,-35.98,142.75
3483,Karyrie,-35.98,142.75
3483,Kinnabulla,-35.98,142.75
3483,Marlbed,-35.98,142.75
3483,Narraport,-35.98,142.75
3483,Whirily,-35.98,142.75
3485,Banyan,-35.64,142.77
3485,Watchupga,-35.64,142.77
3485,Willangie,-35.64,142.77
3485,Woomelang,-35.64,142.77
3487,Lascelles,-35.61,142.58
3488,Speed,-35.4,142.44
3488,Turriff,-35.4,142.44
3488,Turriff East,-35.4,142.44
3489,Tempy,-35.34,142.48
3490,Big Desert,-35.2,141.6
3490,Boinka,-35.2,141.6
3490,Kulwin,-35.2,141.6
3490,Mittyack,-35.2,141.6
3490,Murray-Sunset,-35.2,141.6
3490,Ouyen,-35.2,141.6
3490,Torrita,-35.2,141.6
3490,Tutye,-35.2,141.6
3491,Patchewollock,-35.38,142.19
3494,Carwarp,-34.46,142.23
3494,Colignan,-34.46,142.23
3494,Iraak,-34.46,142.23
3494,Nangiloc,-34.46,142.23
3496,Cardross,-34.29,142.15
3496,Cullulleraine,-34.29,142.15
3496,Lindsay Point,-34.29,142.15
3496,Meringur,-34.29,142.15
3496,Merrinee,-34.29,142.15
3496,Neds Corner,-34.29,142.15
3496,Red Cliffs,-34.29,142.15
3496,Sunnycliffs,-34.29,142.15
3496,Werrimull,-34.29,142.15
3498,Irymple,-34.23,142.18
3500,Mildura,-34.18,142.16
3500,Mildura West,-34.18,142.16
3501,Hattah,-34.85,142.33
3501,Koorlong,-34.85,142.33
3501,Mildura Centre Plaza,-34.85,142.33
3501,Mildura South,-34.85,142.33
3501,Nichols Point,-34.85,142.33
3502,Mildura,-37.97,145.26
3505,Birdwoodton,-34.2,142.06
3505,Cabarita,-34.2,142.06
3505,Merbein,-34.2,142.06
3505,Merbein South,-34.2,142.06
3505,Merbein West,-34.2,142.06
3505,Wargan,-34.2,142.06
3505,Yelta,-34.2,142.06
3506,Cowangie,-35.28,141.4
3507,Walpeup,-35.19,142.02
3509,Linga,-35.17,141.69
3509,Underbool,-35.17,141.69
3512,Carina,-35.22,141.09
3512,Murrayville,-35.22,141.09
3512,Panitya,-35.22,141.09
3515,Marong,-36.74,144.13
3515,Shelbourne,-36.74,144.13
3515,Wilsons Hill,-36.74,144.13
3516,Bridgewater,-36.59,143.92
3516,Bridgewater North,-36.59,143.92
3516,Bridgewater On Loddon,-36.59,143.92
3516,Derby,-36.59,143.92
3516,Leichardt,-36.59,143.92
3516,Yarraberb,-36.59,143.92
3517,Bears Lagoon,-36.3,143.92
3517,Brenanah,-36.3,143.92
3517,Glenalbyn,-36.3,143.92
3517,Inglewood,-36.3,143.92
3517,Jarklin,-36.3,143.92
3517,Kingower,-36.3,143.92
3517,Kurting,-36.3,143.92
3517,Powlett Plains,-36.3,143.92
3517,Rheola,-36.3,143.92
3517,Salisbury West,-36.3,143.92
3517,Serpentine,-36.3,143.92
3518,Berrimal,-36.5,143.46
3518,Borung,-36.5,143.46
3518,Fentons Creek,-36.5,143.46
3518,Fernihurst,-36.5,143.46
3518,Fiery Flat,-36.5,143.46
3518,Kurraca,-36.5,143.46
3518,Kurraca West,-36.5,143.46
3518,Mysia,-36.5,143.46
3518,Nine Mile,-36.5,143.46
3518,Richmond Plains,-36.5,143.46
3518,Skinners Flat,-36.5,143.46
3518,Wedderburn,-36.5,143.46
3518,Wedderburn Junction,-36.5,143.46
3518,Wehla,-36.5,143.46
3518,Woolshed Flat,-36.5,143.46
3518,Woosang,-36.5,143.46
3520,Kinypanial,-36.33,143.84
3520,Korong Vale,-36.33,143.84
3521,Pyalong,-37.12,144.88
3522,Glenhope East,-37.13,144.75
3522,Tooborac,-37.13,144.75
3523,Argyle,-36.94,144.73
3523,Costerfield,-36.94,144.73
3523,Derrinal,-36.94,144.73
3523,Heathcote,-36.94,144.73
3523,Heathcote South,-36.94,144.73
3523,Knowsley,-36.94,144.73
3523,Ladys Pass,-36.94,144.73
3523,Moormbool West,-36.94,144.73
3523,Mount Camel,-36.94,144.73
3523,Redcastle,-36.94,144.73
3525,Barrakee,-36.27,143.43
3525,Buckrabanyule,-36.27,143.43
3525,Charlton,-36.27,143.43
3525,Chirrip,-36.27,143.43
3525,Granite Flat,-36.27,143.43
3525,Lake Marmal,-36.27,143.43
3525,Nareewillock,-36.27,143.43
3525,Terrappee,-36.27,143.43
3525,Wooroonook,-36.27,143.43
3525,Wychitella,-36.27,143.43
3525,Wychitella North,-36.27,143.43
3525,Yeungroon,-36.27,143.43
3525,Yeungroon East,-36.27,143.43
3527,Bunguluke,-36.06,143.39
3527,Dumosa,-36.06,143.39
3527,Glenloth,-36.06,143.39
3527,Glenloth East,-36.06,143.39
3527,Jeruk,-36.06,143.39
3527,Ninyeunook,-36.06,143.39
3527,Teddywaddy,-36.06,143.39
3527,Teddywaddy West,-36.06,143.39
3527,Thalia,-36.06,143.39
3527,Towaninny,-36.06,143.39
3527,Towaninny South,-36.06,143.39
3527,Wycheproof,-36.06,143.39
3527,Wycheproof South,-36.06,143.39
3529,Kalpienung,-35.78,143.26
3529,Nullawil,-35.78,143.26
3530,Culgoa,-35.72,143.11
3530,Sutton,-35.72,143.11
3530,Wangie,-35.72,143.11
3530,Warne,-35.72,143.11
3531,Berriwillock,-35.64,142.99
3531,Boigbeat,-35.64,142.99
3533,Bimbourie,-35.36,142.79
3533,Lake Tyrrell,-35.36,142.79
3533,Myall,-35.36,142.79
3533,Nandaly,-35.36,142.79
3533,Ninda,-35.36,142.79
3533,Nyarrin,-35.36,142.79
3533,Pier Milan,-35.36,142.79
3533,Sea Lake,-35.36,142.79
3533,Straten,-35.36,142.79
3533,Tyenna,-35.36,142.79
3533,Tyrrell,-35.36,142.79
3533,Tyrrell Downs,-35.36,142.79
3537,Barraport,-36.01,143.67
3537,Barraport West,-36.01,143.67
3537,Boort,-36.01,143.67
3537,Canary Island,-36.01,143.67
3537,Catumnal,-36.01,143.67
3537,Gredgwin,-36.01,143.67
3537,Leaghur,-36.01,143.67
3537,Minmindie,-36.01,143.67
3537,Yando,-36.01,143.67
3540,Cannie,-35.76,143.45
3540,Oakvale,-35.76,143.45
3540,Quambatook,-35.76,143.45
3542,Cokum,-35.76,143.28
3542,Lalbert,-35.76,143.28
3542,Tittybong,-35.76,143.28
3544,Chinangin,-35.51,143.2
3544,Gowanford,-35.51,143.2
3544,Murnungin,-35.51,143.2
3544,Springfield,-35.51,143.2
3544,Ultima,-35.51,143.2
3544,Ultima East,-35.51,143.2
3544,Waitchie,-35.51,143.2
3546,Bolton,-34.96,142.88
3546,Chinkapook,-34.96,142.88
3546,Cocamba,-34.96,142.88
3546,Gerahmin,-34.96,142.88
3546,Manangatang,-34.96,142.88
3546,Turoar,-34.96,142.88
3546,Winnambool,-34.96,142.88
3549,Annuello,-34.85,142.83
3549,Bannerton,-34.85,142.83
3549,Happy Valley,-34.85,142.83
3549,Liparoo,-34.85,142.83
3549,Robinvale,-34.85,142.83
3549,Robinvale Irrigation District Section B,-34.85,142.83
3549,Robinvale Irrigation District Section C,-34.85,142.83
3549,Robinvale Irrigation District Section D,-34.85,142.83
3549,Robinvale Irrigation District Section E,-34.85,142.83
3549,Tol Tol,-34.85,142.83
3549,Wandown,-34.85,142.83
3549,Wemen,-34.85,142.83
3550,Bendigo,-36.76,144.28
3550,Bendigo South,-36.76,144.28
3550,East Bendigo,-36.76,144.28
3550,Flora Hill,-36.76,144.28
3550,Ironbark,-36.76,144.28
3550,Kennington,-36.76,144.28
3550,Long Gully,-36.76,144.28
3550,North Bendigo,-36.76,144.28
3550,Quarry Hill,-36.76,144.28
3550,Sandhurst East,-36.76,144.28
3550,Spring Gully,-36.76,144.28
3550,Strathdale,-36.76,144.28
3550,West Bendigo,-36.76,144.28
3550,White Hills,-36.76,144.28
3551,Arnold,-36.69,143.87
3551,Arnold West,-36.69,143.87
3551,Ascot,-36.69,143.87
3551,Axe Creek,-36.69,143.87
3551,Axedale,-36.69,143.87
3551,Bagshot,-36.69,143.87
3551,Bagshot North,-36.69,143.87
3551,Bendigo Forward,-36.69,143.87
3551,Cornella,-36.69,143.87
3551,Emu Creek,-36.69,143.87
3551,Eppalock,-36.69,143.87
3551,Epsom,-36.69,143.87
3551,Huntly,-36.69,143.87
3551,Huntly North,-36.69,143.87
3551,Junortoun,-36.69,143.87
3551,Kimbolton,-36.69,143.87
3551,Lake Eppalock,-36.69,143.87
3551,Llanelly,-36.69,143.87
3551,Lockwood,-36.69,143.87
3551,Lockwood South,-36.69,143.87
3551,Longlea,-36.69,143.87
3551,Maiden Gully,-36.69,143.87
3551,Mandurang,-36.69,143.87
3551,Mandurang South,-36.69,143.87
3551,Minto,-36.69,143.87
3551,Murphys Creek,-36.69,143.87
3551,Myola,-36.69,143.87
3551,Newbridge,-36.69,143.87
3551,Painswick,-36.69,143.87
3551,Sedgwick,-36.69,143.87
3551,Strathfieldsaye,-36.69,143.87
3551,Tarnagulla,-36.69,143.87
3551,Toolleen,-36.69,143.87
3551,Waanyarra,-36.69,143.87
3551,Wellsford,-36.69,143.87
3551,Woodstock On Loddon,-36.69,143.87
3552,Bendigo,-37.83,145.01
3554,Bendigo DC,0.0,0.0
3555,Big Hill,-36.83,144.23
3555,Golden Gully,-36.83,144.23
3555,Golden Square,-36.83,144.23
3555,Kangaroo Flat,-36.83,144.23
3555,Lansell Plaza,-36.83,144.23
3556,California Gully,-36.73,144.26
3556,Campbells Forest,-36.73,144.26
3556,Eaglehawk,-36.73,144.26
3556,Eaglehawk North,-36.73,144.26
3556,Jackass Flat,-36.73,144.26
3556,Myers Flat,-36.73,144.26
3556,Sailors Gully,-36.73,144.26
3556,Sebastian,-36.73,144.26
3556,Whipstick,-36.73,144.26
3556,Woodvale,-36.73,144.26
3557,Barnadown,-36.65,144.51
3557,Fosterville,-36.65,144.51
3557,Goornong,-36.65,144.51
3557,Muskerry,-36.65,144.51
3558,Burnewang,-36.49,144.71
3558,Corop West,-36.49,144.71
3558,Elmore,-36.49,144.71
3558,Hunter,-36.49,144.71
3558,Runnymede,-36.49,144.71
3559,Avonmore,-36.53,144.6
3559,Burramboot,-36.53,144.6
3559,Colbinabbin,-36.53,144.6
3559,Corop,-36.53,144.6
3559,Gobarup,-36.53,144.6
3561,Ballendella,-36.3,144.67
3561,Bamawm,-36.3,144.67
3561,Bamawm Extension,-36.3,144.67
3561,Bonn,-36.3,144.67
3561,Diggora,-36.3,144.67
3561,Fairy Dell,-36.3,144.67
3561,Nanneella,-36.3,144.67
3561,Rochester,-36.3,144.67
3561,Timmering,-36.3,144.67
3562,Torrumbarry,-35.98,144.46
3563,Lockington,-36.27,144.48
3564,Echuca,-36.13,144.73
3564,Echuca South,-36.13,144.73
3564,Echuca Village,-36.13,144.73
3564,Echuca West,-36.13,144.73
3564,Kanyapella,-36.13,144.73
3564,Patho,-36.13,144.73
3564,Roslynmead,-36.13,144.73
3564,Wharparilla,-36.13,144.73
3565,Kotta,-36.19,144.53
3566,Gunbower,-35.96,144.37
3567,Horfield,-35.89,144.24
3567,Leitchville,-35.89,144.24
3568,Burkes Bridge,-35.84,144.34
3568,Cohuna,-35.84,144.34
3568,Cullen,-35.84,144.34
3568,Daltons Bridge,-35.84,144.34
3568,Gannawarra,-35.84,144.34
3568,Keely,-35.84,144.34
3568,Macorna North,-35.84,144.34
3568,Mcmillans,-35.84,144.34
3568,Mead,-35.84,144.34
3568,Mincha West,-35.84,144.34
3568,Wee Wee Rup,-35.84,144.34
3570,Auchmore,-36.47,144.11
3570,Drummartin,-36.47,144.11
3570,Kamarooka,-36.47,144.11
3570,Neilborough,-36.47,144.11
3570,Raywood,-36.47,144.11
3571,Dingee,-36.37,144.23
3571,Kamarooka North,-36.37,144.23
3571,Pompapiel,-36.37,144.23
3571,Tandarra,-36.37,144.23
3572,Milloo,-36.36,144.38
3572,Piavella,-36.36,144.38
3572,Prairie,-36.36,144.38
3572,Tennyson,-36.36,144.38
3573,Calivil,-36.3,144.09
3573,Mitiamo,-36.3,144.09
3573,Pine Grove,-36.3,144.09
3573,Terrick Terrick East,-36.3,144.09
3575,Gladfield,-36.04,143.99
3575,Jungaburra,-36.04,143.99
3575,Loddon Vale,-36.04,143.99
3575,Mincha,-36.04,143.99
3575,Mologa,-36.04,143.99
3575,Pyramid Hill,-36.04,143.99
3575,Sylvaterre,-36.04,143.99
3575,Terrick Terrick,-36.04,143.99
3575,Yarrawalla,-36.04,143.99
3576,Durham Ox,-36.2,143.96
3579,Appin,-35.88,143.87
3579,Appin South,-35.88,143.87
3579,Bael Bael,-35.88,143.87
3579,Beauchamp,-35.88,143.87
3579,Benjeroop,-35.88,143.87
3579,Budgerum East,-35.88,143.87
3579,Capels Crossing,-35.88,143.87
3579,Dingwall,-35.88,143.87
3579,Fairley,-35.88,143.87
3579,Gonn Crossing,-35.88,143.87
3579,Kerang,-35.88,143.87
3579,Kerang East,-35.88,143.87
3579,Koroop,-35.88,143.87
3579,Lake Meran,-35.88,143.87
3579,Macorna,-35.88,143.87
3579,Meering West,-35.88,143.87
3579,Milnes Bridge,-35.88,143.87
3579,Murrabit,-35.88,143.87
3579,Murrabit West,-35.88,143.87
3579,Myall,-35.88,143.87
3579,Mystic Park,-35.88,143.87
3579,Normanville,-35.88,143.87
3579,Pine View,-35.88,143.87
3579,Reedy Lake,-35.88,143.87
3579,Sandhill Lake,-35.88,143.87
3579,Teal Point,-35.88,143.87
3579,Tragowel,-35.88,143.87
3579,Wandella,-35.88,143.87
3579,Westby,-35.88,143.87
3580,Koondrook,-35.64,144.11
3581,Lake Charm,-35.62,143.8
3583,Tresco,-35.51,143.64
3584,Lake Boga,-35.46,143.63
3584,Tresco West,-35.46,143.63
3585,Castle Donnington,-35.42,143.59
3585,Chillingollah,-35.42,143.59
3585,Fish Point,-35.42,143.59
3585,Goschen,-35.42,143.59
3585,Kunat,-35.42,143.59
3585,Meatian,-35.42,143.59
3585,Nowie,-35.42,143.59
3585,Nyrraby,-35.42,143.59
3585,Pira,-35.42,143.59
3585,Polisbet,-35.42,143.59
3585,Speewa,-35.42,143.59
3585,Swan Hill,-35.42,143.59
3585,Swan Hill Pioneer,-35.42,143.59
3585,Swan Hill West,-35.42,143.59
3585,Winlaton,-35.42,143.59
3586,Bulga,-35.3,143.36
3586,Murrawee,-35.3,143.36
3586,Murraydale,-35.3,143.36
3586,Pental Island,-35.3,143.36
3586,Tyntynder,-35.3,143.36
3586,Tyntynder South,-35.3,143.36
3588,Woorinen South,-35.27,143.45
3589,Woorinen,-35.26,143.47
3589,Woorinen North,-35.26,143.47
3590,Beverford,-35.24,143.48
3591,Vinifera,-35.22,143.41
3594,Nyah,-35.15,143.36
3595,Nyah West,-35.19,143.35
3596,Miralie,-35.12,143.33
3596,Towan,-35.12,143.33
3596,Wood Wood,-35.12,143.33
3597,Kenley,-34.86,143.34
3597,Kooloonong,-34.86,143.34
3597,Lake Powell,-34.86,143.34
3597,Narrung,-34.86,143.34
3597,Natya,-34.86,143.34
3597,Piangil,-34.86,143.34
3599,Boundary Bend,-34.74,143.14
3607,Tabilk,-36.85,145.2
3608,Bailieston,-36.7,145.03
3608,Goulburn Weir,-36.7,145.03
3608,Graytown,-36.7,145.03
3608,Kirwans Bridge,-36.7,145.03
3608,Mitchellstown,-36.7,145.03
3608,Nagambie,-36.7,145.03
3608,Wahring,-36.7,145.03
3608,Wirrate,-36.7,145.03
3610,Dhurringile,-36.54,145.28
3610,Moorilim,-36.54,145.28
3610,Murchison,-36.54,145.28
3610,Murchison East,-36.54,145.28
3610,Murchison North,-36.54,145.28
3612,Moora,-36.59,144.95
3612,Rushworth,-36.59,144.95
3612,Wanalta,-36.59,144.95
3612,Waranga Shores,-36.59,144.95
3612,Whroo,-36.59,144.95
3614,Toolamba,-36.48,145.26
3614,Toolamba West,-36.48,145.26
3616,Cooma,-36.42,145.07
3616,Gillieston,-36.42,145.07
3616,Girgarre East,-36.42,145.07
3616,Harston,-36.42,145.07
3616,Mooroopna North West,-36.42,145.07
3616,Tatura,-36.42,145.07
3616,Tatura East,-36.42,145.07
3616,Waranga,-36.42,145.07
3617,Byrneside,-36.42,145.15
3618,Merrigum,-36.37,145.17
3619,Kyabram,-37.66,144.94
3620,Kyabram,-36.31,145.05
3620,Kyabram South,-36.31,145.05
3620,Lancaster,-36.31,145.05
3620,St Germains,-36.31,145.05
3620,Taripta,-36.31,145.05
3620,Wyuna,-36.31,145.05
3620,Wyuna East,-36.31,145.05
3621,Kyvalley,-36.27,144.85
3621,Tongala,-36.27,144.85
3621,Yambuna,-36.27,144.85
3622,Koyuga,-36.16,144.77
3622,Strathallan,-36.16,144.77
3623,Carag Carag,-36.46,144.9
3623,Stanhope,-36.46,144.9
3623,Stanhope South,-36.46,144.9
3624,Girgarre,-36.44,145.07
3629,Ardmona,-36.38,145.3
3629,Coomboona,-36.38,145.3
3629,Mooroopna,-36.38,145.3
3629,Mooroopna North,-36.38,145.3
3629,Undera,-36.38,145.3
3630,Branditt,-36.36,145.4
3630,Caniambo,-36.36,145.4
3630,Colliver,-36.36,145.4
3630,Dunkirk,-36.36,145.4
3630,Shepparton,-36.36,145.4
3630,Shepparton South,-36.36,145.4
3631,Arcadia,-36.54,145.36
3631,Arcadia South,-36.54,145.36
3631,Cosgrove,-36.54,145.36
3631,Cosgrove South,-36.54,145.36
3631,Grahamvale,-36.54,145.36
3631,Karramomus,-36.54,145.36
3631,Kialla,-36.54,145.36
3631,Kialla East,-36.54,145.36
3631,Kialla West,-36.54,145.36
3631,Lemnos,-36.54,145.36
3631,Orrvale,-36.54,145.36
3631,Pine Lodge,-36.54,145.36
3631,Shepparton East,-36.54,145.36
3631,Shepparton North,-36.54,145.36
3632,Shepparton,-36.54,145.6
3633,Congupna,-36.3,145.48
3634,Bunbartha,-36.22,145.34
3634,Katandra,-36.22,145.34
3634,Katandra West,-36.22,145.34
3634,Marionvale,-36.22,145.34
3634,Marungi,-36.22,145.34
3634,Tallygaroopna,-36.22,145.34
3634,Zeerust,-36.22,145.34
3635,Kaarimba,-36.16,145.3
3635,Mundoona,-36.16,145.3
3635,Wunghnu,-36.16,145.3
3636,Drumanure,-36.14,145.5
3636,Invergordon,-36.14,145.5
3636,Naring,-36.14,145.5
3636,Numurkah,-36.14,145.5
3637,Waaia,-36.05,145.33
3637,Yalca,-36.05,145.33
3638,Kotupna,-36.15,145.17
3638,Nathalia,-36.15,145.17
3638,Yielima,-36.15,145.17
3639,Barmah,-36.02,144.97
3639,Lower Moira,-36.02,144.97
3639,Picola,-36.02,144.97
3639,Picola West,-36.02,144.97
3640,Katunga,-35.97,145.46
3641,Bearii,-35.92,145.33
3641,Mywee,-35.92,145.33
3641,Strathmerton,-35.92,145.33
3641,Ulupna,-35.92,145.33
3643,Cobram,-35.96,145.63
3644,Cobram,-35.91,145.69
3644,Cobram East,-35.91,145.69
3644,Koonoomoo,-35.91,145.69
3644,Muckatah,-35.91,145.69
3644,Yarroweyah,-35.91,145.69
3646,Dookie,-36.33,145.69
3646,Mount Major,-36.33,145.69
3646,Nalinga,-36.33,145.69
3646,Waggarandall,-36.33,145.69
3646,Yabba North,-36.33,145.69
3646,Yabba South,-36.33,145.69
3646,Youanmite,-36.33,145.69
3647,Dookie College,-36.4,145.7
3649,Katamatite,-36.08,145.69
3649,Katamatite East,-36.08,145.69
3658,Broadford,-37.2,145.05
3658,Clonbinane,-37.2,145.05
3658,Flowerdale,-37.2,145.05
3658,Hazeldene,-37.2,145.05
3658,Reedy Creek,-37.2,145.05
3658,Strath Creek,-37.2,145.05
3658,Sugarloaf Creek,-37.2,145.05
3658,Sunday Creek,-37.2,145.05
3658,Tyaak,-37.2,145.05
3658,Waterford Park,-37.2,145.05
3659,Tallarook,-37.13,145.02
3660,Caveat,-37.09,145.5
3660,Dropmore,-37.09,145.5
3660,Highlands,-37.09,145.5
3660,Hilldene,-37.09,145.5
3660,Kerrisdale,-37.09,145.5
3660,Northwood,-37.09,145.5
3660,Seymour,-37.09,145.5
3660,Seymour South,-37.09,145.5
3660,Trawool,-37.09,145.5
3660,Whiteheads Creek,-37.09,145.5
3661,Seymour,-38.2,146.54
3662,Puckapunyal,0.0,0.0
3662,Puckapunyal Milpo,0.0,0.0
3663,Mangalore,-36.94,145.16
3664,Avenel,-36.89,145.23
3664,Upton Hill,-36.89,145.23
3665,Locksley,-36.82,145.36
3665,Longwood,-36.82,145.36
3666,Balmattum,-36.71,145.64
3666,Creightons Creek,-36.71,145.64
3666,Euroa,-36.71,145.64
3666,Gooram,-36.71,145.64
3666,Kelvin View,-36.71,145.64
3666,Kithbrook,-36.71,145.64
3666,Longwood East,-36.71,145.64
3666,Miepoll,-36.71,145.64
3666,Moglonemby,-36.71,145.64
3666,Molka,-36.71,145.64
3666,Pranjip,-36.71,145.64
3666,Riggs Creek,-36.71,145.64
3666,Ruffy,-36.71,145.64
3666,Sheans Creek,-36.71,145.64
3666,Strathbogie,-36.71,145.64
3666,Tarcombe,-36.71,145.64
3669,Boho,-36.7,145.77
3669,Boho South,-36.7,145.77
3669,Creek Junction,-36.7,145.77
3669,Earlston,-36.7,145.77
3669,Gowangardie,-36.7,145.77
3669,Koonda,-36.7,145.77
3669,Marraweeney,-36.7,145.77
3669,Tamleugh,-36.7,145.77
3669,Tamleugh North,-36.7,145.77
3669,Upotipotpon,-36.7,145.77
3669,Violet Town,-36.7,145.77
3670,Baddaginnie,-36.59,145.86
3670,Tarnook,-36.59,145.86
3670,Warrenbayne,-36.59,145.86
3671,Benalla,-36.39,145.42
3672,Benalla,-36.55,145.99
3672,Benalla West,-36.55,145.99
3673,Broken Creek,-36.43,145.89
3673,Goomalibee,-36.43,145.89
3673,Lima,-36.43,145.89
3673,Lima East,-36.43,145.89
3673,Lima South,-36.43,145.89
3673,Lurg,-36.43,145.89
3673,Molyullah,-36.43,145.89
3673,Moorngag,-36.43,145.89
3673,Samaria,-36.43,145.89
3673,Swanpool,-36.43,145.89
3673,Tatong,-36.43,145.89
3673,Upper Lurg,-36.43,145.89
3673,Upper Ryans Creek,-36.43,145.89
3673,Winton,-36.43,145.89
3673,Winton North,-36.43,145.89
3675,Boweya,-36.27,146.13
3675,Boweya North,-36.27,146.13
3675,Glenrowan,-36.27,146.13
3675,Glenrowan West,-36.27,146.13
3675,Greta,-36.27,146.13
3675,Greta South,-36.27,146.13
3675,Greta West,-36.27,146.13
3675,Hansonville,-36.27,146.13
3675,Mount Bruno,-36.27,146.13
3675,Taminick,-36.27,146.13
3676,Wangaratta,-36.34,146.34
3677,Wangaratta,-36.35,146.3
3677,Wangaratta West,-36.35,146.3
3677,Yarrunga,-36.35,146.3
3678,Bobinawarrah,-36.52,146.5
3678,Boorhaman,-36.52,146.5
3678,Boorhaman East,-36.52,146.5
3678,Bowser,-36.52,146.5
3678,Byawatha,-36.52,146.5
3678,Carboor,-36.52,146.5
3678,Cheshunt,-36.52,146.5
3678,Cheshunt South,-36.52,146.5
3678,Docker,-36.52,146.5
3678,Dockers Plains,-36.52,146.5
3678,East Wangaratta,-36.52,146.5
3678,Edi,-36.52,146.5
3678,Edi Upper,-36.52,146.5
3678,Everton,-36.52,146.5
3678,Everton Upper,-36.52,146.5
3678,Killawarra,-36.52,146.5
3678,King Valley,-36.52,146.5
3678,Laceby,-36.52,146.5
3678,Londrigan,-36.52,146.5
3678,Markwood,-36.52,146.5
3678,Meadow Creek,-36.52,146.5
3678,Milawa,-36.52,146.5
3678,North Wangaratta,-36.52,146.5
3678,Oxley,-36.52,146.5
3678,Oxley Flats,-36.52,146.5
3678,Peechelba,-36.52,146.5
3678,Peechelba East,-36.52,146.5
3678,Rose River,-36.52,146.5
3678,Tarrawingee,-36.52,146.5
3678,Wabonga,-36.52,146.5
3678,Waldara,-36.52,146.5
3678,Wangandary,-36.52,146.5
3678,Wangaratta Forward,-36.52,146.5
3678,Wangaratta South,-36.52,146.5
3678,Whitlands,-36.52,146.5
3682,Boralma,-36.24,146.41
3682,Lilliput,-36.24,146.41
3682,Norong,-36.24,146.41
3682,Springhurst,-36.24,146.41
3683,Chiltern,-36.15,146.61
3683,Chiltern Valley,-36.15,146.61
3683,Cornishtown,-36.15,146.61
3685,Boorhaman North,-36.1,146.22
3685,Brimin,-36.1,146.22
3685,Browns Plains,-36.1,146.22
3685,Carlyle,-36.1,146.22
3685,Gooramadda,-36.1,146.22
3685,Great Southern,-36.1,146.22
3685,Lake Moodemere,-36.1,146.22
3685,Prentice North,-36.1,146.22
3685,Rutherglen,-36.1,146.22
3687,Wahgunyah,-36.01,146.4
3688,Barnawartha,-36.11,146.67
3688,Indigo Valley,-36.11,146.67
3689,Wodonga,-37.68,144.99
3690,West Wodonga,-36.1,146.82
3690,Wodonga,-36.1,146.82
3690,Wodonga Plaza,-36.1,146.82
3691,Allans Flat,-36.28,146.91
3691,Bandiana,-36.28,146.91
3691,Baranduda,-36.28,146.91
3691,Barnawartha North,-36.28,146.91
3691,Bellbridge,-36.28,146.91
3691,Berringama,-36.28,146.91
3691,Bethanga,-36.28,146.91
3691,Bonegilla,-36.28,146.91
3691,Bungil,-36.28,146.91
3691,Castle Creek,-36.28,146.91
3691,Coral Bank,-36.28,146.91
3691,Dederang,-36.28,146.91
3691,Ebden,-36.28,146.91
3691,Gateway Island,-36.28,146.91
3691,Glen Creek,-36.28,146.91
3691,Gundowring,-36.28,146.91
3691,Huon Creek,-36.28,146.91
3691,Kancoona,-36.28,146.91
3691,Kergunyah,-36.28,146.91
3691,Kergunyah South,-36.28,146.91
3691,Kiewa,-36.28,146.91
3691,Killara,-36.28,146.91
3691,Leneva,-36.28,146.91
3691,Lucyvale,-36.28,146.91
3691,Mongans Bridge,-36.28,146.91
3691,Osbornes Flat,-36.28,146.91
3691,Running Creek,-36.28,146.91
3691,Staghorn Flat,-36.28,146.91
3691,Talgarno,-36.28,146.91
3691,Tangambalanga,-36.28,146.91
3691,Thologolong,-36.28,146.91
3691,Upper Gundowring,-36.28,146.91
3691,Wodonga Forward,-36.28,146.91
3694,Bandiana Milpo,-36.14,146.92
3695,Charleroi,-36.3,147.14
3695,Huon,-36.3,147.14
3695,Sandy Creek,-36.3,147.14
3697,Tawonga,-36.67,147.21
3698,Tawonga South,0.0,0.0
3699,Bogong,-36.81,147.22
3699,Falls Creek,-36.81,147.22
3699,Mount Beauty,-36.81,147.22
3699,Nelse,-36.81,147.22
3700,Bullioh,-36.18,147.34
3700,Georges Creek,-36.18,147.34
3700,Jarvis Creek,-36.18,147.34
3700,Tallangatta,-36.18,147.34
3700,Tallangatta East,-36.18,147.34
3701,Dartmouth,-36.53,147.5
3701,Eskdale,-36.53,147.5
3701,Granya,-36.53,147.5
3701,Mitta Mitta,-36.53,147.5
3701,Old Tallangatta,-36.53,147.5
3701,Shelley,-36.53,147.5
3701,Tallandoon,-36.53,147.5
3701,Tallangatta South,-36.53,147.5
3701,Tallangatta Valley,-36.53,147.5
3704,Koetong,-36.1,147.54
3705,Cudgewa,-36.19,147.77
3707,Biggara,-36.28,148.03
3707,Colac Colac,-36.28,148.03
3707,Corryong,-36.28,148.03
3707,Nariel Valley,-36.28,148.03
3707,Thowgla Valley,-36.28,148.03
3707,Tom Groggin,-36.28,148.03
3707,Towong,-36.28,148.03
3707,Towong Upper,-36.28,148.03
3708,Tintaldra,-36.05,147.93
3709,Burrowye,-36.05,147.56
3709,Guys Forest,-36.05,147.56
3709,Mount Alfred,-36.05,147.56
3709,Pine Mountain,-36.05,147.56
3709,Walwa,-36.05,147.56
3711,Buxton,-37.42,145.71
3712,Rubicon,-37.33,145.86
3712,Thornton,-37.33,145.86
3713,Eildon,-37.23,145.91
3713,Lake Eildon,-37.23,145.91
3713,Taylor Bay,-37.23,145.91
3714,Acheron,-37.25,145.7
3714,Alexandra,-37.25,145.7
3714,Cathkin,-37.25,145.7
3714,Crystal Creek,-37.25,145.7
3714,Devils River,-37.25,145.7
3714,Fawcett,-37.25,145.7
3714,Koriella,-37.25,145.7
3714,Maintongoon,-37.25,145.7
3714,Taggerty,-37.25,145.7
3714,Whanregarwen,-37.25,145.7
3715,Ancona,-36.97,145.79
3715,Merton,-36.97,145.79
3715,Woodfield,-36.97,145.79
3717,Flowerdale,-37.34,145.29
3717,Ghin Ghin,-37.34,145.29
3717,Glenburn,-37.34,145.29
3717,Homewood,-37.34,145.29
3717,Killingworth,-37.34,145.29
3717,Limestone,-37.34,145.29
3717,Murrindindi,-37.34,145.29
3717,Yea,-37.34,145.29
3718,Molesworth,-37.13,145.53
3719,Gobur,-37.01,145.62
3719,Kanumbra,-37.01,145.62
3719,Terip Terip,-37.01,145.62
3719,Yarck,-37.01,145.62
3720,Bonnie Doon,-37.02,145.86
3722,Barwite,-37.01,146.22
3722,Mansfield,-37.01,146.22
3722,Mirimbah,-37.01,146.22
3723,Archerton,-36.89,146.26
3723,Barjarg,-36.89,146.26
3723,Boorolite,-36.89,146.26
3723,Bridge Creek,-36.89,146.26
3723,Delatite,-36.89,146.26
3723,Enochs Point,-36.89,146.26
3723,Gaffneys Creek,-36.89,146.26
3723,Goughs Bay,-36.89,146.26
3723,Howes Creek,-36.89,146.26
3723,Howqua,-36.89,146.26
3723,Howqua Hills,-36.89,146.26
3723,Howqua Inlet,-36.89,146.26
3723,Jamieson,-36.89,146.26
3723,Kevington,-36.89,146.26
3723,Knockwood,-36.89,146.26
3723,Macs Cove,-36.89,146.26
3723,Maindample,-36.89,146.26
3723,Matlock,-36.89,146.26
3723,Merrijig,-36.89,146.26
3723,Mount Buller,-36.89,146.26
3723,Mountain Bay,-36.89,146.26
3723,Piries,-36.89,146.26
3723,Sawmill Settlement,-36.89,146.26
3723,Tolmie,-36.89,146.26
3723,Woods Point,-36.89,146.26
3724,Mansfield,-37.05,146.08
3725,Boxwood,-36.32,145.8
3725,Chesney Vale,-36.32,145.8
3725,Goorambat,-36.32,145.8
3725,Major Plains,-36.32,145.8
3725,Stewarton,-36.32,145.8
3726,Bungeet,-36.28,146.06
3726,Bungeet West,-36.28,146.06
3726,Devenish,-36.28,146.06
3726,Thoona,-36.28,146.06
3727,Almonds,-36.23,146.06
3727,Lake Rowan,-36.23,146.06
3727,Pelluebla,-36.23,146.06
3727,St James,-36.23,146.06
3727,Yundool,-36.23,146.06
3728,Boomahnoomoonah,-36.1,146.08
3728,Tungamah,-36.1,146.08
3728,Wilby,-36.1,146.08
3728,Youarang,-36.1,146.08
3730,Bathumi,-36.03,146.08
3730,Boosey,-36.03,146.08
3730,Bundalong,-36.03,146.08
3730,Bundalong South,-36.03,146.08
3730,Burramine,-36.03,146.08
3730,Burramine South,-36.03,146.08
3730,Esmond,-36.03,146.08
3730,Telford,-36.03,146.08
3730,Yarrawonga,-36.03,146.08
3730,Yarrawonga South,-36.03,146.08
3732,Moyhu,-36.58,146.38
3732,Myrrhee,-36.58,146.38
3733,Whitfield,-36.75,146.41
3735,Bowmans Forest,-36.52,146.58
3735,Whorouly,-36.52,146.58
3735,Whorouly East,-36.52,146.58
3735,Whorouly South,-36.52,146.58
3736,Myrtleford,-36.46,146.48
3737,Abbeyard,-36.98,146.78
3737,Barwidgee,-36.98,146.78
3737,Buffalo River,-36.98,146.78
3737,Dandongadale,-36.98,146.78
3737,Gapsted,-36.98,146.78
3737,Havilah,-36.98,146.78
3737,Merriang,-36.98,146.78
3737,Merriang South,-36.98,146.78
3737,Mudgegonga,-36.98,146.78
3737,Myrtleford,-36.98,146.78
3737,Nug Nug,-36.98,146.78
3737,Rosewhite,-36.98,146.78
3737,Selwyn,-36.98,146.78
3737,Wonnangatta,-36.98,146.78
3738,Ovens,-36.61,146.79
3739,Eurobin,-36.7,146.85
3740,Buckland,-36.82,146.85
3740,Mount Buffalo,-36.82,146.85
3740,Porepunkah,-36.82,146.85
3741,Bright,-36.73,146.96
3741,Freeburgh,-36.73,146.96
3741,Germantown,-36.73,146.96
3741,Harrietville,-36.73,146.96
3741,Hotham Heights,-36.73,146.96
3741,Mount Hotham,-36.73,146.96
3741,Smoko,-36.73,146.96
3744,Wandiligong,-36.75,146.98
3746,Eldorado,-36.3,146.58
3747,Beechworth,-36.36,146.69
3747,Murmungee,-36.36,146.69
3747,Stanley,-36.36,146.69
3747,Woolshed,-36.36,146.69
3747,Wooragee,-36.36,146.69
3749,Bruarong,-36.41,146.86
3749,Yackandandah,-36.41,146.86
3750,Wollert,-38.38,144.81
3751,Woodstock,-37.69,144.89
3752,Morang South,-37.65,145.1
3752,South Morang,-37.65,145.1
3753,Beveridge,-37.47,145.0
3754,Doreen,-37.62,145.15
3754,Mernda,-37.62,145.15
3755,Yan Yean,-37.57,145.14
3756,Chintin,-37.4,144.8
3756,Darraweit Guim,-37.4,144.8
3756,Upper Plenty,-37.4,144.8
3756,Wallan,-37.4,144.8
3757,Eden Park,-37.45,145.11
3757,Humevale,-37.45,145.11
3757,Kinglake Central,-37.45,145.11
3757,Kinglake West,-37.45,145.11
3757,Pheasant Creek,-37.45,145.11
3757,Whittlesea,-37.45,145.11
3758,Heathcote Junction,-37.38,145.03
3758,Wandong,-37.38,145.03
3759,Panton Hill,-37.64,145.24
3760,Smiths Gully,-37.62,145.29
3761,St Andrews,0.0,0.0
3762,Bylands,0.0,0.0
3763,Kinglake,-37.48,145.28
3764,Forbes,-37.31,144.89
3764,Glenaroua,-37.31,144.89
3764,High Camp,-37.31,144.89
3764,Kilmore,-37.31,144.89
3764,Kilmore East,-37.31,144.89
3764,Moranding,-37.31,144.89
3764,Tantaraboo,-37.31,144.89
3764,Willowmavin,-37.31,144.89
3765,Montrose,-37.81,145.34
3766,Kalorama,-37.82,145.37
3767,Mount Dandenong,-37.84,145.36
3770,Coldstream,-37.72,145.38
3770,Gruyere,-37.72,145.38
3770,Yering,-37.72,145.38
3775,Christmas Hills,-37.65,145.32
3775,Dixons Creek,-37.65,145.32
3775,Steels Creek,-37.65,145.32
3775,Tarrawarra,-37.65,145.32
3775,Yarra Glen,-37.65,145.32
3777,Badger Creek,-37.69,145.54
3777,Castella,-37.69,145.54
3777,Chum Creek,-37.69,145.54
3777,Healesville,-37.69,145.54
3777,Healesville Main Street,-37.69,145.54
3777,Healesville Post Shop,-37.69,145.54
3777,Mount Toolebewong,-37.69,145.54
3777,Toolangi,-37.69,145.54
3778,Fernshaw,-37.63,145.7
3778,Narbethong,-37.63,145.7
3779,Cambarville,-37.56,145.89
3779,Marysville,-37.56,145.89
3781,Cockatoo,-37.94,145.49
3781,Mount Burnett,-37.94,145.49
3781,Nangana,-37.94,145.49
3782,Avonsleigh,-37.92,145.47
3782,Clematis,-37.92,145.47
3782,Emerald,-37.92,145.47
3782,Macclesfield,-37.92,145.47
3783,Gembrook,-37.95,145.55
3785,Tremont,-38.27,144.49
3786,Ferny Creek,-37.88,145.34
3787,Sassafras,-37.88,145.37
3787,Sassafras Gully,-37.88,145.37
3788,Olinda,-37.86,145.36
3789,Sherbrooke,-37.88,145.36
3791,Kallista,-37.9,145.41
3792,The Patch,-37.89,145.39
3793,Monbulk,-37.87,145.41
3795,Silvan,-37.84,145.41
3796,Mount Evelyn,-37.79,145.38
3797,Gilderoy,-37.86,145.71
3797,Gladysdale,-37.86,145.71
3797,Powelltown,-37.86,145.71
3797,Three Bridges,-37.86,145.71
3797,Yarra Junction,-37.86,145.71
3799,Big Pats Creek,-37.76,145.75
3799,East Warburton,-37.76,145.75
3799,Mcmahons Creek,-37.76,145.75
3799,Millgrove,-37.76,145.75
3799,Reefton,-37.76,145.75
3799,Warburton,-37.76,145.75
3799,Wesburn,-37.76,145.75
3800,Monash University,-37.91,145.13
3802,Endeavour Hills,-37.98,145.25
3803,Hallam,-38.0,145.27
3804,Narre Warren East,-37.97,145.36
3804,Narre Warren North,-37.97,145.36
3805,Fountain Gate,-38.02,145.3
3805,Narre Warren,-38.02,145.3
3805,Narre Warren South,-38.02,145.3
3806,Berwick,-38.03,145.34
3806,Harkaway,-38.03,145.34
3807,Beaconsfield,-38.05,145.37
3807,Guys Hill,-38.05,145.37
3808,Beaconsfield Upper,-38.0,145.41
3808,Dewhurst,-38.0,145.41
3809,Officer,-38.06,145.41
3809,Officer South,-38.06,145.41
3810,Pakenham,-38.08,145.49
3810,Pakenham South,-38.08,145.49
3810,Pakenham Upper,-38.08,145.49
3810,Rythdale,-38.08,145.49
3812,Maryknoll,-38.04,145.61
3812,Nar Nar Goon,-38.04,145.61
3812,Nar Nar Goon North,-38.04,145.61
3813,Tynong,-38.09,145.63
3813,Tynong North,-38.09,145.63
3814,Cora Lynn,-38.15,145.61
3814,Garfield,-38.15,145.61
3814,Garfield North,-38.15,145.61
3814,Vervale,-38.15,145.61
3815,Bunyip,-38.1,145.72
3815,Bunyip North,-38.1,145.72
3815,Iona,-38.1,145.72
3815,Tonimbuk,-38.1,145.72
3816,Labertouche,-38.05,145.83
3816,Longwarry,-38.05,145.83
3816,Longwarry North,-38.05,145.83
3816,Modella,-38.05,145.83
3818,Athlone,-38.24,145.78
3818,Drouin,-38.24,145.78
3818,Drouin East,-38.24,145.78
3818,Drouin South,-38.24,145.78
3818,Drouin West,-38.24,145.78
3818,Hallora,-38.24,145.78
3818,Jindivick,-38.24,145.78
3818,Ripplebrook,-38.24,145.78
3820,Bona Vista,-38.21,145.96
3820,Lillico,-38.21,145.96
3820,Warragul,-38.21,145.96
3821,Brandy Creek,-38.1,145.92
3821,Bravington,-38.1,145.92
3821,Buln Buln,-38.1,145.92
3821,Buln Buln East,-38.1,145.92
3821,Crossover,-38.1,145.92
3821,Ellinbank,-38.1,145.92
3821,Ferndale,-38.1,145.92
3821,Lardner,-38.1,145.92
3821,Nilma,-38.1,145.92
3821,Nilma North,-38.1,145.92
3821,Rokeby,-38.1,145.92
3821,Seaview,-38.1,145.92
3821,Shady Creek,-38.1,145.92
3821,Tetoora Road,-38.1,145.92
3821,Torwood,-38.1,145.92
3821,Warragul South,-38.1,145.92
3821,Warragul West,-38.1,145.92
3822,Cloverlea,-38.24,146.0
3822,Darnum,-38.24,146.0
3822,Gainsborough,-38.24,146.0
3823,Allambee,-38.26,146.03
3823,Yarragon,-38.26,146.03
3823,Yarragon South,-38.26,146.03
3824,Childers,-38.3,146.11
3824,Narracan,-38.3,146.11
3824,Thorpdale South,-38.3,146.11
3824,Trafalgar,-38.3,146.11
3824,Trafalgar East,-38.3,146.11
3824,Trafalgar South,-38.3,146.11
3825,Aberfeldy,-37.7,146.36
3825,Amor,-37.7,146.36
3825,Boola,-37.7,146.36
3825,Caringal,-37.7,146.36
3825,Coalville,-37.7,146.36
3825,Coopers Creek,-37.7,146.36
3825,Erica,-37.7,146.36
3825,Fumina,-37.7,146.36
3825,Fumina South,-37.7,146.36
3825,Hernes Oak,-37.7,146.36
3825,Hill End,-37.7,146.36
3825,Jacob Creek,-37.7,146.36
3825,Jericho,-37.7,146.36
3825,Moe,-37.7,146.36
3825,Moe South,-37.7,146.36
3825,Moondarra,-37.7,146.36
3825,Newborough,-37.7,146.36
3825,Newborough East,-37.7,146.36
3825,Rawson,-37.7,146.36
3825,Tanjil,-37.7,146.36
3825,Tanjil South,-37.7,146.36
3825,Thalloo,-37.7,146.36
3825,Thomson,-37.7,146.36
3825,Toombon,-37.7,146.36
3825,Walhalla,-37.7,146.36
3825,Walhalla East,-37.7,146.36
3825,Westbury,-37.7,146.36
3825,Willow Grove,-37.7,146.36
3825,Yallourn,-37.7,146.36
3825,Yallourn North,-37.7,146.36
3831,Neerim,-37.96,145.99
3831,Neerim East,-37.96,145.99
3831,Neerim South,-37.96,145.99
3832,Nayook,-37.91,145.93
3832,Neerim Junction,-37.91,145.93
3832,Neerim North,-37.91,145.93
3833,Ada,-37.84,145.85
3833,Baw Baw,-37.84,145.85
3833,Baw Baw Village,-37.84,145.85
3833,Gentle Annie,-37.84,145.85
3833,Icy Creek,-37.84,145.85
3833,Loch Valley,-37.84,145.85
3833,Noojee,-37.84,145.85
3833,Piedmont,-37.84,145.85
3833,Tanjil Bren,-37.84,145.85
3833,Toorongo,-37.84,145.85
3833,Vesper,-37.84,145.85
3835,Thorpdale,-38.33,146.12
3840,Driffield,-38.28,146.32
3840,Hazelwood,-38.28,146.32
3840,Hazelwood North,-38.28,146.32
3840,Hazelwood South,-38.28,146.32
3840,Jeeralang,-38.28,146.32
3840,Jeeralang Junction,-38.28,146.32
3840,Maryvale,-38.28,146.32
3840,Mid Valley,-38.28,146.32
3840,Morwell,-38.28,146.32
3840,Morwell East,-38.28,146.32
3840,Morwell Upper,-38.28,146.32
3841,Gippsland MC,0.0,0.0
3842,Churchill,-38.32,146.42
3844,Blackwarry,-38.41,146.64
3844,Callignee,-38.41,146.64
3844,Callignee North,-38.41,146.64
3844,Callignee South,-38.41,146.64
3844,Carrajung,-38.41,146.64
3844,Carrajung Lower,-38.41,146.64
3844,Carrajung South,-38.41,146.64
3844,Flynn,-38.41,146.64
3844,Flynns Creek,-38.41,146.64
3844,Koornalla,-38.41,146.64
3844,Loy Yang,-38.41,146.64
3844,Mount Tassie,-38.41,146.64
3844,Traralgon,-38.41,146.64
3844,Traralgon East,-38.41,146.64
3844,Traralgon South,-38.41,146.64
3844,Tyers,-38.41,146.64
3847,Hiamdale,-38.26,146.75
3847,Nambrok,-38.26,146.75
3847,Rosedale,-38.26,146.75
3847,Willung,-38.26,146.75
3847,Willung South,-38.26,146.75
3850,Sale,-38.42,147.08
3850,Sale North,-38.42,147.08
3850,Wurruk,-38.42,147.08
3851,Airly,-38.04,147.08
3851,Bundalaguah,-38.04,147.08
3851,Clydebank,-38.04,147.08
3851,Cobains,-38.04,147.08
3851,Darriman,-38.04,147.08
3851,Dutson,-38.04,147.08
3851,Dutson Downs,-38.04,147.08
3851,Flamingo Beach,-38.04,147.08
3851,Fulham,-38.04,147.08
3851,Giffard,-38.04,147.08
3851,Giffard West,-38.04,147.08
3851,Glomar Beach,-38.04,147.08
3851,Golden Beach,-38.04,147.08
3851,Kilmany,-38.04,147.08
3851,Lake Wellington,-38.04,147.08
3851,Loch Sport,-38.04,147.08
3851,Longford,-38.04,147.08
3851,Montgomery,-38.04,147.08
3851,Myrtlebank,-38.04,147.08
3851,Paradise Beach,-38.04,147.08
3851,Pearsondale,-38.04,147.08
3851,Seacombe,-38.04,147.08
3851,Seaspray,-38.04,147.08
3851,Somerton Park,-38.04,147.08
3851,Stradbroke,-38.04,147.08
3851,The Heart,-38.04,147.08
3851,The Honeysuckles,-38.04,147.08
3852,East Sale,-38.11,147.13
3852,Sale East Raaf,-38.11,147.13
3853,Sale,-38.1,146.06
3854,Glengarry,-38.12,146.57
3854,Glengarry North,-38.12,146.57
3854,Glengarry West,-38.12,146.57
3856,Toongabbie,-38.07,146.67
3857,Cowwarr,-38.0,146.69
3858,Arbuckle,-37.97,146.69
3858,Billabong,-37.97,146.69
3858,Buragwonduc,-37.97,146.69
3858,Crookayan,-37.97,146.69
3858,Dawson,-37.97,146.69
3858,Denison,-37.97,146.69
3858,Gillum,-37.97,146.69
3858,Glenfalloch,-37.97,146.69
3858,Glenmaggie,-37.97,146.69
3858,Heyfield,-37.97,146.69
3858,Howitt Plains,-37.97,146.69
3858,Licola,-37.97,146.69
3858,Licola North,-37.97,146.69
3858,Reynard,-37.97,146.69
3858,Sargood,-37.97,146.69
3858,Seaton,-37.97,146.69
3858,Tamboritha,-37.97,146.69
3858,Winnindoo,-37.97,146.69
3858,Worrowing,-37.97,146.69
3858,Yangoura,-37.97,146.69
3859,Maffra West Upper,-37.89,146.85
3859,Newry,-37.89,146.85
3859,Tinamba,-37.89,146.85
3859,Tinamba West,-37.89,146.85
3860,Boisdale,-37.88,146.99
3860,Briagolong,-37.88,146.99
3860,Bushy Park,-37.88,146.99
3860,Coongulla,-37.88,146.99
3860,Koorool,-37.88,146.99
3860,Maffra,-37.88,146.99
3860,Monomak,-37.88,146.99
3860,Moroka,-37.88,146.99
3860,Nap Nap Marra,-37.88,146.99
3860,Riverslea,-37.88,146.99
3860,Toolome,-37.88,146.99
3860,Valencia Creek,-37.88,146.99
3860,Woolenook,-37.88,146.99
3860,Wrathung,-37.88,146.99
3860,Wrixon,-37.88,146.99
3862,Budgee Budgee,-37.57,147.19
3862,Cobbannah,-37.57,147.19
3862,Cowa,-37.57,147.19
3862,Crooked River,-37.57,147.19
3862,Dargo,-37.57,147.19
3862,Hawkhurst,-37.57,147.19
3862,Hollands Landing,-37.57,147.19
3862,Llowalong,-37.57,147.19
3862,Meerlieu,-37.57,147.19
3862,Miowera,-37.57,147.19
3862,Moornapa,-37.57,147.19
3862,Munro,-37.57,147.19
3862,Perry Bridge,-37.57,147.19
3862,Stockdale,-37.57,147.19
3862,Stratford,-37.57,147.19
3862,Waterford,-37.57,147.19
3862,Wongungarra,-37.57,147.19
3864,Fernbank,-37.86,147.34
3864,Glenaladale,-37.86,147.34
3864,The Fingerboard,-37.86,147.34
3865,Lindenow,-37.8,147.46
3869,Jumbuk,-38.4,146.42
3869,Yinnar,-38.4,146.42
3869,Yinnar South,-38.4,146.42
3870,Boolarra,-38.38,146.28
3870,Boolarra South,-38.38,146.28
3870,Budgeree,-38.38,146.28
3870,Grand Ridge,-38.38,146.28
3870,Johnstones Hill,-38.38,146.28
3871,Allambee Reserve,-38.29,146.05
3871,Allambee South,-38.29,146.05
3871,Baromi,-38.29,146.05
3871,Darlimurla,-38.29,146.05
3871,Delburn,-38.29,146.05
3871,Dollar,-38.29,146.05
3871,Mirboo,-38.29,146.05
3871,Mirboo North,-38.29,146.05
3873,Gormandale,-38.29,146.72
3874,Cherrilong,-38.38,146.79
3874,Mcloughlins Beach,-38.38,146.79
3874,Woodside,-38.38,146.79
3874,Woodside Beach,-38.38,146.79
3874,Woodside North,-38.38,146.79
3875,Bairnsdale,-37.83,147.63
3875,Banksia Peninsula,-37.83,147.63
3875,Bengworden,-37.83,147.63
3875,Broadlands,-37.83,147.63
3875,Bullumwaal,-37.83,147.63
3875,Calulu,-37.83,147.63
3875,Clifton Creek,-37.83,147.63
3875,Deptford,-37.83,147.63
3875,East Bairnsdale,-37.83,147.63
3875,Ellaswood,-37.83,147.63
3875,Fairy Dell,-37.83,147.63
3875,Flaggy Creek,-37.83,147.63
3875,Forge Creek,-37.83,147.63
3875,Goon Nure,-37.83,147.63
3875,Granite Rock,-37.83,147.63
3875,Hillside,-37.83,147.63
3875,Iguana Creek,-37.83,147.63
3875,Lindenow South,-37.83,147.63
3875,Lucknow,-37.83,147.63
3875,Marthavale,-37.83,147.63
3875,Melwood,-37.83,147.63
3875,Merrijig,-37.83,147.63
3875,Mount Taylor,-37.83,147.63
3875,Newlands Arm,-37.83,147.63
3875,Ryans,-37.83,147.63
3875,Sarsfield,-37.83,147.63
3875,Tabberabbera,-37.83,147.63
3875,Walpa,-37.83,147.63
3875,Waterholes,-37.83,147.63
3875,Wentworth,-37.83,147.63
3875,Woodglen,-37.83,147.63
3875,Wuk Wuk,-37.83,147.63
3875,Wy Yung,-37.83,147.63
3878,Eagle Point,-37.89,147.67
3880,Boole Poole,-37.92,147.69
3880,Ocean Grange,-37.92,147.69
3880,Paynesville,-37.92,147.69
3880,Raymond Island,-37.92,147.69
3882,Nicholson,-37.82,147.73
3885,Brumby,-37.71,147.83
3885,Bruthen,-37.71,147.83
3885,Buchan,-37.71,147.83
3885,Buchan South,-37.71,147.83
3885,Butchers Ridge,-37.71,147.83
3885,Gelantipy,-37.71,147.83
3885,Mossiface,-37.71,147.83
3885,Murrindal,-37.71,147.83
3885,Suggan Buggan,-37.71,147.83
3885,Tambo Upper,-37.71,147.83
3885,Timbarra,-37.71,147.83
3885,W Tree,-37.71,147.83
3885,Wiseleigh,-37.71,147.83
3885,Wulgulmerang,-37.71,147.83
3885,Wulgulmerang East,-37.71,147.83
3885,Wulgulmerang West,-37.71,147.83
3885,Yalmy,-37.71,147.83
3886,Newmerella,-37.74,148.43
3887,Lake Tyers,-37.84,148.12
3887,Nowa Nowa,-37.84,148.12
3887,Wairewa,-37.84,148.12
3888,Bendoc,-37.15,148.88
3888,Bete Bolong,-37.15,148.88
3888,Bete Bolong North,-37.15,148.88
3888,Bonang,-37.15,148.88
3888,Brodribb River,-37.15,148.88
3888,Cabanandra,-37.15,148.88
3888,Cape Conran,-37.15,148.88
3888,Corringle,-37.15,148.88
3888,Deddick Valley,-37.15,148.88
3888,Goongerah,-37.15,148.88
3888,Haydens Bog,-37.15,148.88
3888,Jarrahmond,-37.15,148.88
3888,Marlo,-37.15,148.88
3888,Martins Creek,-37.15,148.88
3888,Nurran,-37.15,148.88
3888,Orbost,-37.15,148.88
3888,Simpsons Creek,-37.15,148.88
3888,Tostaree,-37.15,148.88
3888,Tubbut,-37.15,148.88
3888,Waygara,-37.15,148.88
3888,Wombat Creek,-37.15,148.88
3889,Bellbird Creek,-37.93,145.91
3889,Bemm River,-37.93,145.91
3889,Cabbage Tree Creek,-37.93,145.91
3889,Club Terrace,-37.93,145.91
3889,Combienbar,-37.93,145.91
3889,Errinundra,-37.93,145.91
3889,Manorina,-37.93,145.91
3890,Buldah,-37.27,149.14
3890,Cann River,-37.27,149.14
3890,Chandlers Creek,-37.27,149.14
3890,Noorinbee,-37.27,149.14
3890,Noorinbee North,-37.27,149.14
3890,Tamboon,-37.27,149.14
3890,Tonghi Creek,-37.27,149.14
3891,Genoa,-37.48,149.59
3891,Gipsy Point,-37.48,149.59
3891,Maramingo Creek,-37.48,149.59
3891,Wallagaraugh,-37.48,149.59
3891,Wangarabell,-37.48,149.59
3891,Wingan River,-37.48,149.59
3891,Wroxham,-37.48,149.59
3892,Mallacoota,-37.55,149.73
3893,Double Bridges,-37.59,147.89
3893,Stirling,-37.59,147.89
3893,Tambo Crossing,-37.59,147.89
3895,Doctors Flat,-37.3,147.75
3895,Ensay,-37.3,147.75
3895,Ensay North,-37.3,147.75
3895,Reedy Flat,-37.3,147.75
3896,Bindi,-37.11,147.81
3896,Brookville,-37.11,147.81
3896,Nunniong,-37.11,147.81
3896,Swifts Creek,-37.11,147.81
3896,Tongio,-37.11,147.81
3898,Anglers Rest,-37.02,147.47
3898,Bingo Munjie,-37.02,147.47
3898,Bundara,-37.02,147.47
3898,Cassilis,-37.02,147.47
3898,Cobungra,-37.02,147.47
3898,Dinner Plain,-37.02,147.47
3898,Glen Valley,-37.02,147.47
3898,Glen Wills,-37.02,147.47
3898,Hinnomunjie,-37.02,147.47
3898,Omeo,-37.02,147.47
3898,Omeo Valley,-37.02,147.47
3898,Shannonvale,-37.02,147.47
3900,Benambra,-36.95,147.7
3900,Cobberas,-36.95,147.7
3902,Bumberrah,-37.79,147.83
3902,Johnsonville,-37.79,147.83
3903,Swan Reach,-37.81,147.84
3904,Metung,-37.87,147.85
3909,Kalimna,-37.86,147.92
3909,Kalimna West,-37.86,147.92
3909,Lake Bunga,-37.86,147.92
3909,Lake Tyers Beach,-37.86,147.92
3909,Lakes Entrance,-37.86,147.92
3909,Nungurner,-37.86,147.92
3909,Nyerimilang,-37.86,147.92
3909,Toorloo Arm,-37.86,147.92
3910,Langwarrin,-38.15,145.19
3911,Baxter,-38.2,145.16
3911,Langwarrin South,-38.2,145.16
3912,Pearcedale,-38.2,145.23
3912,Somerville,-38.2,145.23
3913,Tyabb,-38.26,145.19
3915,Hastings,-38.31,145.19
3915,Tuerong,-38.31,145.19
3916,Merricks,-38.39,145.09
3916,Point Leo,-38.39,145.09
3916,Shoreham,-38.39,145.09
3918,Bittern,-38.34,145.18
3919,Crib Point,-38.37,145.2
3920,Hmas Cerberus,0.0,0.0
3921,French Island,-38.34,145.34
3922,Cowes,-38.45,145.24
3922,Silverleaves,-38.45,145.24
3922,Smiths Beach,-38.45,145.24
3922,Summerlands,-38.45,145.24
3922,Sunderland Bay,-38.45,145.24
3922,Sunset Strip,-38.45,145.24
3922,Surf Beach,-38.45,145.24
3922,Ventnor,-38.45,145.24
3922,Wimbledon Heights,-38.45,145.24
3923,Rhyll,-38.46,145.31
3925,Cape Woolamai,-38.54,145.34
3925,Churchill Island,-38.54,145.34
3925,Newhaven,-38.54,145.34
3925,San Remo,-38.54,145.34
3926,Balnarring,-38.37,145.13
3926,Balnarring Beach,-38.37,145.13
3926,Merricks Beach,-38.37,145.13
3926,Merricks North,-38.37,145.13
3927,Somers,-38.38,145.15
3928,Main Ridge,-38.4,144.97
3929,Flinders,-38.47,145.02
3930,Kunyung,-38.19,145.08
3930,Mount Eliza,-38.19,145.08
3931,Mornington,-38.24,145.06
3933,Moorooduc,-38.24,145.09
3934,Mount Martha,-38.3,144.99
3936,Arthurs Seat,-38.35,144.95
3936,Dromana,-38.35,144.95
3936,Safety Beach,-38.35,144.95
3937,Red Hill,-38.37,145.01
3937,Red Hill South,-38.37,145.01
3938,Mccrae,-37.99,145.22
3939,Boneo,-38.4,144.9
3939,Cape Schanck,-38.4,144.9
3939,Fingal,-38.4,144.9
3939,Rosebud,-38.4,144.9
3939,Rosebud Plaza,-38.4,144.9
3940,Rosebud West,0.0,0.0
3941,Rye,-38.37,144.82
3941,St Andrews Beach,-38.37,144.82
3941,Tootgarook,-38.37,144.82
3942,Blairgowrie,-38.36,144.77
3943,Sorrento,-38.34,144.74
3944,Portsea,-38.34,144.71
3945,Jeetho,-37.97,145.16
3945,Krowera,-37.97,145.16
3945,Loch,-37.97,145.16
3945,Woodleigh,-37.97,145.16
3946,Bena,-38.43,145.72
3950,Kardella South,-38.45,145.88
3950,Korumburra,-38.45,145.88
3950,Korumburra South,-38.45,145.88
3950,Strzelecki,-38.45,145.88
3950,Whitelaw,-38.45,145.88
3951,Arawata,-38.39,145.89
3951,Fairbank,-38.39,145.89
3951,Jumbunna,-38.39,145.89
3951,Kardella,-38.39,145.89
3951,Kongwak,-38.39,145.89
3951,Moyarra,-38.39,145.89
3951,Outtrim,-38.39,145.89
3951,Ranceby,-38.39,145.89
3953,Berrys Creek,-38.41,146.07
3953,Boorool,-38.41,146.07
3953,Hallston,-38.41,146.07
3953,Koorooman,-38.41,146.07
3953,Leongatha,-38.41,146.07
3953,Leongatha North,-38.41,146.07
3953,Leongatha South,-38.41,146.07
3953,Mardan,-38.41,146.07
3953,Mount Eccles,-38.41,146.07
3953,Mount Eccles South,-38.41,146.07
3953,Nerrena,-38.41,146.07
3953,Ruby,-38.41,146.07
3953,Trida,-38.41,146.07
3953,Wild Dog Valley,-38.41,146.07
3954,Koonwarra,-38.55,145.95
3956,Dumbalk,-38.53,146.1
3956,Dumbalk North,-38.53,146.1
3956,Meeniyan,-38.53,146.1
3956,Middle Tarwin,-38.53,146.1
3956,Tarwin,-38.53,146.1
3956,Tarwin Lower,-38.53,146.1
3956,Venus Bay,-38.53,146.1
3956,Walkerville,-38.53,146.1
3956,Walkerville South,-38.53,146.1
3957,Stony Creek,-37.94,145.27
3958,Buffalo,-38.64,146.07
3959,Fish Creek,-38.69,146.08
3959,Sandy Point,-38.69,146.08
3959,Waratah Bay,-38.69,146.08
3960,Bennison,-38.67,146.27
3960,Boolarong,-38.67,146.27
3960,Foster,-38.67,146.27
3960,Foster North,-38.67,146.27
3960,Gunyah,-38.67,146.27
3960,Mount Best,-38.67,146.27
3960,Shallow Inlet,-38.67,146.27
3960,Tidal River,-38.67,146.27
3960,Turtons Creek,-38.67,146.27
3960,Wilsons Promontory,-38.67,146.27
3960,Wonga,-38.67,146.27
3960,Woorarra West,-38.67,146.27
3960,Yanakie,-38.67,146.27
3962,Agnes,-38.67,146.4
3962,Toora,-38.67,146.4
3962,Toora North,-38.67,146.4
3962,Wonyip,-38.67,146.4
3962,Woorarra East,-38.67,146.4
3964,Port Franklin,-38.68,146.27
3965,Port Welshpool,-38.69,146.45
3966,Binginwarri,-38.58,146.45
3966,Hazel Park,-38.58,146.45
3966,Welshpool,-38.58,146.45
3967,Hedley,-37.69,144.96
3971,Alberton,-38.61,146.67
3971,Alberton West,-38.61,146.67
3971,Balook,-38.61,146.67
3971,Calrossie,-38.61,146.67
3971,Devon North,-38.61,146.67
3971,Gelliondale,-38.61,146.67
3971,Hiawatha,-38.61,146.67
3971,Hunterston,-38.61,146.67
3971,Jack River,-38.61,146.67
3971,Langsborough,-38.61,146.67
3971,Macks Creek,-38.61,146.67
3971,Madalya,-38.61,146.67
3971,Manns Beach,-38.61,146.67
3971,Port Albert,-38.61,146.67
3971,Robertsons Beach,-38.61,146.67
3971,Snake Island,-38.61,146.67
3971,Staceys Bridge,-38.61,146.67
3971,Tarra Valley,-38.61,146.67
3971,Tarraville,-38.61,146.67
3971,Won Wron,-38.61,146.67
3971,Yarram,-38.61,146.67
3975,Lynbrook,-38.05,145.26
3975,Lyndhurst,-38.05,145.26
3976,Hampton Park,-38.03,145.27
3977,Botanic Ridge,-38.21,145.32
3977,Cannons Creek,-38.21,145.32
3977,Cranbourne,-38.21,145.32
3977,Cranbourne East,-38.21,145.32
3977,Cranbourne North,-38.21,145.32
3977,Cranbourne South,-38.21,145.32
3977,Cranbourne West,-38.21,145.32
3977,Devon Meadows,-38.21,145.32
3977,Junction Village,-38.21,145.32
3977,Sandhurst,-38.21,145.32
3977,Skye,-38.21,145.32
3978,Cardinia,-38.15,145.42
3978,Clyde,-38.15,145.42
3978,Clyde North,-38.15,145.42
3979,Almurta,-38.43,145.56
3979,Glen Alvie,-38.43,145.56
3979,Kernot,-38.43,145.56
3980,Blind Bight,-38.21,145.34
3980,Tooradin,-38.21,145.34
3980,Warneet,-38.21,145.34
3981,Bayles,-38.18,145.57
3981,Catani,-38.18,145.57
3981,Dalmore,-38.18,145.57
3981,Heath Hill,-38.18,145.57
3981,Koo Wee Rup,-38.18,145.57
3981,Koo Wee Rup North,-38.18,145.57
3981,Yannathan,-38.18,145.57
3984,Adams Estate,-38.32,145.54
3984,Caldermeade,-38.32,145.54
3984,Corinella,-38.32,145.54
3984,Coronet Bay,-38.32,145.54
3984,Grantville,-38.32,145.54
3984,Jam Jerrup,-38.32,145.54
3984,Lang Lang,-38.32,145.54
3984,Lang Lang East,-38.32,145.54
3984,Monomeith,-38.32,145.54
3984,Pioneer Bay,-38.32,145.54
3984,Queensferry,-38.32,145.54
3984,Tenby Point,-38.32,145.54
3984,The Gurdies,-38.32,145.54
3987,Nyora,-38.33,145.67
3988,Mountain View,-38.29,145.89
3988,Poowong,-38.29,145.89
3988,Poowong East,-38.29,145.89
3988,Poowong North,-38.29,145.89
3990,Glen Forbes,-38.45,145.53
3991,Bass,-38.48,145.47
3992,Blackwood Forest,-38.49,145.62
3992,Dalyston,-38.49,145.62
3992,Ryanston,-38.49,145.62
3992,West Creek,-38.49,145.62
3995,Anderson,-38.53,145.45
3995,Archies Creek,-38.53,145.45
3995,Cape Paterson,-38.53,145.45
3995,Harmers Haven,-38.53,145.45
3995,Kilcunda,-38.53,145.45
3995,Lance Creek,-38.53,145.45
3995,North Wonthaggi,-38.53,145.45
3995,South Dudley,-38.53,145.45
3995,St Clair,-38.53,145.45
3995,Wattle Bank,-38.53,145.45
3995,Wonthaggi,-38.53,145.45
3995,Woolamai,-38.53,145.45
3996,Inverloch,-38.63,145.73
3996,Pound Creek,-38.63,145.73
8001,Melbourne,-38.37,144.77
8002,East Melbourne,-38.11,145.15
8003,Collins Street East,0.0,0.0
8004,St Kilda Road,-37.84,144.98
8005,World Trade Centre,-37.82,144.95
8006,Abeckett Street,-37.81,144.96
8007,Collins Street West,0.0,0.0
8008,St Kilda Road Central,0.0,0.0
8009,Flinders Lane,-37.82,144.96
8010,Law Courts,-38.19,146.29
8011,Little Lonsdale Street,-37.81,144.96
8012,Docklands,0.0,0.0
8045,Melbourne,-38.37,144.77
8051,Melbourne,-38.37,144.77
8060,Melbourne,-38.37,144.77
8061,Melbourne,-38.37,144.77
8066,Melbourne,-38.37,144.77
8069,Melbourne,-38.37,144.77
8070,Melbourne,-38.37,144.77
8071,Melbourne,-38.37,144.77
8102,Melbourne,-38.37,144.77
8103,Melbourne,-38.37,144.77
8107,Melbourne,-38.37,144.77
8108,Melbourne,-38.37,144.77
8111,Melbourne,-38.37,144.77
8120,Melbourne,-38.37,144.77
8205,Melbourne,-38.37,144.77
8383,Melbourne,-38.37,144.77
8386,Melbourne,-38.37,144.77
8388,Melbourne,-38.37,144.77
8390,Melbourne,-38.37,144.77
8393,Melbourne,-38.37,144.77
8394,Melbourne,-38.37,144.77
8396,Melbourne,-38.37,144.77
8399,Melbourne,-38.37,144.77
8576,Ivanhoe,-37.76,145.04
8627,Camberwell,-37.84,145.06
8873,Port Melbourne,-37.85,144.89
